{
"type": "FeatureCollection",
"name": "zasieg_SO_cykl_3_epsg4326",
"crs": { "type": "name", "properties": { "name": "urn:ogc:def:crs:OGC:1.3:CRS84" } },
"features": [
{ "type": "Feature", "properties": { "gatunek": "SO", "cykl": 3, "pokrycie": 0.95, "prog_kde": 1.550486438343523e-12 }, "geometry": { "type": "Polygon", "coordinates": [ [ [ 22.018420712735065, 49.906277544441508 ], [ 22.009412251046975, 49.906860919124597 ], [ 21.99922384437032, 49.907508428562956 ], [ 21.980030183401809, 49.908806247879269 ], [ 21.960840343984053, 49.91018232730994 ], [ 21.941654244245687, 49.911636851988277 ], [ 21.922471805786387, 49.913170068596727 ], [ 21.90329295392236, 49.914782291499819 ], [ 21.884117617914079, 49.916473908819036 ], [ 21.864945731173261, 49.918245388397324 ], [ 21.845777231446551, 49.920097283603731 ], [ 21.826612060973613, 49.922030238930738 ], [ 21.814137809143947, 49.923340195289157 ], [ 21.807449239933383, 49.924029051699989 ], [ 21.788287821759194, 49.926078680749654 ], [ 21.769129502945251, 49.928209769799629 ], [ 21.749974246930012, 49.930423373553097 ], [ 21.730822021786327, 49.932720657542241 ], [ 21.711672800201075, 49.935102901645777 ], [ 21.69252655941947, 49.937571503117432 ], [ 21.690430501844016, 49.937849962043074 ], [ 21.673380437326209, 49.940076622700808 ], [ 21.654236845000245, 49.942662906577667 ], [ 21.635096124355258, 49.945338379917168 ], [ 21.615958270332222, 49.948104897844445 ], [ 21.596823281466289, 49.950964436004242 ], [ 21.592307843207582, 49.951657708821365 ], [ 21.57768852750127, 49.953869813866163 ], [ 21.558555771155394, 49.956855306129214 ], [ 21.539425834236749, 49.959938330271669 ], [ 21.520298726407447, 49.9631212795124 ], [ 21.50895202534721, 49.96506329788356 ], [ 21.501173006661716, 49.966378641484354 ], [ 21.482047965118323, 49.969698336198746 ], [ 21.462925732743322, 49.973123541359335 ], [ 21.443806322193911, 49.976656967674565 ], [ 21.435677500032682, 49.978197248907733 ], [ 21.424687644028147, 49.980259609068796 ], [ 21.405570202838398, 49.983943225528783 ], [ 21.386455557412994, 49.987741242028179 ], [ 21.369877983635703, 49.991132060680982 ], [ 21.367343226449663, 49.991646611136488 ], [ 21.348230473923149, 49.995605787710922 ], [ 21.329120459234819, 49.999685462859425 ], [ 21.310013170744035, 50.00388836220359 ], [ 21.30990103181961, 50.003913446535819 ], [ 21.290904921813418, 50.0081400266155 ], [ 21.271799270103006, 50.012517121297272 ], [ 21.254577990987286, 50.016573210444811 ], [ 21.25269584229402, 50.017014832878004 ], [ 21.233591641961123, 50.021571640786931 ], [ 21.214489845572317, 50.026258136471277 ], [ 21.203019855312412, 50.029134935849825 ], [ 21.19538894561957, 50.031044627211536 ], [ 21.176288080910084, 50.035914690874527 ], [ 21.157189270422432, 50.0409155805023 ], [ 21.154548462865396, 50.041616268640738 ], [ 21.138089338786276, 50.045979326939971 ], [ 21.11899062285913, 50.051160687439619 ], [ 21.108593078628029, 50.054031475058082 ], [ 21.099891860303291, 50.056433943128418 ], [ 21.080792492586912, 50.061788715014742 ], [ 21.06470241267164, 50.066391594639121 ], [ 21.061693620893102, 50.067252950180659 ], [ 21.042592644362898, 50.072768505987213 ], [ 21.023492084768129, 50.078396749936765 ], [ 21.022445912488092, 50.078706490213285 ], [ 21.004388488172552, 50.084058098841609 ], [ 20.985284400451672, 50.089815148241087 ], [ 20.981419211728848, 50.090984863785977 ], [ 20.966177035847508, 50.095602641098459 ], [ 20.947067865194871, 50.101457789612972 ], [ 20.941286829623344, 50.103233641037185 ], [ 20.927954884731236, 50.107332729895802 ], [ 20.908838838576571, 50.113246819446019 ], [ 20.901685695063598, 50.115459706228819 ], [ 20.88971823826602, 50.119163487655463 ], [ 20.870593315240821, 50.125088814446727 ], [ 20.862234935649724, 50.127669719405525 ], [ 20.85146297204837, 50.13099469571759 ], [ 20.832327013880768, 50.136875503083651 ], [ 20.822511425626331, 50.139870480899511 ], [ 20.813184750298241, 50.142712267100755 ], [ 20.79403551716798, 50.148485925709771 ], [ 20.782015704447765, 50.152069379566235 ], [ 20.774879191659373, 50.154191225217254 ], [ 20.755714458293482, 50.159790130101896 ], [ 20.740121453655416, 50.164274994942133 ], [ 20.736542075315008, 50.165300167395635 ], [ 20.717359741368789, 50.170654282693967 ], [ 20.698169257207006, 50.175898132265878 ], [ 20.695895854239843, 50.176499436999713 ], [ 20.678967774725276, 50.180946823722387 ], [ 20.659756931251589, 50.185840978848475 ], [ 20.647864118896475, 50.188760970610133 ], [ 20.640535690326342, 50.190545060118097 ], [ 20.621303160106518, 50.195026125826345 ], [ 20.602060577208597, 50.19931324048347 ], [ 20.593660070042986, 50.201087351243565 ], [ 20.582806444669242, 50.203354209582997 ], [ 20.563540928943084, 50.207145181861037 ], [ 20.544264827495102, 50.210701645181231 ], [ 20.527697531018188, 50.213543516539268 ], [ 20.524977787866568, 50.214003776258146 ], [ 20.505678623242559, 50.217004223850388 ], [ 20.486368857945308, 50.219740407662258 ], [ 20.467048551198069, 50.222203926334544 ], [ 20.447717809582372, 50.224387478548991 ], [ 20.428376786937331, 50.226284932994197 ], [ 20.427075772825983, 50.226392951548242 ], [ 20.409024952079335, 50.227866559809563 ], [ 20.389663406219018, 50.229157119302315 ], [ 20.37029249389975, 50.230156348245131 ], [ 20.350912545929013, 50.230863464673341 ], [ 20.331523930045311, 50.231278950269171 ], [ 20.312127048302127, 50.231404549371078 ], [ 20.292722334144372, 50.231243256845957 ], [ 20.273310249217083, 50.230799295086456 ], [ 20.253891279949453, 50.230078080553547 ], [ 20.234465933959999, 50.229086180431217 ], [ 20.227998297975926, 50.228667629586255 ], [ 20.215034249396659, 50.227812098189389 ], [ 20.195596916127997, 50.226269642982921 ], [ 20.176154749079508, 50.224478616516329 ], [ 20.156708319576403, 50.222450079643352 ], [ 20.137258200951944, 50.220195933254182 ], [ 20.121350376230051, 50.218176304619007 ], [ 20.117804754104839, 50.217719817271245 ], [ 20.098347766922135, 50.215000671893932 ], [ 20.07888879187783, 50.212094156753054 ], [ 20.059428386650847, 50.209015117101941 ], [ 20.04904565686217, 50.207282154990331 ], [ 20.039966485072991, 50.205750811774948 ], [ 20.020503535358909, 50.202311646748647 ], [ 20.001040771081829, 50.198746398370005 ], [ 19.987856066525854, 50.196249083004865 ], [ 19.98157825003101, 50.195050397649119 ], [ 19.96211598991178, 50.191216603977225 ], [ 19.942655353383966, 50.187305717929547 ], [ 19.932098903519829, 50.185140365870147 ], [ 19.923196157575735, 50.183303420544988 ], [ 19.90373871314597, 50.179220312727907 ], [ 19.884284072845528, 50.175108143057095 ], [ 19.879032591647412, 50.173984592219995 ], [ 19.864831672860511, 50.170933788734018 ], [ 19.845382395782753, 50.166743051945048 ], [ 19.827019190951162, 50.162797115484757 ], [ 19.825936739877413, 50.162563778213524 ], [ 19.806493956887277, 50.158352425329973 ], [ 19.787055302251975, 50.154183177794017 ], [ 19.774857102567463, 50.151587366973246 ], [ 19.767620532140882, 50.150044126027993 ], [ 19.748189549026929, 50.14593149031343 ], [ 19.728763065849353, 50.141894425955535 ], [ 19.721298559141104, 50.140362898385256 ], [ 19.709340585263305, 50.137905648121375 ], [ 19.689922384717551, 50.133988658525801 ], [ 19.670508794346329, 50.130173460422036 ], [ 19.665091923179233, 50.129128949810131 ], [ 19.651099241172776, 50.12642707662134 ], [ 19.631694060309449, 50.122781449957394 ], [ 19.612293387802648, 50.119256975122106 ], [ 19.604556388441498, 50.117890436921407 ], [ 19.592896754758211, 50.115827729900055 ], [ 19.573504233832804, 50.112509601704069 ], [ 19.55411595879908, 50.10932599622646 ], [ 19.537131907174395, 50.106652458986488 ], [ 19.534731730377555, 50.106273798960352 ], [ 19.515351062344553, 50.103322666977945 ], [ 19.495974264036938, 50.10051454261702 ], [ 19.476601172413258, 50.09785057821513 ], [ 19.457937764880114, 50.095422367323557 ], [ 19.457231606143726, 50.09533018469304 ], [ 19.437865087753622, 50.09292015463339 ], [ 19.418501809744683, 50.090658038569622 ], [ 19.399141591562564, 50.0885437561627 ], [ 19.379784251247319, 50.086577017167677 ], [ 19.360429606060634, 50.084757349687159 ], [ 19.354208275354555, 50.084215727296034 ], [ 19.341077344863859, 50.083066063992248 ], [ 19.321727384407197, 50.081514004515242 ], [ 19.302379604497741, 50.080108907773997 ], [ 19.283033821256307, 50.078849795830031 ], [ 19.263689852115025, 50.077735628433487 ], [ 19.244347516025375, 50.076765320946222 ], [ 19.225006633616363, 50.075937760823834 ], [ 19.205667027307328, 50.075251822759704 ], [ 19.186328521379629, 50.074706382593249 ], [ 19.166990942011008, 50.074300330083396 ], [ 19.147654117276186, 50.074032580646325 ], [ 19.12831787711686, 50.07390208615368 ], [ 19.108982053283963, 50.073907844884651 ], [ 19.089646479254675, 50.07404891072165 ], [ 19.070310990126544, 50.074324401676165 ], [ 19.050975422490506, 50.074733507827226 ], [ 19.031639614284689, 50.075275498751559 ], [ 19.012303404630206, 50.075949730520058 ], [ 18.992966633650305, 50.076755652332231 ], [ 18.973629142273712, 50.077692812855929 ], [ 18.954290772022954, 50.078760866336161 ], [ 18.934951364788169, 50.079959578533774 ], [ 18.915610762586731, 50.081288832550655 ], [ 18.896268807308918, 50.082748634595852 ], [ 18.876925340449478, 50.084339119743227 ], [ 18.873030519121638, 50.084686634913588 ], [ 18.857580277203439, 50.086035456797525 ], [ 18.838233434869178, 50.087853763918069 ], [ 18.818884640150483, 50.089800756784243 ], [ 18.799533734438103, 50.091877018315948 ], [ 18.780180557408727, 50.094083282572804 ], [ 18.763607705171424, 50.096084809457118 ], [ 18.760824978201931, 50.096414109396683 ], [ 18.741467025453193, 50.098836034151212 ], [ 18.722106366078432, 50.101387439787949 ], [ 18.702742834775247, 50.104069572102219 ], [ 18.683376262951768, 50.106883853714379 ], [ 18.679635480256998, 50.107452876808878 ], [ 18.664006802991903, 50.109785485864471 ], [ 18.644634102785204, 50.112807607346383 ], [ 18.625257915473018, 50.115962993863683 ], [ 18.60852047033854, 50.118804283191778 ], [ 18.605878134439614, 50.119244805377313 ], [ 18.586495023587034, 50.122604460841387 ], [ 18.567107968464583, 50.126099471278145 ], [ 18.547716780168489, 50.129732296550891 ], [ 18.545591693138014, 50.13014446910713 ], [ 18.528321929325053, 50.133437883583937 ], [ 18.508922737069316, 50.137273773213181 ], [ 18.48951892478371, 50.141251108662949 ], [ 18.488454371668077, 50.141476220523138 ], [ 18.470111159213033, 50.14529381298339 ], [ 18.450698523911171, 50.149474802020528 ], [ 18.43575243103778, 50.152801506471874 ], [ 18.431280993981176, 50.153781820729101 ], [ 18.411859001085983, 50.158167010432109 ], [ 18.39243155788132, 50.162700593665143 ], [ 18.38651352258665, 50.1641212341627 ], [ 18.372999298909583, 50.167320070215467 ], [ 18.35356162424873, 50.172061980376306 ], [ 18.340134416178383, 50.175436383474199 ], [ 18.334118351759809, 50.176928505576129 ], [ 18.314669867416555, 50.181881858860997 ], [ 18.296146466452051, 50.186747542166572 ], [ 18.295215073919881, 50.186989223403543 ], [ 18.275755175740517, 50.192158333745361 ], [ 18.25628852011593, 50.197490546816233 ], [ 18.254271444878182, 50.198055641671125 ], [ 18.236816397199668, 50.202892234407251 ], [ 18.217337291829239, 50.208450658262947 ], [ 18.21421668775838, 50.209360988365226 ], [ 18.197852323482408, 50.214087389475793 ], [ 18.178360063451962, 50.219879829514348 ], [ 18.175775730813378, 50.220664001030428 ], [ 18.158861672089959, 50.22575093362466 ], [ 18.139355498885038, 50.231786840031681 ], [ 18.138790158142406, 50.231965107907449 ], [ 18.119843066249075, 50.237893646990251 ], [ 18.103146726475735, 50.243264825216258 ], [ 18.100322478727072, 50.244167218682442 ], [ 18.080795012399999, 50.250530328593676 ], [ 18.068723078320435, 50.254563407850696 ], [ 18.061259371447957, 50.257043100252382 ], [ 18.041715874992196, 50.263680206172268 ], [ 18.035425809642582, 50.26586116486898 ], [ 18.02216440516397, 50.270439688061366 ], [ 18.003185917373692, 50.277158472850566 ], [ 18.00260392219462, 50.277363848439215 ], [ 17.983035681856681, 50.284383961497049 ], [ 17.971950439720629, 50.288455743440643 ], [ 17.963458053772349, 50.291569381691772 ], [ 17.943871083127743, 50.298908567258408 ], [ 17.941653928549567, 50.299753190596903 ], [ 17.924275266724376, 50.306370791705973 ], [ 17.912255477129545, 50.311051165772682 ], [ 17.904669267785302, 50.31400734128411 ], [ 17.8850530400554, 50.321810662196896 ], [ 17.883717545443684, 50.322349989817518 ], [ 17.865427030527478, 50.329752998494158 ], [ 17.855995281627038, 50.333649855021008 ], [ 17.845789930369122, 50.337880947997292 ], [ 17.829073159110436, 50.344951188341021 ], [ 17.826141439826777, 50.346196987577045 ], [ 17.806481684895633, 50.35468642512383 ], [ 17.802909410717202, 50.356254115382093 ], [ 17.786810069199916, 50.36336384860995 ], [ 17.777480681124171, 50.367558902279036 ], [ 17.767125799419798, 50.372250473001174 ], [ 17.752775556856591, 50.378865908492045 ], [ 17.747428430709483, 50.381352897615763 ], [ 17.728771806920349, 50.39017535180421 ], [ 17.727717471075028, 50.390679037842581 ], [ 17.70799264532592, 50.40022831166479 ], [ 17.705429107759791, 50.401487217268134 ], [ 17.688253067202488, 50.410022271460967 ], [ 17.682740009772537, 50.412801818086294 ], [ 17.668497960591399, 50.420077200664451 ], [ 17.660692631864471, 50.424119399440919 ], [ 17.648726603222197, 50.430406479324276 ], [ 17.639268493935969, 50.435440109505159 ], [ 17.628938199878725, 50.441025180966605 ], [ 17.618449795488594, 50.44676408064857 ], [ 17.60913187671364, 50.45195013720425 ], [ 17.598219412073203, 50.458091430965617 ], [ 17.589306675928206, 50.463199983254214 ], [ 17.578560893602461, 50.469422265743312 ], [ 17.569461551111438, 50.474795176354895 ], [ 17.55945846308046, 50.480756678856388 ], [ 17.549595363624597, 50.486757976990695 ], [ 17.540897014480741, 50.492094754077954 ], [ 17.529706880527499, 50.499112380403062 ], [ 17.522862108682194, 50.503436566294262 ], [ 17.50979477467461, 50.511883983107964 ], [ 17.505339966544877, 50.514782182612961 ], [ 17.489857627760259, 50.525099766114153 ], [ 17.488317458373047, 50.526131663355699 ], [ 17.471756476695898, 50.537484726719086 ], [ 17.469893774548304, 50.538792801496562 ], [ 17.455639904753731, 50.548841341921758 ], [ 17.449901503790965, 50.552995703942393 ], [ 17.439975812721855, 50.560201800941101 ], [ 17.429879258290619, 50.567734624016872 ], [ 17.424752762228106, 50.571566130891405 ], [ 17.409957839865928, 50.582934327654534 ], [ 17.409825337074764, 50.58303849533165 ], [ 17.39549646262855, 50.594305250617523 ], [ 17.389736984492256, 50.59896552523864 ], [ 17.381431307353964, 50.605679894507631 ], [ 17.369613454366458, 50.615512664324058 ], [ 17.3677520593995, 50.617058257575295 ], [ 17.35436769804522, 50.628439189237056 ], [ 17.349452026909333, 50.632733213392498 ], [ 17.341305734643701, 50.639823182341047 ], [ 17.329252163081058, 50.650616138267381 ], [ 17.3285850436781, 50.651210615485894 ], [ 17.316072899832673, 50.662599681665526 ], [ 17.309011487616313, 50.669201888675971 ], [ 17.303855058175714, 50.673991696041867 ], [ 17.291876044948832, 50.685385937496257 ], [ 17.288730768773643, 50.688442321740467 ], [ 17.280077996706115, 50.696781625333664 ], [ 17.268533027202555, 50.708179885569017 ], [ 17.268410349066343, 50.708303051727384 ], [ 17.257067315195357, 50.719578193916888 ], [ 17.248051253559538, 50.72873291813859 ], [ 17.245814717670314, 50.730978588207087 ], [ 17.2346284146786, 50.742378906564738 ], [ 17.227657669071828, 50.74959939085079 ], [ 17.223568830203931, 50.753780088842433 ], [ 17.212556091352859, 50.765180946571974 ], [ 17.207234695362065, 50.77075235656276 ], [ 17.201584120440454, 50.776581399452674 ], [ 17.190631668306107, 50.787981129484493 ], [ 17.186789084273371, 50.792006139939097 ], [ 17.179631764538808, 50.799379097134988 ], [ 17.16861973953964, 50.810775844232722 ], [ 17.166328900548184, 50.81315034111843 ], [ 17.15746398230856, 50.822169288859399 ], [ 17.146264413070842, 50.833560978507158 ], [ 17.145862854296176, 50.833968187052911 ], [ 17.13480984261686, 50.844947524816341 ], [ 17.125400043405808, 50.854243357866132 ], [ 17.123239421632881, 50.856331092405988 ], [ 17.111370220452052, 50.867708686839535 ], [ 17.104948275864739, 50.873801320505486 ], [ 17.099246246292463, 50.879080935290595 ], [ 17.086811548099742, 50.890446842476514 ], [ 17.084513604453786, 50.892518274241745 ], [ 17.073933999774042, 50.901804130283558 ], [ 17.064101774337104, 50.910283388979096 ], [ 17.060677530520902, 50.913153716503821 ], [ 17.046894499819533, 50.924493003737133 ], [ 17.04371576295026, 50.927056682065249 ], [ 17.032506636716526, 50.935820488870903 ], [ 17.023358062252981, 50.942811321556512 ], [ 17.017508406402094, 50.947135857203662 ], [ 17.003028566903801, 50.95758214992852 ], [ 17.001800867766963, 50.958437183221811 ], [ 16.985197706343971, 50.969720969349112 ], [ 16.98272917694991, 50.971356199391749 ], [ 16.967621200547583, 50.980985485122432 ], [ 16.962458861625723, 50.984187904451424 ], [ 16.948952802041656, 50.992228213685863 ], [ 16.942216613293013, 50.996128867444135 ], [ 16.929012420102563, 51.003445443337924 ], [ 16.922001689601849, 51.007222596811381 ], [ 16.907583530001041, 51.014632649892945 ], [ 16.901813132832228, 51.017515568739441 ], [ 16.88440275876534, 51.025784251318967 ], [ 16.881649857159378, 51.027055175860738 ], [ 16.861511465209468, 51.035871959945105 ], [ 16.859050365643014, 51.036891520919369 ], [ 16.841397386786134, 51.043998955661976 ], [ 16.830977758456058, 51.047942870855032 ], [ 16.821305454600004, 51.051501918603741 ], [ 16.801234905753486, 51.05841445534454 ], [ 16.799650443925355, 51.058926287631657 ], [ 16.781187094718348, 51.064724620928558 ], [ 16.763680943796423, 51.069812620146529 ], [ 16.761158313809663, 51.070525742514256 ], [ 16.741150903570237, 51.075783569066324 ], [ 16.721271050255073, 51.080562547396553 ], [ 16.721161149024073, 51.08058824811264 ], [ 16.70119194909493, 51.084893336584145 ], [ 16.681239788602035, 51.088782202237148 ], [ 16.668150957448333, 51.091083957692611 ], [ 16.661305226184542, 51.092254573979638 ], [ 16.641388614262553, 51.095314221570909 ], [ 16.621488019188376, 51.098009296856681 ], [ 16.60160309260187, 51.100355694787481 ], [ 16.593860898941809, 51.101147388504145 ], [ 16.581734431092798, 51.102350665055852 ], [ 16.56188117694294, 51.104019161209514 ], [ 16.542042318905434, 51.105388201797027 ], [ 16.522217429582714, 51.106473007376138 ], [ 16.502406062953717, 51.107288645877055 ], [ 16.482607754004878, 51.107850047076624 ], [ 16.462822018706589, 51.108172010040505 ], [ 16.443048354313994, 51.108269204295844 ], [ 16.423286239968377, 51.108156165493305 ], [ 16.403535137573286, 51.107847286311411 ], [ 16.383794492917122, 51.107356803348054 ], [ 16.364063737012199, 51.106698780729857 ], [ 16.344342287618854, 51.105887091152532 ], [ 16.324629550922197, 51.104935395039284 ], [ 16.304924923328446, 51.103857118474615 ], [ 16.285227793348032, 51.102665430533051 ], [ 16.26553754353279, 51.101373220579596 ], [ 16.245853552435829, 51.099993076070959 ], [ 16.22617519656389, 51.098537261334272 ], [ 16.206501852293847, 51.097017697744327 ], [ 16.186832897727147, 51.095445945663165 ], [ 16.167167714458525, 51.093833188445998 ], [ 16.147505689237757, 51.092190218759789 ], [ 16.129423536455192, 51.090660072143343 ], [ 16.127846311367705, 51.090525881036292 ], [ 16.108190020913426, 51.088833547126036 ], [ 16.088535123731226, 51.087140732359316 ], [ 16.068881031621697, 51.085456735277987 ], [ 16.04922716779387, 51.083790429330215 ], [ 16.029572967609163, 51.082150265251386 ], [ 16.009917879141543, 51.080544276152857 ], [ 15.990261363555032, 51.078980085186657 ], [ 15.970602895301351, 51.077464915629719 ], [ 15.950941962142414, 51.076005603214348 ], [ 15.931278065003646, 51.074608610518212 ], [ 15.917794111302733, 51.07369678264363 ], [ 15.911611043513268, 51.073275152524275 ], [ 15.891940730733767, 51.072006511163075 ], [ 15.87226594751996, 51.070818938049086 ], [ 15.852586232454019, 51.069717708259944 ], [ 15.83290113413489, 51.068707818761887 ], [ 15.813210210137202, 51.06779401183767 ], [ 15.793513025857234, 51.066980799283805 ], [ 15.773809153253923, 51.066272487228446 ], [ 15.754098169492368, 51.065673201436894 ], [ 15.734379655496427, 51.065186912990235 ], [ 15.714653194415998, 51.064817464239752 ], [ 15.694918370013729, 51.064568594958246 ], [ 15.675174764974722, 51.064443968627273 ], [ 15.655421959141734, 51.064447198816737 ], [ 15.635659527677324, 51.064581875630516 ], [ 15.615887039153066, 51.064851592208647 ], [ 15.606104695243619, 51.065054031471249 ], [ 15.596104836660979, 51.065249306301503 ], [ 15.576312721619257, 51.065775470095154 ], [ 15.556509494159023, 51.066444000869282 ], [ 15.536694695383249, 51.067258574661899 ], [ 15.5168678502255, 51.068222994173318 ], [ 15.497028465127574, 51.069341215425432 ], [ 15.47717602561764, 51.070617374779864 ], [ 15.457309993780086, 51.072055816410071 ], [ 15.455954210335506, 51.072164809000824 ], [ 15.437433233379071, 51.073616535103767 ], [ 15.417542388968551, 51.075340858999155 ], [ 15.397636617712667, 51.077236870456865 ], [ 15.377715289411519, 51.079309745729148 ], [ 15.363639676502313, 51.08089832988955 ], [ 15.357779145502121, 51.081547094344344 ], [ 15.337829864254795, 51.083924944961993 ], [ 15.317863429920511, 51.086491468123299 ], [ 15.297879082067809, 51.089253048892253 ], [ 15.291442882007232, 51.090199840191922 ], [ 15.277880064870162, 51.092166107468856 ], [ 15.257863917465482, 51.095258590293277 ], [ 15.237827891779883, 51.098561361931637 ], [ 15.230581438483407, 51.099823433785382 ], [ 15.217775396471087, 51.102029266188161 ], [ 15.197704121644412, 51.105687715652039 ], [ 15.17761066083391, 51.109574840044154 ], [ 15.177188172952379, 51.109660263845932 ], [ 15.157501405466945, 51.113609973840184 ], [ 15.137368587905407, 51.117883728143923 ], [ 15.129387173215152, 51.11965838647226 ], [ 15.117215700398377, 51.122350651162066 ], [ 15.097040446145339, 51.12703483263877 ], [ 15.085763435401084, 51.129777228458032 ], [ 15.076842140112776, 51.131940845523864 ], [ 15.05662097907372, 51.137062817582901 ], [ 15.045542044071835, 51.13999521782813 ], [ 15.036374945059592, 51.142420809363287 ], [ 15.016103963482196, 51.148011906573139 ], [ 15.015704651641048, 51.150554256238621 ], [ 14.995176289475358, 51.161118261095019 ], [ 14.994625919122072, 51.161406514769581 ], [ 14.995123174487656, 51.16173069413621 ], [ 15.012192417051891, 51.173580863469056 ], [ 15.010507347991803, 51.185096552006293 ], [ 15.012775056199912, 51.186573553210366 ], [ 15.028259635886522, 51.197274638073978 ], [ 15.026678245125222, 51.208794022302584 ], [ 15.025132578015135, 51.220314597959749 ], [ 15.023620083909163, 51.231836279381007 ], [ 15.028416659879294, 51.234956139707577 ], [ 15.041629884621882, 51.244020780155864 ], [ 15.040193593855772, 51.255545192111889 ], [ 15.038783210755792, 51.267070461067128 ], [ 15.037396939885577, 51.278596526893814 ], [ 15.036033120860321, 51.290123333962946 ], [ 15.023071379148421, 51.296832728074087 ], [ 15.015122023326601, 51.300985563417775 ], [ 15.0137851036234, 51.312513080370422 ], [ 15.001287665646796, 51.318987794034747 ], [ 14.992886088535414, 51.323371904329527 ], [ 14.991572319860735, 51.334900013945358 ], [ 14.979479759275382, 51.341170091905845 ], [ 14.970682729330274, 51.34575535401072 ], [ 14.969388832175996, 51.357283953069853 ], [ 14.97759907633885, 51.3626180766529 ], [ 14.987726990658727, 51.36948752478159 ], [ 14.976483927360857, 51.375323095005371 ], [ 14.966845056558563, 51.380342615304734 ], [ 14.965593254310237, 51.391872612878274 ], [ 14.964353669291892, 51.40340301473563 ], [ 14.963125496038788, 51.414933793389132 ], [ 14.961907983119232, 51.426464923187908 ], [ 14.971441892551665, 51.432651366409011 ], [ 14.980382025066289, 51.438673940483397 ], [ 14.970456433936056, 51.443833921848992 ], [ 14.959502178517923, 51.449528141981915 ], [ 14.95831261907982, 51.46106018767216 ], [ 14.94855992669034, 51.466132635076768 ], [ 14.937431925660851, 51.471910589522111 ], [ 14.927661823471547, 51.476993339767631 ], [ 14.91655132119832, 51.482757378519132 ], [ 14.906753322404889, 51.487855836211025 ], [ 14.886866515495997, 51.487272448156638 ], [ 14.866979804327091, 51.48669238665574 ], [ 14.856315435200804, 51.492214419884455 ], [ 14.846051650153729, 51.497557357726656 ], [ 14.835440436234711, 51.503047260343259 ], [ 14.82511302560299, 51.508424510411913 ], [ 14.814566208299519, 51.513876518837378 ], [ 14.804163910792738, 51.519293906560023 ], [ 14.784263223959357, 51.518720118297757 ], [ 14.764362477467039, 51.518151126563026 ], [ 14.754412571001968, 51.523284748545926 ], [ 14.743393357183548, 51.529025764704222 ], [ 14.733549693069124, 51.534100304835498 ], [ 14.732311300120447, 51.545628967165918 ], [ 14.721338419525273, 51.551347450597348 ], [ 14.711447097805056, 51.556440719115521 ], [ 14.710212043705216, 51.567969334003841 ], [ 14.719223074489962, 51.573839971069759 ], [ 14.728636355423637, 51.580216332017955 ], [ 14.738030672542315, 51.586332002272599 ], [ 14.747100771129135, 51.592461734775029 ], [ 14.756850218428674, 51.598803739957617 ], [ 14.765602692819972, 51.604705429608863 ], [ 14.764417889076663, 51.616236221361575 ], [ 14.754751002827192, 51.621273883511421 ], [ 14.74351973487202, 51.627052748946255 ], [ 14.75359788048184, 51.633604516397646 ], [ 14.762060968551266, 51.639298220789293 ], [ 14.752603895362276, 51.644226370897826 ], [ 14.741153985924555, 51.650114139037555 ], [ 14.751427399765094, 51.656790090820508 ], [ 14.759719195093309, 51.662360711530731 ], [ 14.750452967436027, 51.667189049580379 ], [ 14.738803041923001, 51.673176011151554 ], [ 14.73763254478809, 51.684707107239007 ], [ 14.728325843075817, 51.689556636712602 ], [ 14.716711451989349, 51.695518472203815 ], [ 14.707264987005349, 51.700441178388942 ], [ 14.695790482706839, 51.706326229294142 ], [ 14.686193495691828, 51.711327727814954 ], [ 14.674870044587278, 51.717130394777996 ], [ 14.673687860624124, 51.728660623136918 ], [ 14.664010316840596, 51.733704063628871 ], [ 14.652763359080973, 51.739460886461849 ], [ 14.651578835441155, 51.750990873160745 ], [ 14.650396860208204, 51.762520941154392 ], [ 14.649217290239966, 51.774051085210608 ], [ 14.64803999244887, 51.785581300466127 ], [ 14.646864843037871, 51.797111582398578 ], [ 14.63736366566024, 51.802061056626208 ], [ 14.617342283540781, 51.801458718986893 ], [ 14.606154499384154, 51.807168513099313 ], [ 14.596198656644559, 51.8123560051176 ], [ 14.585215064237065, 51.817956827028411 ], [ 14.584024359575713, 51.829486108514516 ], [ 14.593897248722701, 51.83590584081476 ], [ 14.602603999192306, 51.841757550256929 ], [ 14.601424293824159, 51.853287346143325 ], [ 14.611652032117076, 51.8599313108299 ], [ 14.631671927781714, 51.860816631911284 ], [ 14.639853120536772, 51.866294457315753 ], [ 14.65057652835636, 51.873251096497171 ], [ 14.658519797867681, 51.878559791110085 ], [ 14.66949252746452, 51.885672670036904 ], [ 14.67721289197309, 51.890822966583116 ], [ 14.688419853502808, 51.898082060606583 ], [ 14.695931294511858, 51.903083930901694 ], [ 14.69479114708172, 51.914615745239693 ], [ 14.693652024586832, 51.926147584403225 ], [ 14.705149823697798, 51.933586187358173 ], [ 14.71240880982729, 51.938407018348649 ], [ 14.711277546919575, 51.949939239142523 ], [ 14.710147104434476, 51.961471477166292 ], [ 14.709017434301428, 51.973003730704193 ], [ 14.707888489039711, 51.984535998060842 ], [ 14.719701711871995, 51.992166341891817 ], [ 14.72669447741951, 51.996794486107646 ], [ 14.725572555758621, 52.008327101820392 ], [ 14.72445118258052, 52.01985972483687 ], [ 14.736491318638214, 52.027627322116956 ], [ 14.743290965466304, 52.032116471882027 ], [ 14.742176136038097, 52.043649423546107 ], [ 14.741061689361411, 52.0551823764293 ], [ 14.753307332154224, 52.063073075390818 ], [ 14.759933744027789, 52.067437309799075 ], [ 14.752527473424156, 52.071278740362864 ], [ 14.738833764611824, 52.078248279469065 ], [ 14.737720195762769, 52.08978122639656 ], [ 14.730185362185855, 52.093688465691464 ], [ 14.710036506577843, 52.093046625844707 ], [ 14.696628514717906, 52.099859059898371 ], [ 14.688774847041154, 52.103932084692346 ], [ 14.675524007326546, 52.110658899315439 ], [ 14.674394589868342, 52.122190883154168 ], [ 14.673265290054571, 52.133722859148264 ], [ 14.672136056379086, 52.145254825430783 ], [ 14.684035183552632, 52.152922441799362 ], [ 14.691008977214468, 52.157520509155184 ], [ 14.703079535069753, 52.165292508526782 ], [ 14.709902159066914, 52.16978373586371 ], [ 14.702264232366787, 52.173739153559275 ], [ 14.688761162209056, 52.180585003361877 ], [ 14.687637061349351, 52.192117225162313 ], [ 14.686512769883366, 52.203649427864136 ], [ 14.698620393113757, 52.211438709997637 ], [ 14.705426693420169, 52.215913823409032 ], [ 14.704307228473366, 52.227446292992397 ], [ 14.703187444034734, 52.238978738774591 ], [ 14.702067304081529, 52.250511159460544 ], [ 14.694453573217565, 52.254447014045247 ], [ 14.674232520077673, 52.253800500651941 ], [ 14.660836503419276, 52.260573560135377 ], [ 14.652882436009874, 52.264685240832492 ], [ 14.632656734741062, 52.264041836847824 ], [ 14.619623005906549, 52.27062241413612 ], [ 14.611290750330475, 52.274929451806841 ], [ 14.591060275378252, 52.274290273030282 ], [ 14.578430512244683, 52.280657881404437 ], [ 14.577276117911563, 52.292188292944893 ], [ 14.57612116533093, 52.30371867209162 ], [ 14.57496562945124, 52.315249017920159 ], [ 14.56621839425795, 52.319765988565273 ], [ 14.553780107477891, 52.326025747945295 ], [ 14.552617755027248, 52.337555697189885 ], [ 14.551454755435905, 52.349085610751807 ], [ 14.550291106746133, 52.360615488571717 ], [ 14.549126814264611, 52.372145330864335 ], [ 14.547961890865178, 52.383675138130151 ], [ 14.53899507312255, 52.388296436753485 ], [ 14.526745159637208, 52.394446376501207 ], [ 14.537663513853722, 52.401473601752564 ], [ 14.545630242149421, 52.406734651069989 ], [ 14.544463582503317, 52.418264359254394 ], [ 14.54329642354381, 52.42979403744318 ], [ 14.55444169363736, 52.436958627090625 ], [ 14.574722243360826, 52.43783944987365 ], [ 14.582313265109692, 52.442834489305199 ], [ 14.593851837253363, 52.45024177212364 ], [ 14.60127140146113, 52.455115973102032 ], [ 14.600120625271726, 52.46664658153491 ], [ 14.611844056165456, 52.474164991913682 ], [ 14.619105825757359, 52.478925949087703 ], [ 14.631000974534388, 52.486548450234451 ], [ 14.638112072703219, 52.491202861498273 ], [ 14.636972588268149, 52.502734084101697 ], [ 14.62898574478454, 52.506836269090819 ], [ 14.615670234835664, 52.513518639593002 ], [ 14.6145253322393, 52.525049524635463 ], [ 14.61338074566569, 52.53658041009642 ], [ 14.612236584619728, 52.54811130007289 ], [ 14.624120408308157, 52.55571681036843 ], [ 14.631279075851293, 52.560390170154825 ], [ 14.630141900688695, 52.571921409737733 ], [ 14.622092414802079, 52.576049796452502 ], [ 14.608807821907444, 52.582704040784812 ], [ 14.607666551546526, 52.594234993317748 ], [ 14.606526320881821, 52.605765973365457 ], [ 14.598250852361307, 52.610007547310836 ], [ 14.585181268596971, 52.616544242194294 ], [ 14.576702829622626, 52.620888761504851 ], [ 14.556315016398587, 52.620230547445779 ], [ 14.543642712243578, 52.626559475174616 ], [ 14.534750761615738, 52.631114372823404 ], [ 14.522300703273725, 52.637326866177688 ], [ 14.513175218500594, 52.642000211174569 ], [ 14.5009592222544, 52.648090574917454 ], [ 14.491588337363009, 52.652888394474161 ], [ 14.471185567439084, 52.652236855642123 ], [ 14.459452385698286, 52.65807812736675 ], [ 14.458280284999134, 52.6696070458582 ], [ 14.448380344670895, 52.674673257036353 ], [ 14.436944170606628, 52.680359863952219 ], [ 14.435770884364635, 52.691888602753195 ], [ 14.425549952373617, 52.697117181441328 ], [ 14.414434701199097, 52.702637600023962 ], [ 14.403910780785305, 52.708019972328408 ], [ 14.393102801964289, 52.713383071303625 ], [ 14.391926487269943, 52.72491143679629 ], [ 14.38103691746044, 52.730479099482487 ], [ 14.370597305317061, 52.735653202304597 ], [ 14.35936787959111, 52.741393479589 ], [ 14.349274598599521, 52.746391535402864 ], [ 14.337686978690666, 52.752313777850176 ], [ 14.327959445757552, 52.757126483465406 ], [ 14.315994122958031, 52.76324064213744 ], [ 14.306653012318918, 52.767858098073056 ], [ 14.294289213467763, 52.774174772768461 ], [ 14.273827733559335, 52.773553834672107 ], [ 14.265257191577007, 52.777784289369876 ], [ 14.264071444691927, 52.789311556512693 ], [ 14.250842798070238, 52.796067923433434 ], [ 14.242799145031029, 52.800033528007376 ], [ 14.22910105275299, 52.807028648032116 ], [ 14.221541251890256, 52.810752422284096 ], [ 14.20734677329356, 52.818000059021792 ], [ 14.186862187961317, 52.817406288883824 ], [ 14.180258560913986, 52.82065438727183 ], [ 14.165089215085521, 52.828397971779964 ], [ 14.144597922935194, 52.827822387461886 ], [ 14.139053761559479, 52.83054543986993 ], [ 14.137868056307729, 52.842072014132953 ], [ 14.136690409882053, 52.853598912023791 ], [ 14.141377099669805, 52.856619086955369 ], [ 14.155534265835168, 52.865946185598219 ], [ 14.154377548421374, 52.8774740310227 ], [ 14.159268623324209, 52.880622735836383 ], [ 14.173274569538849, 52.889820363931115 ], [ 14.157332441158177, 52.89795903469799 ], [ 14.152089205108794, 52.90053072722516 ], [ 14.150957844441869, 52.912059589159036 ], [ 14.149835158059357, 52.923588799318431 ], [ 14.1487212087979, 52.935118360426046 ], [ 14.14761602515949, 52.94664827379821 ], [ 14.146519597263492, 52.958178539178419 ], [ 14.150317539719049, 52.960619891369987 ], [ 14.165494715175624, 52.970528681175921 ], [ 14.169538853984765, 52.973126208100162 ], [ 14.190042618989631, 52.974209898591674 ], [ 14.204612883775331, 52.98369160561959 ], [ 14.20928412132243, 52.986687743793865 ], [ 14.229798002174373, 52.987744128218424 ], [ 14.243826279891648, 52.996844984952382 ], [ 14.249059284449503, 53.000196770498441 ], [ 14.262936953427999, 53.00918411985613 ], [ 14.26833265776013, 53.012637337765959 ], [ 14.288863655034588, 53.013658622039316 ], [ 14.302279342663853, 53.022322547943851 ], [ 14.308156264223348, 53.026078499034647 ], [ 14.321455913382666, 53.034654340203353 ], [ 14.327460670198169, 53.038488899825246 ], [ 14.340653428337193, 53.046983651107965 ], [ 14.346776769772033, 53.050890785183938 ], [ 14.359870229543002, 53.059310406299367 ], [ 14.358835298990517, 53.070844035033474 ], [ 14.364876922474425, 53.074695083468562 ], [ 14.378071894787213, 53.083168322385433 ], [ 14.377040192630714, 53.094702146068876 ], [ 14.37600891609681, 53.106235978840182 ], [ 14.374977330981396, 53.117769792145474 ], [ 14.380546649181234, 53.121314608586061 ], [ 14.394227360728456, 53.130091507805986 ], [ 14.393192219734297, 53.141625251643298 ], [ 14.377504187631283, 53.149608806327542 ], [ 14.371872787308476, 53.152370806382166 ], [ 14.3708318825503, 53.163904227092232 ], [ 14.369786509077979, 53.175437466327807 ], [ 14.374405752244868, 53.17837437671723 ], [ 14.389014805295734, 53.18775872221542 ], [ 14.387957075574203, 53.199291552058398 ], [ 14.392566328058839, 53.202219098291337 ], [ 14.407185468624933, 53.211609574974702 ], [ 14.406112661521771, 53.223141894111407 ], [ 14.410744423851025, 53.226080710813072 ], [ 14.425339499270569, 53.235456623993556 ], [ 14.430162117989314, 53.238514053596695 ], [ 14.444572883064579, 53.247768290982243 ], [ 14.44959080134028, 53.250946951991082 ], [ 14.463813028838326, 53.260076901015879 ], [ 14.447756415759573, 53.268190222198598 ], [ 14.442367099260386, 53.270830928072506 ], [ 14.425815623812294, 53.279186642697645 ], [ 14.420923951729099, 53.281581364614361 ], [ 14.419795483770539, 53.293111583215243 ], [ 14.418656815221485, 53.304641400793173 ], [ 14.417507938894074, 53.316170816946517 ], [ 14.41634895019426, 53.327699835220834 ], [ 14.415180045187284, 53.339228463037074 ], [ 14.414001516869563, 53.350756711550709 ], [ 14.396381543509351, 53.359599047931844 ], [ 14.392487316052486, 53.361500039515178 ], [ 14.39594017504281, 53.363685129081951 ], [ 14.411617213474191, 53.373812132692215 ], [ 14.393885137110466, 53.382696958135604 ], [ 14.390077928719949, 53.384554255721277 ], [ 14.388860950776994, 53.396080875157722 ], [ 14.387636680151815, 53.407607203386661 ], [ 14.386405858239012, 53.419133269015113 ], [ 14.38516926950417, 53.430659102333628 ], [ 14.383927731756739, 53.442184734940966 ], [ 14.382682086884335, 53.453710199386613 ], [ 14.364333485149089, 53.462862519349422 ], [ 14.361079475396346, 53.464445400070758 ], [ 14.359821626428662, 53.475970255725422 ], [ 14.358562063039892, 53.487495035640301 ], [ 14.357301676951275, 53.499019774523923 ], [ 14.33847270992969, 53.50839497136387 ], [ 14.335681485120261, 53.50975017155055 ], [ 14.334414950928199, 53.521274534933298 ], [ 14.333150112553067, 53.532798955823885 ], [ 14.313828147357176, 53.542410661829337 ], [ 14.311528769585752, 53.543525315415906 ], [ 14.310262611807541, 53.55504955003893 ], [ 14.312286999144531, 53.556328210037613 ], [ 14.329374275049247, 53.567372896840801 ], [ 14.328124611299435, 53.578897876797825 ], [ 14.326880728330353, 53.590423074539196 ], [ 14.325643379345317, 53.601948519675403 ], [ 14.324413299828416, 53.613474241138491 ], [ 14.304864782292812, 53.623192194316559 ], [ 14.302782311222838, 53.624199367026399 ], [ 14.301562247065393, 53.635725356199245 ], [ 14.300351762489356, 53.647251714397385 ], [ 14.299151572301273, 53.658778469922623 ], [ 14.278811213622564, 53.668892752047739 ], [ 14.277551700357575, 53.669500749987016 ], [ 14.278664468864369, 53.670202491560225 ], [ 14.296784927199758, 53.681833285938197 ], [ 14.27621312479388, 53.692066107615446 ], [ 14.275197898388772, 53.692555857557032 ], [ 14.274040813194276, 53.704084184159612 ], [ 14.272897953816555, 53.715613066404664 ], [ 14.271770105573133, 53.727142535568916 ], [ 14.272240276615804, 53.727438711778177 ], [ 14.291099145500587, 53.739479287669205 ], [ 14.269685639951991, 53.75014416377698 ], [ 14.269562715214882, 53.750203364998427 ], [ 14.269671278165426, 53.750271722154856 ], [ 14.288933409803173, 53.762541917159908 ], [ 14.28787718915304, 53.774074272120053 ], [ 14.28735732085809, 53.779847157226982 ], [ 14.292610176162674, 53.785834531821749 ], [ 14.304127621624659, 53.797860976096629 ], [ 14.306142866891445, 53.799812464753792 ], [ 14.316923222228032, 53.809936200157921 ], [ 14.325237455539307, 53.817161493881038 ], [ 14.33106352264873, 53.822062367842499 ], [ 14.344555372980036, 53.832638452219101 ], [ 14.346674877923723, 53.834243890842927 ], [ 14.363905050255779, 53.846485889515705 ], [ 14.364056299740517, 53.846587382756304 ], [ 14.382925176021478, 53.858794234913638 ], [ 14.38370901980252, 53.859274356774726 ], [ 14.403485361560492, 53.870941417673031 ], [ 14.403895102689718, 53.871174176609024 ], [ 14.423369874284539, 53.881717895035365 ], [ 14.427052768203932, 53.883633739070092 ], [ 14.443345600081422, 53.891748813763037 ], [ 14.452613692535209, 53.896179794386939 ], [ 14.463400225411851, 53.901138624995276 ], [ 14.480821311013123, 53.908819941739615 ], [ 14.483523922529816, 53.909970400174188 ], [ 14.503713634046553, 53.918265628588166 ], [ 14.512078762017966, 53.9215673600008 ], [ 14.523958748414969, 53.926116560218475 ], [ 14.544253015446529, 53.93357610923438 ], [ 14.546653440299179, 53.934429540792088 ], [ 14.564595705691103, 53.940646119117503 ], [ 14.584976929448667, 53.947414994859436 ], [ 14.584992510359879, 53.947420019109067 ], [ 14.605398781438794, 53.953858915911177 ], [ 14.625852391491877, 53.960058156713743 ], [ 14.627523640224853, 53.960550707420204 ], [ 14.646339047494884, 53.965997126253598 ], [ 14.666852848242934, 53.971729099553762 ], [ 14.674582648850221, 53.973829177040187 ], [ 14.687392984303809, 53.977259099145378 ], [ 14.707956651288653, 53.982611598589983 ], [ 14.726322959051672, 53.987255478265944 ], [ 14.72854120848695, 53.987809918867718 ], [ 14.749145898791257, 53.992859349230123 ], [ 14.769767803854565, 53.997786552013714 ], [ 14.782739016869494, 54.000823270686972 ], [ 14.79040555286149, 54.002603379373589 ], [ 14.811057715268573, 54.007322498918654 ], [ 14.831722619910034, 54.011959221174742 ], [ 14.843217456784053, 54.014504630183978 ], [ 14.852398828981212, 54.016526807515731 ], [ 14.873085023699453, 54.021037574563906 ], [ 14.893780175743471, 54.025501134501653 ], [ 14.906634226903906, 54.02825502010667 ], [ 14.914482841849251, 54.029931513244748 ], [ 14.935191741359874, 54.034341349128127 ], [ 14.955906394535804, 54.038735293552996 ], [ 14.971381281462907, 54.042015795616109 ], [ 14.976625514657453, 54.043126432506945 ], [ 14.997347558663801, 54.047530778298373 ], [ 15.018072670324232, 54.051947053993196 ], [ 15.035725035817737, 54.055727583845027 ], [ 15.038799794828636, 54.056386535633749 ], [ 15.059526991402164, 54.06087007551244 ], [ 15.08025505507077, 54.065389948302069 ], [ 15.098205363796186, 54.069343641890249 ], [ 15.100983055203423, 54.069956660297429 ], [ 15.121708888204893, 54.074593501781628 ], [ 15.142433861236299, 54.079287520699118 ], [ 15.157884229349751, 54.082836940575483 ], [ 15.16315685138118, 54.084051799087092 ], [ 15.183876255177909, 54.088904924249505 ], [ 15.204593542459031, 54.093832257024829 ], [ 15.214374708790308, 54.096199538446406 ], [ 15.225306900449148, 54.098854948011848 ], [ 15.246016263168082, 54.103975286963689 ], [ 15.266722718572883, 54.109182786016923 ], [ 15.267714242503542, 54.109437170416626 ], [ 15.287423149060233, 54.114513731396585 ], [ 15.308120308110839, 54.119939227095294 ], [ 15.317907051661411, 54.122554231726831 ], [ 15.328812448670147, 54.125480592199303 ], [ 15.349499810331098, 54.131137045874965 ], [ 15.365416929647081, 54.135568751802161 ], [ 15.370183167648625, 54.136901679890748 ], [ 15.39086066133526, 54.142797682947538 ], [ 15.410492508856461, 54.148491388468074 ], [ 15.411535077213458, 54.148795114084386 ], [ 15.432203044840481, 54.154934857672664 ], [ 15.45286859405376, 54.161172293133617 ], [ 15.453389114667861, 54.161332457150145 ], [ 15.473991656111057, 54.16210671233685 ], [ 15.495127765249267, 54.162896410826896 ], [ 15.516264932654453, 54.163681322710048 ], [ 15.535842488061711, 54.175303362653025 ], [ 15.536465201816673, 54.175678026328839 ], [ 15.557609454027524, 54.17646209716829 ], [ 15.578754794449047, 54.177240901147485 ], [ 15.597983076112097, 54.188644325105457 ], [ 15.598978855547978, 54.189242205259312 ], [ 15.620131362987147, 54.19001919653585 ], [ 15.641284985822752, 54.190790438905417 ], [ 15.662439723100684, 54.191555846662276 ], [ 15.680965983888681, 54.202529169156087 ], [ 15.682693833546002, 54.203563808871074 ], [ 15.703855842828936, 54.204325997606873 ], [ 15.725018986495153, 54.205081912841436 ], [ 15.746183260627951, 54.205831494062906 ], [ 15.763978269941211, 54.216356762385267 ], [ 15.766467694665353, 54.217843430495591 ], [ 15.787639330699015, 54.218588444510395 ], [ 15.8053069061625, 54.229027546736255 ], [ 15.80794180261945, 54.230598780188686 ], [ 15.829120846474504, 54.231338585317445 ], [ 15.850301044824137, 54.232071389407913 ], [ 15.867515651581797, 54.242228725024837 ], [ 15.87062790947083, 54.244080759724341 ], [ 15.891815568285949, 54.244807449446988 ], [ 15.913004381424024, 54.245526862765125 ], [ 15.934194338300495, 54.246239004342158 ], [ 15.95538542797869, 54.246943883729216 ], [ 15.976577639209976, 54.247641514987755 ], [ 15.997770960472439, 54.248331916316509 ], [ 16.018965380007902, 54.249015109685672 ], [ 16.034273249428157, 54.258016661041353 ], [ 16.039348703447889, 54.261021471426616 ], [ 16.060550632528138, 54.261696756675818 ], [ 16.081753646009986, 54.262364702275754 ], [ 16.096639092083894, 54.271101781577684 ], [ 16.102161795137583, 54.274364571040664 ], [ 16.123372330973332, 54.27502403681175 ], [ 16.138106832903325, 54.283659618476939 ], [ 16.143798931518155, 54.28701753598569 ], [ 16.158648596152158, 54.295711357955867 ], [ 16.164237555957818, 54.299005589311562 ], [ 16.185462100131264, 54.299654652402801 ], [ 16.200164515793134, 54.308248421316506 ], [ 16.205919254374422, 54.311635367026106 ], [ 16.220742681223449, 54.320290033568646 ], [ 16.226388487450272, 54.32360999864629 ], [ 16.241338421214277, 54.332328379837094 ], [ 16.246869823226977, 54.335578260536842 ], [ 16.261952284549206, 54.344363464787754 ], [ 16.267363285592001, 54.347539857535075 ], [ 16.282584834404759, 54.356395293027639 ], [ 16.287868898366852, 54.359494487003495 ], [ 16.30323664650566, 54.368423869050595 ], [ 16.308386685221091, 54.371441839842618 ], [ 16.323908307210331, 54.380449197183253 ], [ 16.323617359415955, 54.392007735413237 ], [ 16.32818230204996, 54.394679837029656 ], [ 16.344326370447234, 54.404030161808592 ], [ 16.348730225556729, 54.40660573422479 ], [ 16.36505693203118, 54.416049353678588 ], [ 16.364825021864114, 54.42760910438794 ], [ 16.36856786980325, 54.429795630849824 ], [ 16.385596398970016, 54.439625429204327 ], [ 16.389146120991111, 54.441697331301768 ], [ 16.40639113663271, 54.451638532145871 ], [ 16.406224743236777, 54.463199593773005 ], [ 16.409026201311718, 54.464832907016138 ], [ 16.427064066240053, 54.475209865311939 ], [ 16.429634972634609, 54.476707456112649 ], [ 16.447928647604282, 54.487216926203644 ], [ 16.447835046940511, 54.498779406919425 ], [ 16.449557914929276, 54.499781869067299 ], [ 16.468748279443005, 54.51078367219452 ], [ 16.47019739792113, 54.51162611535495 ], [ 16.49153570531427, 54.51226693333583 ], [ 16.510680404917469, 54.523218859399101 ], [ 16.512194151560156, 54.524097564842364 ], [ 16.531652452604419, 54.535213089178356 ], [ 16.532865061107326, 54.535916373264335 ], [ 16.554217601755305, 54.536542003365284 ], [ 16.573666107196164, 54.547627592163593 ], [ 16.574907495336621, 54.548346495224457 ], [ 16.596267723215696, 54.548959064878517 ], [ 16.617629104727509, 54.54956095747054 ], [ 16.636774664645831, 54.560441262987744 ], [ 16.638344485092837, 54.56134845141046 ], [ 16.659713491564133, 54.561937428546898 ], [ 16.681083596274014, 54.562516039006837 ], [ 16.702454772795665, 54.563084481200704 ], [ 16.723826995579586, 54.563642945202503 ], [ 16.745200239918802, 54.564191612987905 ], [ 16.766574481915207, 54.564730658665297 ], [ 16.784402472937547, 54.574799152528293 ], [ 16.787341291066795, 54.57648972783749 ], [ 16.808722993128161, 54.577016358234687 ], [ 16.83010564546947, 54.577533606116724 ], [ 16.847819669423298, 54.587507246634217 ], [ 16.850897865129667, 54.589274264979807 ], [ 16.872287920693044, 54.589779206197917 ], [ 16.893678881504936, 54.590274979367081 ], [ 16.915070726969105, 54.590761724988837 ], [ 16.932517890079694, 54.600547163815598 ], [ 16.935894794605982, 54.602480370574547 ], [ 16.953731969374292, 54.612470666480348 ], [ 16.956731301458323, 54.614186207878852 ], [ 16.974976280715001, 54.624390830573724 ], [ 16.97758025751029, 54.625878925293982 ], [ 16.996251480689676, 54.63630765237054 ], [ 16.998441673764951, 54.637558177350691 ], [ 17.017558303567604, 54.648221128937891 ], [ 17.019315562529112, 54.649223577103626 ], [ 17.03889757709111, 54.660131258320156 ], [ 17.040201937715363, 54.660874687681456 ], [ 17.061633326884358, 54.661333198087704 ], [ 17.081501636435942, 54.672376173338378 ], [ 17.082538631376817, 54.672966328292539 ], [ 17.102914439968497, 54.684275892099649 ], [ 17.103456451717268, 54.684584078353005 ], [ 17.124901525477561, 54.68502649153119 ], [ 17.145617505776812, 54.696499407137885 ], [ 17.145838301633326, 54.696624762225113 ], [ 17.167290609638162, 54.697054018980005 ], [ 17.188337492721018, 54.706587734666002 ], [ 17.204796211995429, 54.70895282568565 ], [ 17.209705880986601, 54.709047469743872 ], [ 17.231027360402198, 54.712642035994179 ], [ 17.252385377904041, 54.715472979526147 ], [ 17.273752513577435, 54.718157440401946 ], [ 17.295128580404107, 54.72069444646278 ], [ 17.306635517452708, 54.721980528875612 ], [ 17.316512624966482, 54.72310145775154 ], [ 17.337904531796017, 54.725376347271066 ], [ 17.359305050117172, 54.727495471138511 ], [ 17.38071400515123, 54.729457105023158 ], [ 17.402131226067869, 54.731259324819348 ], [ 17.423556545285976, 54.732900011212642 ], [ 17.444989797789841, 54.734376854194231 ], [ 17.466054198297311, 54.735664343875143 ], [ 17.466430808609861, 54.735687671231148 ], [ 17.487878893274164, 54.736843827064412 ], [ 17.509334565397921, 54.7378247068389 ], [ 17.530797653534005, 54.738627414278234 ], [ 17.552267985814975, 54.739248886067003 ], [ 17.573745389403072, 54.739685895008407 ], [ 17.595229689964444, 54.739935052765681 ], [ 17.616720711167797, 54.739992812140173 ], [ 17.638218274207464, 54.739855468836922 ], [ 17.659722197350735, 54.739519162670561 ], [ 17.681232295508934, 54.738979878163505 ], [ 17.698492813527071, 54.738382210843078 ], [ 17.702748298694637, 54.738235983476642 ], [ 17.72426970524991, 54.737293102679523 ], [ 17.745796666695956, 54.736136098552194 ], [ 17.767328987822715, 54.734760188466794 ], [ 17.788866467816817, 54.733160431373342 ], [ 17.810408899930174, 54.731331725001532 ], [ 17.831956071164122, 54.729268802244128 ], [ 17.841353634218454, 54.728270395697827 ], [ 17.8535073430624, 54.726981065785687 ], [ 17.875062574944948, 54.724460667252636 ], [ 17.896621875047966, 54.721689976020315 ], [ 17.918185006448951, 54.718662908401974 ], [ 17.925942129303781, 54.717488279655363 ], [ 17.93975120375239, 54.715393134150567 ], [ 17.961320456240266, 54.711865940778623 ], [ 17.982892809308073, 54.708063118701894 ], [ 17.9912726902961, 54.706488582222491 ], [ 18.004467496556227, 54.703998017629644 ], [ 18.02604444776917, 54.699656122290065 ], [ 18.045997707185592, 54.695370780739111 ], [ 18.047623645699911, 54.695019335514033 ], [ 18.069204136286796, 54.690108808203263 ], [ 18.090786375907204, 54.684884621788854 ], [ 18.09358330913739, 54.684175173448416 ], [ 18.112369403096093, 54.679367942386847 ], [ 18.133953480539283, 54.6735245545513 ], [ 18.136077277570458, 54.672924759469396 ], [ 18.155537743332054, 54.667371080128035 ], [ 18.174629210594194, 54.661632712106552 ], [ 18.177122360885335, 54.660874742474832 ], [ 18.198706552968616, 54.654047485061341 ], [ 18.210014321641971, 54.650307836431729 ], [ 18.220290250825265, 54.646865439814697 ], [ 18.241873061109789, 54.639319466983778 ], [ 18.242876045869249, 54.638956918612458 ], [ 18.263454358826234, 54.631412196408299 ], [ 18.273498299321819, 54.627583705786193 ], [ 18.285033971424269, 54.623120814098733 ], [ 18.302302909100348, 54.61619231918008 ], [ 18.30661143448323, 54.61443684613679 ], [ 18.328186235783907, 54.60535366987525 ], [ 18.329498718767006, 54.60478520544121 ], [ 18.349757827462902, 54.595866067028489 ], [ 18.355272638035828, 54.593364437989962 ], [ 18.371325783063924, 54.585960273257726 ], [ 18.379821069016174, 54.581931926015123 ], [ 18.392889536314552, 54.575630024136089 ], [ 18.403281352471279, 54.570489087659688 ], [ 18.4144484840781, 54.564870775413361 ], [ 18.425774475503442, 54.559037125743608 ], [ 18.43600198170509, 54.553680379887531 ], [ 18.447407511806681, 54.547577064977773 ], [ 18.457549340029292, 54.542059803042612 ], [ 18.468275689248781, 54.536109782014961 ], [ 18.479089824426925, 54.53001385526639 ], [ 18.488464151589199, 54.524636029836365 ], [ 18.50062265635091, 54.517551911068082 ], [ 18.508049468358092, 54.513156457630103 ], [ 18.522147017706821, 54.504688578635559 ], [ 18.527100936886256, 54.501671627058542 ], [ 18.543662058345092, 54.491444277178473 ], [ 18.545681712568044, 54.490182025614978 ], [ 18.544292291031741, 54.478615933057057 ], [ 18.544846140609337, 54.467057134319255 ], [ 18.545387668206182, 54.455498265159136 ], [ 18.565518297182713, 54.444684209622096 ], [ 18.566767058937131, 54.44401587912035 ], [ 18.58697055128977, 54.433148838256344 ], [ 18.588126473991579, 54.432529641348502 ], [ 18.588645930222221, 54.420970459092736 ], [ 18.608518857985487, 54.410265241816013 ], [ 18.629839014419133, 54.410056228387965 ], [ 18.630790443566546, 54.409545662007709 ], [ 18.651255215782868, 54.398500451503956 ], [ 18.6725691931657, 54.398269881282538 ], [ 18.672874111437519, 54.398106008088753 ], [ 18.693967297769422, 54.386701785800895 ], [ 18.694155032216813, 54.386600801103761 ], [ 18.715353371186687, 54.375129696610863 ], [ 18.715423745756706, 54.375091807515702 ], [ 18.735014651433435, 54.36357538763955 ], [ 18.736734713827794, 54.362413173677233 ], [ 18.752137646945318, 54.352050735494728 ], [ 18.758112492859251, 54.348050728242782 ], [ 18.769422936712886, 54.340523951875134 ], [ 18.77947432774943, 54.333878087830989 ], [ 18.786916440200294, 54.328995047244625 ], [ 18.800820297698241, 54.319944492979673 ], [ 18.804666762129226, 54.317464008853989 ], [ 18.822150604331881, 54.306294265446894 ], [ 18.822725868534572, 54.305930798829444 ], [ 18.841214697665329, 54.294395436844297 ], [ 18.843465404021142, 54.29300754563338 ], [ 18.860140648268722, 54.282857732960011 ], [ 18.864765303196638, 54.28007723378812 ], [ 18.879551882775498, 54.271317528514565 ], [ 18.886050831085203, 54.267518200228622 ], [ 18.899518396584163, 54.25977464645262 ], [ 18.907322534742381, 54.255350232593095 ], [ 18.92011811386017, 54.248228861439628 ], [ 18.928581008914534, 54.243588046187767 ], [ 18.941438509245849, 54.236679890183169 ], [ 18.94982688236033, 54.232241739895706 ], [ 18.963578593944604, 54.225127378884473 ], [ 18.971060805587026, 54.221317338489435 ], [ 18.986651371943609, 54.21357088688211 ], [ 18.992283440304952, 54.210817387068822 ], [ 19.010786906819515, 54.202009865179775 ], [ 19.013495450763322, 54.200741567326126 ], [ 19.034697512338205, 54.191105612241238 ], [ 19.036202750802659, 54.190443608030208 ], [ 19.055890341100504, 54.181932750300767 ], [ 19.06321681540738, 54.178871136478236 ], [ 19.077074573834039, 54.173178870715716 ], [ 19.091943462575955, 54.16729128535389 ], [ 19.098250841407499, 54.164835989762011 ], [ 19.119419844839893, 54.156926593613292 ], [ 19.122848300665648, 54.155702352013648 ], [ 19.140582352281168, 54.149479814458537 ], [ 19.156632516306257, 54.1441017454827 ], [ 19.161738781185534, 54.142419866387598 ], [ 19.182890023136867, 54.135813839008357 ], [ 19.194152380302643, 54.132485659175522 ], [ 19.204036546641831, 54.129615139462082 ], [ 19.225179053137825, 54.123837771281785 ], [ 19.236860748904743, 54.120847743717484 ], [ 19.24631811346141, 54.118469042930762 ], [ 19.267454433944113, 54.113521424434758 ], [ 19.28748776930798, 54.109175976679261 ], [ 19.288588287339341, 54.108941391544384 ], [ 19.309720825495823, 54.104808040947063 ], [ 19.330852043331845, 54.101034996108488 ], [ 19.351982486783516, 54.097621710629497 ], [ 19.353243338210305, 54.097439402782946 ], [ 19.373113155675856, 54.094618374432756 ], [ 19.394244090315528, 54.091963253856683 ], [ 19.415375720922658, 54.089646210581151 ], [ 19.436508472737817, 54.087658602541772 ], [ 19.457642734256634, 54.085990047725097 ], [ 19.465292259122073, 54.085496714944234 ], [ 19.478779014699896, 54.084642484356912 ], [ 19.499917508527925, 54.083591330980695 ], [ 19.521058390404033, 54.082814406309083 ], [ 19.542201880648136, 54.082296482741896 ], [ 19.563348157820418, 54.082021526812213 ], [ 19.584497359395083, 54.08197289262894 ], [ 19.605649582950157, 54.08213351072304 ], [ 19.626804887808547, 54.082486069007729 ], [ 19.647963297060524, 54.083013183093023 ], [ 19.669124799895645, 54.083697553752991 ], [ 19.687899857858202, 54.08442995692706 ], [ 19.69028938342564, 54.084523872547244 ], [ 19.711457224002135, 54.08548971094779 ], [ 19.732627998850653, 54.08656458085995 ], [ 19.753801587190011, 54.087732562930228 ], [ 19.774977848091293, 54.088978395039931 ], [ 19.79615662332797, 54.090287534816731 ], [ 19.817337740127915, 54.09164620731962 ], [ 19.838521013796953, 54.093041439002839 ], [ 19.859706250190879, 54.09446107919382 ], [ 19.86535632085009, 54.094846423974928 ], [ 19.880893691103385, 54.095914722044697 ], [ 19.902082880759703, 54.097378910306503 ], [ 19.923273448863377, 54.098836193135973 ], [ 19.944465182062164, 54.100277596881867 ], [ 19.965657867198924, 54.101694946173531 ], [ 19.986851292704753, 54.103080836912994 ], [ 20.008045249820753, 54.10442860553848 ], [ 20.020419939359975, 54.105193410837785 ], [ 20.029239833901407, 54.105744418554501 ], [ 20.050434973081433, 54.107027328721351 ], [ 20.071630055441037, 54.108255523078419 ], [ 20.092824889507149, 54.109424871880542 ], [ 20.114019290520901, 54.110531811280673 ], [ 20.135213080863913, 54.111573305902986 ], [ 20.156406090391513, 54.112546812184306 ], [ 20.177598156683334, 54.113450242759377 ], [ 20.198789125220973, 54.114281932100837 ], [ 20.216851477185333, 54.114929706813918 ], [ 20.21997894117515, 54.115043725181373 ], [ 20.241167878103177, 54.115748331469135 ], [ 20.262355281775008, 54.116377075503067 ], [ 20.283541026904828, 54.116929634651015 ], [ 20.304724996259363, 54.117405963265462 ], [ 20.325907080564228, 54.117806267504839 ], [ 20.347087178383056, 54.118130981708156 ], [ 20.368265195973077, 54.118380746263178 ], [ 20.389441047120087, 54.118556386899776 ], [ 20.410614652955442, 54.118658895331791 ], [ 20.431785941757063, 54.118689411167644 ], [ 20.452954848736209, 54.118649205007763 ], [ 20.474121315811303, 54.118539662646981 ], [ 20.495285291370038, 54.118362270302306 ], [ 20.516446730020505, 54.118118600789181 ], [ 20.537605592332245, 54.11781030057444 ], [ 20.558761844567755, 54.117439077638522 ], [ 20.579915458405111, 54.117006690086178 ], [ 20.601066410652304, 54.116514935450894 ], [ 20.622214682953892, 54.11596564064498 ], [ 20.643360261490741, 54.115360652514603 ], [ 20.664503136673606, 54.114701828965572 ], [ 20.685643302831625, 54.113991030632789 ], [ 20.706780757896741, 54.113230113073158 ], [ 20.727915503085487, 54.11242091946788 ], [ 20.749047542579554, 54.111565273826606 ], [ 20.770176883206929, 54.110664974690977 ], [ 20.791303534125483, 54.109721789340732 ], [ 20.812427506511199, 54.108737448509793 ], [ 20.833548813253369, 54.107713641623683 ], [ 20.85073518557229, 54.106850039992949 ], [ 20.854667621361706, 54.106655433277297 ], [ 20.875784511342587, 54.105576818922245 ], [ 20.896898841844301, 54.10446440894146 ], [ 20.918010629285899, 54.103319650832219 ], [ 20.939119890389684, 54.102143935329245 ], [ 20.960226641979773, 54.100938595215482 ], [ 20.981330900807176, 54.099704904763634 ], [ 21.002432683404475, 54.098444079824063 ], [ 21.023532005972996, 54.097157278573356 ], [ 21.044628884305457, 54.095845602935022 ], [ 21.065723333746885, 54.094510100681198 ], [ 21.086815369196486, 54.09315176822097 ], [ 21.107905005152976, 54.091771554077731 ], [ 21.122591412688763, 54.090796767936958 ], [ 21.128992649746067, 54.090378054426971 ], [ 21.150078862948462, 54.088982465112487 ], [ 21.171162766357902, 54.087568008841345 ], [ 21.192244372955876, 54.086135454420827 ], [ 21.213323696164789, 54.084685549585132 ], [ 21.234400750182033, 54.083219028216476 ], [ 21.255475550367262, 54.081736618144532 ], [ 21.276548113683639, 54.080239049498935 ], [ 21.297618459193288, 54.078727063586143 ], [ 21.318686608607106, 54.077201422259463 ], [ 21.339752586888668, 54.075662917747245 ], [ 21.348275645342898, 54.075037483283005 ], [ 21.360817326560731, 54.074128301293719 ], [ 21.381880594900409, 54.072593388592459 ], [ 21.402941821721807, 54.071048300347528 ], [ 21.42400104909964, 54.069494004488845 ], [ 21.445058325846013, 54.067931550314569 ], [ 21.466113708387816, 54.066362079853626 ], [ 21.487167261686551, 54.064786839365567 ], [ 21.508219060197501, 54.063207190918533 ], [ 21.52926918886455, 54.061624623980762 ], [ 21.550317744146408, 54.060040766954792 ], [ 21.563044401584904, 54.059085950203233 ], [ 21.571365436717588, 54.058467133786522 ], [ 21.592412696775664, 54.05691036492879 ], [ 21.613458745502914, 54.055357638579338 ], [ 21.634503729964162, 54.053811164980708 ], [ 21.655547813664914, 54.052273342391146 ], [ 21.676591177625401, 54.05074676645085 ], [ 21.697634021436262, 54.049234238825932 ], [ 21.718676564283552, 54.047738774979926 ], [ 21.739719045929132, 54.046263610905967 ], [ 21.760761727630726, 54.0448122086353 ], [ 21.7818048929837, 54.043388260317407 ], [ 21.798885090023131, 54.042259781733662 ], [ 21.802849063015795, 54.041998874116281 ], [ 21.823895208732338, 54.040657580763501 ], [ 21.844942757040247, 54.039354917729909 ], [ 21.865992078760364, 54.03809541034375 ], [ 21.88704356943397, 54.036883808946349 ], [ 21.90809764933439, 54.035725080845118 ], [ 21.929154763231566, 54.034624399074168 ], [ 21.950215379873846, 54.033587127612307 ], [ 21.97127999114878, 54.0326188026973 ], [ 21.992349110882952, 54.031725109867551 ], [ 22.013423273239269, 54.030911856364838 ], [ 22.034503030669246, 54.030184938538859 ], [ 22.05558895137785, 54.029550303916139 ], [ 22.076681616259272, 54.029013907626414 ], [ 22.097781615264154, 54.028581662927238 ], [ 22.118889543162208, 54.028259385630243 ], [ 22.140005994669576, 54.028052732314336 ], [ 22.161131558917038, 54.027967132312028 ], [ 22.182266813244443, 54.028007713577985 ], [ 22.203412316317934, 54.028179222693254 ], [ 22.224568600580284, 54.028485939423824 ], [ 22.245736164060556, 54.028931586439789 ], [ 22.266915461587587, 54.029519235004244 ], [ 22.28195054088993, 54.030035192082238 ], [ 22.288107076398887, 54.030253498467836 ], [ 22.30931154423746, 54.031138269266158 ], [ 22.330528588710202, 54.032167184229792 ], [ 22.35175834514834, 54.033339151071829 ], [ 22.373000853148941, 54.034651919157099 ], [ 22.394256047133286, 54.036102000375642 ], [ 22.415523747408692, 54.037684599312037 ], [ 22.417329724326887, 54.037827730180823 ], [ 22.436803528324212, 54.039392058026301 ], [ 22.458094642479946, 54.041213033715422 ], [ 22.479396466648993, 54.043137946086162 ], [ 22.500708247481427, 54.04515590164732 ], [ 22.515154628029222, 54.046573018145168 ], [ 22.522028739310468, 54.047250456774989 ], [ 22.54335613772469, 54.049399008293165 ], [ 22.564689813878346, 54.051593217069048 ], [ 22.586028456894397, 54.053817034964105 ], [ 22.602600568201193, 54.05555080849804 ], [ 22.6073701572627, 54.05604789837286 ], [ 22.628711853029273, 54.05825057768201 ], [ 22.650053376907234, 54.060423652124854 ], [ 22.671393038882993, 54.062548492653768 ], [ 22.690978504644484, 54.064436749278819 ], [ 22.692728848458898, 54.064603525398049 ], [ 22.714056433350791, 54.066541025268833 ], [ 22.735376413446694, 54.068369916826221 ], [ 22.756686985039646, 54.070072107532361 ], [ 22.77798633828672, 54.071629849649582 ], [ 22.795200023908411, 54.072758642697103 ], [ 22.799272121723476, 54.073019872714333 ], [ 22.820540858551539, 54.074207189463316 ], [ 22.84179304127856, 54.075200516259315 ], [ 22.863027016401684, 54.075985290794797 ], [ 22.884241169086415, 54.076547678963486 ], [ 22.905433927277855, 54.076874596729297 ], [ 22.926603764500097, 54.076953717375886 ], [ 22.947749201354878, 54.0767734648322 ], [ 22.968868805754532, 54.076322993985229 ], [ 22.989961191944758, 54.075592159057457 ], [ 23.011025018388644, 54.074571471240816 ], [ 23.032058984595562, 54.073252046845994 ], [ 23.053061826986376, 54.07162554724777 ], [ 23.074032313890459, 54.069684111889067 ], [ 23.094969239770936, 54.067420285555031 ], [ 23.115871418771775, 54.064826941048644 ], [ 23.136737677675761, 54.061897198298652 ], [ 23.140136943789447, 54.061363969111177 ], [ 23.157562078167075, 54.058576655133713 ], [ 23.17834642889903, 54.054889010207972 ], [ 23.199090463285962, 54.050836929176526 ], [ 23.216408646662668, 54.047138659800986 ], [ 23.219791475329409, 54.046398962385524 ], [ 23.240441085755283, 54.041498399671426 ], [ 23.261045680059858, 54.036204047226569 ], [ 23.270233645319269, 54.033664582168598 ], [ 23.281596482326965, 54.030436088175229 ], [ 23.302092484938097, 54.024191259071735 ], [ 23.313266017032145, 54.020554103244201 ], [ 23.322530369268339, 54.017444054709173 ], [ 23.342905846921411, 54.010160076890919 ], [ 23.349456823435915, 54.007675884309521 ], [ 23.363211917341914, 54.002279591084111 ], [ 23.380811074479141, 53.994963043565662 ], [ 23.383450133298126, 53.993825107579553 ], [ 23.403605251126042, 53.98465975000645 ], [ 23.408365562939295, 53.982381360351589 ], [ 23.423673702395611, 53.974758870900956 ], [ 23.432958835183747, 53.969902527894952 ], [ 23.443649075674582, 53.964071440984704 ], [ 23.455136046055195, 53.957508165848637 ], [ 23.463519975232213, 53.952500558065395 ], [ 23.475240648605517, 53.945186836431638 ], [ 23.483273334315488, 53.939935167904643 ], [ 23.493557124646053, 53.932928953735207 ], [ 23.502894357973183, 53.926249745430354 ], [ 23.502465687205625, 53.9210218614108 ], [ 23.501502619408935, 53.909485228465272 ], [ 23.500521743840025, 53.897949257411568 ], [ 23.519626795681145, 53.885977608301616 ], [ 23.520173253856342, 53.885636603927878 ], [ 23.519161041525933, 53.874101869322985 ], [ 23.518134443538361, 53.862567670185889 ], [ 23.536879225179419, 53.850780796829461 ], [ 23.537722132834968, 53.850254125049773 ], [ 23.536670087173157, 53.838720951791984 ], [ 23.535606819546125, 53.827188196274129 ], [ 23.534533432415312, 53.815655816575273 ], [ 23.533450993362283, 53.804123772110437 ], [ 23.532360536457357, 53.792592023578919 ], [ 23.5312630629195, 53.781060532939492 ], [ 23.530159541087123, 53.769529263411499 ], [ 23.547893831131098, 53.758316632524021 ], [ 23.549650269217512, 53.757216529930929 ], [ 23.567548585976226, 53.745882279361965 ], [ 23.569113276811354, 53.744901460926421 ], [ 23.567994191772367, 53.733370942803553 ], [ 23.585941898886471, 53.72198516210964 ], [ 23.587426194276958, 53.721053761950174 ], [ 23.586301444681926, 53.709523538154563 ], [ 23.585175570415217, 53.697993349729536 ], [ 23.584049319358186, 53.686463167951842 ], [ 23.582923383333277, 53.674932966261487 ], [ 23.600560731113475, 53.663723440656341 ], [ 23.602325907250052, 53.662613888249574 ], [ 23.601201595439523, 53.651083702546067 ], [ 23.600079342757116, 53.639553429838514 ], [ 23.598959593346535, 53.628023053029231 ], [ 23.616397244743851, 53.616928840571532 ], [ 23.618346987613414, 53.615701448934722 ], [ 23.61723299914512, 53.604170927285494 ], [ 23.6161224737995, 53.59264026420108 ], [ 23.633458196744822, 53.58160222313861 ], [ 23.635498993810998, 53.580315886237379 ], [ 23.634396057157108, 53.568785005218615 ], [ 23.633296866214071, 53.557253971439685 ], [ 23.650494806835404, 53.546296772300913 ], [ 23.652665716635735, 53.54492669534919 ], [ 23.651574594228535, 53.533395422182963 ], [ 23.650486815824884, 53.521864011518993 ], [ 23.667507305811455, 53.511013649733222 ], [ 23.669849216495681, 53.509533788549355 ], [ 23.668768646509292, 53.498002169334384 ], [ 23.667690412743525, 53.486470451720393 ], [ 23.684495560231426, 53.475750710815994 ], [ 23.687045586165539, 53.474137311383146 ], [ 23.685972536695857, 53.462605462373034 ], [ 23.684900360787609, 53.451073572234016 ], [ 23.701459116629149, 53.44050294302086 ], [ 23.704245765474266, 53.438737615277816 ], [ 23.703175892395304, 53.427205705926497 ], [ 23.719662718558169, 53.416670514328743 ], [ 23.722506616066624, 53.414867051978099 ], [ 23.721436913317298, 53.403335207300898 ], [ 23.720365121309118, 53.391803438859618 ], [ 23.736577691379715, 53.381431532124886 ], [ 23.739679180861575, 53.379462251463472 ], [ 23.738604025828732, 53.367930688803767 ], [ 23.754738188399518, 53.357595504326845 ], [ 23.757898140662398, 53.355587028764738 ], [ 23.756817309729641, 53.344055765486083 ], [ 23.755731475202371, 53.332524695666926 ], [ 23.771602195062236, 53.322341431310363 ], [ 23.7750003302991, 53.320178866908542 ], [ 23.773905497215328, 53.30864823256325 ], [ 23.772804227295765, 53.297117849932405 ], [ 23.788437933396889, 53.287066952548905 ], [ 23.792042620175565, 53.284770078493182 ], [ 23.79092941760873, 53.273240253564197 ], [ 23.806528630137421, 53.263192990831783 ], [ 23.810138536924626, 53.260890424904545 ], [ 23.809011630632394, 53.249361233194357 ], [ 23.82459817367732, 53.239302288369025 ], [ 23.82818912896813, 53.237009458377351 ], [ 23.843939505104917, 53.22682849279083 ], [ 23.847340086410885, 53.22465545724252 ], [ 23.846190468675708, 53.213127360367537 ], [ 23.861970616457153, 53.202905156964675 ], [ 23.865306001001908, 53.200771600167812 ], [ 23.864138797627273, 53.189244307924348 ], [ 23.879979986090596, 53.178959362850513 ], [ 23.900581940840354, 53.177890420063967 ], [ 23.903448380794615, 53.176053869322196 ], [ 23.902263531816768, 53.164527493158225 ], [ 23.901068060681972, 53.153001548800667 ], [ 23.899861981699612, 53.141476035464777 ], [ 23.898645324196501, 53.129950951743361 ], [ 23.894905582828414, 53.128129923953104 ], [ 23.877184054306866, 53.119258886615675 ], [ 23.875947051956803, 53.107734514811007 ], [ 23.874699994485418, 53.096210548533037 ], [ 23.873442948895146, 53.084686984829567 ], [ 23.872175989087804, 53.07316382046367 ], [ 23.887515935614843, 53.063127432569324 ], [ 23.891126277551855, 53.060809334277053 ], [ 23.889837263416645, 53.049287182314778 ], [ 23.905442685188049, 53.039050313672057 ], [ 23.908739188533364, 53.036931574720448 ], [ 23.907427234238323, 53.025410478633717 ], [ 23.923346572470013, 53.014939920160614 ], [ 23.926278039160419, 53.013053890438073 ], [ 23.924942212042023, 53.001533896007118 ], [ 23.923596023163071, 52.990014323522345 ], [ 23.922239578910872, 52.97849516833115 ], [ 23.938586751211467, 52.967698531468166 ], [ 23.941006928026734, 52.966139224384584 ], [ 23.939625241654369, 52.954621238026014 ], [ 23.936943634077377, 52.953311251872826 ], [ 23.918109811470309, 52.943940158589996 ], [ 23.916713457368967, 52.932422624059001 ], [ 23.915307419703453, 52.920905481901428 ], [ 23.913891824566413, 52.909388726647492 ], [ 23.912466803598647, 52.897872352598185 ], [ 23.911032494815267, 52.886356353791356 ], [ 23.909589043473517, 52.874840723966088 ], [ 23.90813660297103, 52.863325456525892 ], [ 23.906675335763513, 52.851810544501127 ], [ 23.924077734495075, 52.840227703844981 ], [ 23.925260880556511, 52.839463658591868 ], [ 23.923772757267582, 52.827949996085259 ], [ 23.922275899540239, 52.816436685983923 ], [ 23.920770508682747, 52.80492371967491 ], [ 23.939223453651863, 52.792593565392181 ], [ 23.939246383433829, 52.792578736978868 ], [ 23.939078665029268, 52.791318345124537 ], [ 23.929078126295824, 52.781426972318457 ], [ 23.917532318969879, 52.770331662388671 ], [ 23.916006397426727, 52.768894942652253 ], [ 23.905633348373435, 52.759249961328791 ], [ 23.893477974410334, 52.748177764945716 ], [ 23.893113735002331, 52.747850191633326 ], [ 23.881039107519094, 52.737116114214189 ], [ 23.870347323968936, 52.727729556677382 ], [ 23.868424722651579, 52.726060479365891 ], [ 23.855625276434292, 52.715011197414988 ], [ 23.847665070083615, 52.708169628623132 ], [ 23.842724880827973, 52.703964766268996 ], [ 23.829752971241462, 52.69291995144664 ], [ 23.825035052034966, 52.688891013983884 ], [ 23.816752896644456, 52.681874964060043 ], [ 23.803795633830582, 52.670826911232453 ], [ 23.802430140429582, 52.669651782236102 ], [ 23.790882255594397, 52.659775762424566 ], [ 23.779822098625939, 52.650194572821697 ], [ 23.778107907069426, 52.648717685775871 ], [ 23.765466390031001, 52.637652973970795 ], [ 23.757183815238207, 52.630266726509063 ], [ 23.753032824222039, 52.626578647024978 ], [ 23.740819915457578, 52.615494257947489 ], [ 23.735141835314021, 52.615655953328883 ], [ 23.714750553024793, 52.6162417985433 ], [ 23.694359621894357, 52.616834538764806 ], [ 23.673968977022767, 52.617433662609578 ], [ 23.653578557453407, 52.61803868683463 ], [ 23.633871234425762, 52.608160847081287 ], [ 23.631979495188979, 52.607220579865256 ], [ 23.611594147721114, 52.607831059583518 ], [ 23.592416039769414, 52.598204525476007 ], [ 23.590010406555638, 52.597007119465985 ], [ 23.56963001197305, 52.597622073996149 ], [ 23.550955211779222, 52.588234142960737 ], [ 23.548061525436314, 52.586791744819124 ], [ 23.529563559696228, 52.577481972810887 ], [ 23.526503418347978, 52.575955268070253 ], [ 23.508185788104676, 52.566725551293729 ], [ 23.504955688605687, 52.565112645185835 ], [ 23.484589806695279, 52.56573002103967 ], [ 23.466746454349387, 52.556725492189443 ], [ 23.465471341639926, 52.545199998976535 ], [ 23.461891383628444, 52.543409271020423 ], [ 23.444134164739868, 52.53443089898196 ], [ 23.440374832382087, 52.532548805109407 ], [ 23.422809891643382, 52.523657608043642 ], [ 23.418868704635749, 52.521682748412921 ], [ 23.401498103588487, 52.512880147302184 ], [ 23.397373021058694, 52.510811339147985 ], [ 23.380198339390315, 52.502098539174675 ], [ 23.378983452610246, 52.490570209459143 ], [ 23.374744906046278, 52.488441974018023 ], [ 23.357708381403228, 52.479783852802981 ], [ 23.35651024538312, 52.46825475399303 ], [ 23.352139180891697, 52.466057377868374 ], [ 23.335258389491042, 52.457463716537397 ], [ 23.334076465607687, 52.445933873681156 ], [ 23.329555933376451, 52.443658668450247 ], [ 23.312846273552982, 52.435138224681438 ], [ 23.311679956423532, 52.423607664953721 ], [ 23.3105172372223, 52.41207696151006 ], [ 23.305871789376919, 52.409735387065069 ], [ 23.289318492908858, 52.401276225134893 ], [ 23.284457245052831, 52.398823750783663 ], [ 23.268126930359745, 52.390471557456728 ], [ 23.266989834425456, 52.378939650492285 ], [ 23.261941991086527, 52.376390036275055 ], [ 23.245815303612257, 52.36813057080348 ], [ 23.244691759193319, 52.356598034982902 ], [ 23.239449583575606, 52.353947146635406 ], [ 23.223532818904669, 52.345784603648291 ], [ 23.222422085052429, 52.334251469531019 ], [ 23.216980106548856, 52.331496306292173 ], [ 23.201277369916333, 52.323433743047609 ], [ 23.20017868103043, 52.311900041655598 ], [ 23.194533638692295, 52.309038713003773 ], [ 23.179046907464745, 52.301078072507799 ], [ 23.17795947419981, 52.289543835277044 ], [ 23.191837564195513, 52.280540118866192 ], [ 23.19690013048335, 52.27729823843643 ], [ 23.195812978823074, 52.265764076089603 ], [ 23.194728574387373, 52.254229803444076 ], [ 23.193646836228272, 52.242695423402587 ], [ 23.192567670229941, 52.23116093933465 ], [ 23.206587038731094, 52.22205296214392 ], [ 23.226774985773389, 52.221205171738596 ], [ 23.246961375531679, 52.220347773233925 ], [ 23.251429320392219, 52.217478693695028 ], [ 23.266040043069893, 52.207956444901626 ], [ 23.282864250421326, 52.216340091383124 ], [ 23.287329306033691, 52.218602830043494 ], [ 23.291328087511992, 52.216032082730742 ], [ 23.306394334614119, 52.206191976286227 ], [ 23.326568888033314, 52.205293394032616 ], [ 23.346741642572926, 52.204383383445098 ], [ 23.366912541637088, 52.203461519566986 ], [ 23.369844233221059, 52.201572070721966 ], [ 23.385945467521029, 52.191009203095703 ], [ 23.388593416283683, 52.189301288729027 ], [ 23.404967106689885, 52.178547422089927 ], [ 23.407320715844371, 52.177028168581877 ], [ 23.423977432632942, 52.166075906122707 ], [ 23.443404207703381, 52.175672042154524 ], [ 23.445274448787593, 52.176616522306247 ], [ 23.446942668200503, 52.175538457509496 ], [ 23.464270302069032, 52.164118901003711 ], [ 23.484550179792254, 52.174112083734741 ], [ 23.485573038796417, 52.174628062035417 ], [ 23.505718850158956, 52.17361072013572 ], [ 23.506222621192588, 52.173284607083566 ], [ 23.505656964388951, 52.172999422449564 ], [ 23.485357542086245, 52.162507264566187 ], [ 23.484234922297528, 52.150975960671602 ], [ 23.502227628513936, 52.1390906665074 ], [ 23.502843955618417, 52.138691440718695 ], [ 23.521189024447288, 52.126559317455254 ], [ 23.532115193541433, 52.125993679859988 ], [ 23.533210681702176, 52.114377195220101 ], [ 23.534434248411824, 52.102755747029633 ], [ 23.535771753580825, 52.091129874912461 ], [ 23.53689044705229, 52.082075038833814 ], [ 23.53720596995678, 52.079500238078531 ], [ 23.538713931335792, 52.067867718039167 ], [ 23.540290757773768, 52.05623249947174 ], [ 23.541921875761954, 52.044595141659386 ], [ 23.543592779259221, 52.032956202233137 ], [ 23.545289087894364, 52.02131623497371 ], [ 23.546996602081872, 52.009675787707877 ], [ 23.548606847206653, 51.998678680029904 ], [ 23.548700447348153, 51.998035435425194 ], [ 23.550371605435931, 51.9863963017891 ], [ 23.552011484629595, 51.974758334065648 ], [ 23.553607151263968, 51.963122035147975 ], [ 23.5551460769261, 51.951487893086075 ], [ 23.556616161302507, 51.939856380110825 ], [ 23.558005748063469, 51.928227951915645 ], [ 23.559303633518699, 51.916603047209207 ], [ 23.559866087654537, 51.911113167889098 ], [ 23.560490472336504, 51.904982421302172 ], [ 23.561556596951437, 51.893366454407037 ], [ 23.562499632953831, 51.881755243515641 ], [ 23.563310300958022, 51.870149153705391 ], [ 23.563979714931321, 51.858548534730971 ], [ 23.56449934423679, 51.846953722374288 ], [ 23.564860968308729, 51.835365040083026 ], [ 23.565056624187214, 51.823782800889475 ], [ 23.565078547201107, 51.812207309597525 ], [ 23.564919105152722, 51.800638865223888 ], [ 23.564570726421422, 51.789077763675252 ], [ 23.56402582246616, 51.777524300641375 ], [ 23.563276705268127, 51.765978774680114 ], [ 23.544490257716308, 51.755133435349627 ], [ 23.544086255981529, 51.754927905848497 ], [ 23.523745202899267, 51.744360760319587 ], [ 23.522580624330718, 51.732831133569398 ], [ 23.540653822988009, 51.720765354429389 ], [ 23.540990485916762, 51.720545152562671 ], [ 23.539815751587376, 51.709016017437598 ], [ 23.538636808888295, 51.697487033660586 ], [ 23.537453565734211, 51.685958204689413 ], [ 23.536265921716467, 51.674429534300849 ], [ 23.535073767197332, 51.662901026625534 ], [ 23.533876982557956, 51.6513726861766 ], [ 23.532675437606844, 51.639844517872341 ], [ 23.531468991154501, 51.628316527052014 ], [ 23.5302574907587, 51.61678871948547 ], [ 23.530099246046284, 51.615289643888488 ], [ 23.525964441090061, 51.605379986351842 ], [ 23.520813620327893, 51.594004223903703 ], [ 23.515236486128668, 51.582644697083083 ], [ 23.509208856266124, 51.571302280209665 ], [ 23.50501120247554, 51.563962441422525 ], [ 23.502670226694519, 51.559979234328566 ], [ 23.495552878259289, 51.548678078500203 ], [ 23.487888489813148, 51.537397498590444 ], [ 23.481566790443058, 51.528734503354734 ], [ 23.479611214809445, 51.526139911595237 ], [ 23.470593948817548, 51.51491004686256 ], [ 23.460910874876415, 51.503704913376346 ], [ 23.458948326982398, 51.501564269368387 ], [ 23.450353144122051, 51.49253229230758 ], [ 23.438991518878435, 51.481389271082584 ], [ 23.436844555306568, 51.479398952788607 ], [ 23.426600412158528, 51.470284154946334 ], [ 23.415097477065565, 51.460692451266006 ], [ 23.413245471441428, 51.459214150037148 ], [ 23.398673107324264, 51.448188466872004 ], [ 23.39361713144244, 51.444568144326993 ], [ 23.382844325022639, 51.437208121108085 ], [ 23.372339735750106, 51.430402112809965 ], [ 23.365651694711378, 51.426276621236724 ], [ 23.351224547590704, 51.417798137797149 ], [ 23.346929414597501, 51.415399536919388 ], [ 23.330243077491556, 51.406480403055326 ], [ 23.326501199314244, 51.404582664764497 ], [ 23.309372638426932, 51.396228485772816 ], [ 23.304188046703644, 51.393831709666195 ], [ 23.28859509677293, 51.386865672959708 ], [ 23.279820238430801, 51.383151815689637 ], [ 23.267895936141393, 51.378250188076024 ], [ 23.253254492048441, 51.372546922384856 ], [ 23.247263550441264, 51.370268562990752 ], [ 23.226689047234938, 51.362834301453013 ], [ 23.224328775560327, 51.362021398020516 ], [ 23.206164373135937, 51.355868185594545 ], [ 23.192861366644838, 51.351580020332761 ], [ 23.185681572865978, 51.349290376000972 ], [ 23.165235069122634, 51.343045527862635 ], [ 23.158995777472196, 51.341215647401562 ], [ 23.144818444093548, 51.337067815469219 ], [ 23.124428317072351, 51.331323819761629 ], [ 23.122945077332837, 51.330918695320136 ], [ 23.10405652634962, 51.325725937723682 ], [ 23.085154045506453, 51.320671614681238 ], [ 23.083703230969565, 51.320278279219643 ], [ 23.063358064457795, 51.314866080340884 ], [ 23.046483295408084, 51.31044294439171 ], [ 23.043023120020951, 51.309513715688929 ], [ 23.022687167856141, 51.304093917733624 ], [ 23.008039921347841, 51.300193867298155 ], [ 23.002351831680187, 51.298624293691233 ], [ 22.982006306317977, 51.292979371268622 ], [ 22.970989324566453, 51.289885026751691 ], [ 22.961648430979324, 51.287131298201118 ], [ 22.941271674551011, 51.28100063130163 ], [ 22.936342200373815, 51.279483710718701 ], [ 22.920861372056955, 51.274410779960448 ], [ 22.90482055742649, 51.268967925628324 ], [ 22.900417644948881, 51.267355665758629 ], [ 22.879917771515498, 51.2595581101845 ], [ 22.876808979111004, 51.258327425400346 ], [ 22.859337162500726, 51.250712377965442 ], [ 22.852443966577589, 51.247560211249855 ], [ 22.838648486016762, 51.240472730363336 ], [ 22.831617122431382, 51.236672092154272 ], [ 22.817788579223215, 51.228052743483921 ], [ 22.814161229508748, 51.225670391758968 ], [ 22.799905916336073, 51.214562135714665 ], [ 22.796589741552829, 51.211377292674882 ], [ 22.78865760823717, 51.203354747382861 ], [ 22.780156339799056, 51.192057482543539 ], [ 22.774265263966914, 51.180749369079777 ], [ 22.774229038772781, 51.180676509979065 ], [ 22.770817932986709, 51.169214065129403 ], [ 22.769693573198619, 51.157677752221069 ], [ 22.770738379113372, 51.146071413641216 ], [ 22.77127309022184, 51.144120909426292 ], [ 22.773902140640235, 51.134396594661347 ], [ 22.779042835438837, 51.122657700147023 ], [ 22.786019897527478, 51.110859008688166 ], [ 22.788108559120086, 51.108083170275634 ], [ 22.794842259019429, 51.098999883655431 ], [ 22.805312221051615, 51.08708633334048 ], [ 22.806092820617348, 51.086329005034322 ], [ 22.817458878413269, 51.075116946920872 ], [ 22.824428072533152, 51.069025426123773 ], [ 22.831089078212432, 51.063097524216957 ], [ 22.842909815242479, 51.053649510428457 ], [ 22.846124273482502, 51.051030118883304 ], [ 22.861494616899122, 51.039654753455174 ], [ 22.862470771407541, 51.038917274352961 ], [ 22.880023893178222, 51.026761906401326 ], [ 22.880153688103032, 51.026678833734188 ], [ 22.898664710323168, 51.014567431376534 ], [ 22.898864937093894, 51.014445294347588 ], [ 22.917612468510075, 51.002755868246211 ], [ 22.918267750146256, 51.002337530039192 ], [ 22.936387573653189, 50.991500532618751 ], [ 22.938711201662478, 50.990075819342998 ], [ 22.955180766983126, 50.980562034617286 ], [ 22.959863966106898, 50.977786298439462 ], [ 22.97398556686322, 50.969860301423594 ], [ 22.981598617158905, 50.965472923234259 ], [ 22.992796891538589, 50.959332956701957 ], [ 23.003791230227776, 50.953139615993187 ], [ 23.011610687495125, 50.948930631145053 ], [ 23.026323267069593, 50.940790202542885 ], [ 23.030423664753403, 50.938613626598432 ], [ 23.049083072220824, 50.928428359212198 ], [ 23.049233104331623, 50.928349494642305 ], [ 23.068047840904274, 50.918238631856134 ], [ 23.071994479737299, 50.916056609567931 ], [ 23.086853960709711, 50.908120367642006 ], [ 23.094933642408989, 50.903679212529674 ], [ 23.10564927072247, 50.897969820603933 ], [ 23.117813852537999, 50.891299213966441 ], [ 23.124432215720482, 50.887769738517541 ], [ 23.140558847111294, 50.878919358013114 ], [ 23.143201366524455, 50.877504575698296 ], [ 23.161958095642227, 50.867190453103881 ], [ 23.163108849166999, 50.866541860187482 ], [ 23.180703511576283, 50.856840275300925 ], [ 23.18541322612921, 50.854168653943418 ], [ 23.19942975916037, 50.846367066471494 ], [ 23.207404800991984, 50.841802308541411 ], [ 23.218135570237695, 50.835758210485935 ], [ 23.229041153685134, 50.829444544038154 ], [ 23.236819616225322, 50.82500062277542 ], [ 23.250286640145625, 50.81709686245933 ], [ 23.255480480148918, 50.81408045084661 ], [ 23.271111662094729, 50.804760567029021 ], [ 23.274116628576831, 50.80298278063033 ], [ 23.291491938470799, 50.792436782367361 ], [ 23.292726382494216, 50.791691337932718 ], [ 23.311308061938611, 50.780190082683582 ], [ 23.311408564769277, 50.780126446538134 ], [ 23.329860708645299, 50.768471015468123 ], [ 23.33085135596939, 50.767830181142259 ], [ 23.348379828860804, 50.756488164508347 ], [ 23.349798294052036, 50.755549051286351 ], [ 23.36686293900463, 50.74421781431402 ], [ 23.368239153473727, 50.743283688095687 ], [ 23.385307229675938, 50.731633104544187 ], [ 23.386165781563452, 50.731034644762616 ], [ 23.403572907113709, 50.718802363904146 ], [ 23.403709682908094, 50.718705331924383 ], [ 23.420467130845299, 50.706586833492558 ], [ 23.422067949745212, 50.705413288995985 ], [ 23.436836783544575, 50.694388727506819 ], [ 23.44037653066539, 50.69170274009565 ], [ 23.452678356941473, 50.682208407364442 ], [ 23.458630443250048, 50.677525644704296 ], [ 23.467988439424033, 50.670046225616893 ], [ 23.476823962311769, 50.66282680611431 ], [ 23.48276341594158, 50.657902537287733 ], [ 23.494950488963635, 50.64754261056958 ], [ 23.496999195699814, 50.645777710368726 ], [ 23.51071907852619, 50.633671045007539 ], [ 23.513002448142867, 50.631600082969634 ], [ 23.523924014095918, 50.621582692532265 ], [ 23.530969283481166, 50.614896189187562 ], [ 23.536584439500057, 50.609513987596706 ], [ 23.548695141244639, 50.597465318074221 ], [ 23.548839298568421, 50.597317364026281 ], [ 23.560329040999687, 50.585434001007435 ], [ 23.566592151553241, 50.578662171467762 ], [ 23.571407150859617, 50.573423291455541 ], [ 23.581951028492181, 50.561432504524745 ], [ 23.584209235732693, 50.558749409969636 ], [ 23.591996454027324, 50.549460377608021 ], [ 23.601468031509256, 50.537510031126786 ], [ 23.601658158254267, 50.537258465097871 ], [ 23.610472822512847, 50.525577363337909 ], [ 23.618886504909298, 50.513667430616309 ], [ 23.626835503117032, 50.50177533241137 ], [ 23.634199535331987, 50.489905967964376 ], [ 23.635808779416148, 50.487122332866782 ], [ 23.641069192233406, 50.478055834883065 ], [ 23.647384840441656, 50.466227412485104 ], [ 23.652280588007933, 50.45617791364193 ], [ 23.653142044840457, 50.454420974695573 ], [ 23.658402825360501, 50.442634122263513 ], [ 23.663090044206673, 50.430870025877802 ], [ 23.667207146181493, 50.419128622409545 ], [ 23.66790476890705, 50.416833894263014 ], [ 23.670806204525757, 50.407407883130681 ], [ 23.673839410364923, 50.39570978649045 ], [ 23.676293422483447, 50.384034920010897 ], [ 23.678165820381249, 50.372383423719747 ], [ 23.679452505905342, 50.360755496698786 ], [ 23.680147672234039, 50.349151398285855 ], [ 23.68019054311058, 50.343868150179098 ], [ 23.679595495450283, 50.337597596390239 ], [ 23.679571824183192, 50.337585192707706 ], [ 23.659728146763456, 50.326821131020374 ], [ 23.659026014052355, 50.326452918130634 ], [ 23.639617617357079, 50.32687920925305 ], [ 23.620994590643477, 50.3167943222969 ], [ 23.619846449569778, 50.305264135919984 ], [ 23.6179731006266, 50.304280125906885 ], [ 23.599840066325875, 50.29448323862043 ], [ 23.598658478045152, 50.282954222937022 ], [ 23.596356068147252, 50.281743506999149 ], [ 23.578598920868966, 50.272171919909901 ], [ 23.575867081221851, 50.270734230685257 ], [ 23.55850423416247, 50.261387622242246 ], [ 23.555390010316323, 50.259747373441286 ], [ 23.538377073354901, 50.250601207070908 ], [ 23.534924665010372, 50.248781371982588 ], [ 23.51821981516942, 50.239812564181321 ], [ 23.514470873499832, 50.237834827753048 ], [ 23.498034580021251, 50.229021594906754 ], [ 23.494028480960957, 50.226906493757546 ], [ 23.47466864549266, 50.227424877285451 ], [ 23.458855454299254, 50.218959090889271 ], [ 23.457587501430329, 50.207432334278934 ], [ 23.453177349512327, 50.205100154266887 ], [ 23.437328795460989, 50.196633894618707 ], [ 23.432768372941197, 50.194220307786395 ], [ 23.417048421271261, 50.18583283031812 ], [ 23.412370317592433, 50.183354969680984 ], [ 23.396747497585618, 50.175029086799164 ], [ 23.391983093327898, 50.172503486131291 ], [ 23.376426989319267, 50.164222616052925 ], [ 23.371606619626998, 50.161665294561061 ], [ 23.356087720618465, 50.153413376018356 ], [ 23.354746558374593, 50.141888498506866 ], [ 23.35020819354412, 50.139478147390165 ], [ 23.334377798120812, 50.131076693902131 ], [ 23.329859134908247, 50.128674879815271 ], [ 23.313991293864895, 50.120262056387638 ], [ 23.309520632534475, 50.117883849970568 ], [ 23.293587470759768, 50.109444560046875 ], [ 23.289192638215095, 50.107104816169894 ], [ 23.273166664755177, 50.098624182540448 ], [ 23.271755641994336, 50.087101113556621 ], [ 23.267868842725683, 50.085029575383643 ], [ 23.251304752791395, 50.07627812462416 ], [ 23.249856209427726, 50.064756210474926 ], [ 23.246569735241522, 50.063002711304598 ], [ 23.229373849722265, 50.05393063572091 ], [ 23.226285366657667, 50.052281455400809 ], [ 23.208874150589217, 50.043102152330022 ], [ 23.207369350886424, 50.031581841757955 ], [ 23.205027666780918, 50.030330069893431 ], [ 23.186836201352232, 50.020750801774312 ], [ 23.185286384638417, 50.009231874743485 ], [ 23.183794932656948, 50.008433733392017 ], [ 23.164718180596676, 49.998398307496323 ], [ 23.163554099636674, 49.997774858839342 ], [ 23.144132009894872, 49.987561810689265 ], [ 23.142515386471089, 49.976044789799118 ], [ 23.142363051754927, 49.975963114723761 ], [ 23.122500446674842, 49.969450463051395 ], [ 23.10386075204045, 49.965846150561518 ], [ 23.102874646759741, 49.965654351134816 ], [ 23.0832620520356, 49.961976308499452 ], [ 23.063667620041326, 49.958476919508463 ], [ 23.050113288384154, 49.956163552188272 ], [ 23.044088385168003, 49.955123523708075 ], [ 23.024521094303449, 49.951879356531627 ], [ 23.004969398617948, 49.948790038600045 ], [ 22.990784906369647, 49.946648616259253 ], [ 22.985430711544357, 49.945826624685985 ], [ 22.965901506761149, 49.942948151314624 ], [ 22.94638584209136, 49.940205522826773 ], [ 22.926883064010344, 49.937592796085603 ], [ 22.924825462384156, 49.937328364621919 ], [ 22.907386929861616, 49.935034889794188 ], [ 22.887902034558856, 49.932589685431843 ], [ 22.868428508606723, 49.93026056096614 ], [ 22.850719870872393, 49.928241856143821 ], [ 22.848965296731961, 49.928036092493514 ], [ 22.829507087168235, 49.925850969180551 ], [ 22.81005905829953, 49.923771421318641 ], [ 22.790620802058626, 49.921793916018309 ], [ 22.771191938013935, 49.919915197383624 ], [ 22.766131747557324, 49.91944945252888 ], [ 22.751768016424336, 49.918079570046778 ], [ 22.732351581693308, 49.916320643841523 ], [ 22.712943773669565, 49.914654473738032 ], [ 22.693544305485872, 49.913078800829247 ], [ 22.674152910140023, 49.911591576868837 ], [ 22.666832196863176, 49.911062144818693 ], [ 22.654766328998992, 49.910151172076482 ], [ 22.635385743131781, 49.908774045418404 ], [ 22.6160127701751, 49.907482843946461 ], [ 22.596647208085344, 49.906276265854807 ], [ 22.577288868040153, 49.905153157631176 ], [ 22.557937573238853, 49.904112501948816 ], [ 22.542636839746798, 49.903354031167751 ], [ 22.538592358015467, 49.9031424863593 ], [ 22.519251067177681, 49.90221470340277 ], [ 22.499916592932223, 49.901369795783516 ], [ 22.480588793847584, 49.90060719879633 ], [ 22.461267535107403, 49.899926425839062 ], [ 22.441952687627023, 49.899327058278757 ], [ 22.422644127236182, 49.898808735898768 ], [ 22.403341733929551, 49.898371147976491 ], [ 22.384045391186582, 49.89801402503933 ], [ 22.364754985361785, 49.897737131342659 ], [ 22.348103336571317, 49.897567401862091 ], [ 22.345470155327142, 49.897536649016203 ], [ 22.326189678600446, 49.897396153904843 ], [ 22.306915033435956, 49.897338310084756 ], [ 22.287646108581885, 49.897362945121984 ], [ 22.268382793441635, 49.897469890902045 ], [ 22.249124977900401, 49.897658981221888 ], [ 22.229872552217763, 49.897930050283264 ], [ 22.210625406982622, 49.898282932069918 ], [ 22.19138343312623, 49.898717460581757 ], [ 22.172146521988655, 49.899233470891204 ], [ 22.152914565433626, 49.899830800979515 ], [ 22.133687456006349, 49.900509294303539 ], [ 22.114465087128888, 49.90126880303837 ], [ 22.09524735332721, 49.902109191935757 ], [ 22.076034150484347, 49.903030342735043 ], [ 22.056825376113832, 49.904032159059902 ], [ 22.037620929647918, 49.9051145717333 ], [ 22.018420712735065, 49.906277544441508 ] ] ] } }
]
}
