{
"type": "FeatureCollection",
"name": "kraj_granica",
"crs": { "type": "name", "properties": { "name": "urn:ogc:def:crs:OGC:1.3:CRS84" } },
"features": [
{ "type": "Feature", "properties": { }, "geometry": { "type": "Polygon", "coordinates": [ [ [ 14.918343180299196, 50.974292621092367 ], [ 14.903059599617924, 50.971623230912044 ], [ 14.899594920073648, 50.96333565090292 ], [ 14.903835389887176, 50.96113856128266 ], [ 14.897657220109615, 50.959445720633063 ], [ 14.892995439480554, 50.949846061236066 ], [ 14.89693161021003, 50.941685880988672 ], [ 14.89186094022331, 50.935782110546874 ], [ 14.876356700102523, 50.932026460742684 ], [ 14.867919159934345, 50.917715220770532 ], [ 14.85183360972697, 50.910702551180023 ], [ 14.843882489478199, 50.90098818055143 ], [ 14.820400529848987, 50.886198021022842 ], [ 14.817425380067181, 50.879322881148973 ], [ 14.823359980162518, 50.870568150994181 ], [ 14.831200910087201, 50.87289362064444 ], [ 14.84054929980058, 50.869037370871744 ], [ 14.855416359471279, 50.868743251197074 ], [ 14.86378942003334, 50.870511311140348 ], [ 14.867082629456499, 50.877231771223848 ], [ 14.873853889539557, 50.877160410915813 ], [ 14.897278319531802, 50.867355551404309 ], [ 14.901677689678969, 50.875873170795657 ], [ 14.937360079705991, 50.869414181400423 ], [ 14.959253569501803, 50.861931160974905 ], [ 14.986694869978734, 50.869301190573566 ], [ 15.001926620033299, 50.868778161061208 ], [ 14.998504650176713, 50.887803160663388 ], [ 14.993978490032742, 50.891824330804717 ], [ 14.996180820003934, 50.900637340616427 ], [ 15.00681567012327, 50.907225890840301 ], [ 14.999154379775948, 50.906826481232848 ], [ 14.998467259973365, 50.913564931354884 ], [ 14.989452810115649, 50.921640851424414 ], [ 15.014337150047089, 50.93982613064955 ], [ 15.010747919800549, 50.962980140798102 ], [ 15.021712259934358, 50.967071860955947 ], [ 15.005918039697571, 50.986559550962227 ], [ 14.988931359800789, 50.97803250128014 ], [ 14.968243410315694, 50.99001318053908 ], [ 14.985418249967898, 51.010841541181421 ], [ 14.997244879857888, 51.009214351039425 ], [ 15.014321759948928, 51.015990221049549 ], [ 15.016473539938779, 51.021811290730433 ], [ 15.024193569499515, 51.023216681079184 ], [ 15.032564989696914, 51.021501650556303 ], [ 15.035441599872241, 51.012844021107441 ], [ 15.055659550167663, 51.011976881301663 ], [ 15.057719869995632, 51.022508760842456 ], [ 15.060999979886851, 51.022897090796299 ], [ 15.075946589978651, 51.017194001367152 ], [ 15.076827990336975, 51.013408091175172 ], [ 15.085063270274496, 51.014760711101331 ], [ 15.106703939957626, 51.010374031302995 ], [ 15.106183649776579, 51.007058891022453 ], [ 15.096791359656724, 51.002932731327242 ], [ 15.105159209553594, 50.991381080834728 ], [ 15.120755950350215, 50.99331659095445 ], [ 15.129001299992348, 50.990128300945919 ], [ 15.142110890127993, 50.991323760745018 ], [ 15.133106990225413, 50.993892160661112 ], [ 15.144368120121861, 51.013370241403237 ], [ 15.171848909833507, 51.020029770615551 ], [ 15.177207309799197, 50.993463840541473 ], [ 15.171327740109595, 50.986510331049146 ], [ 15.179853129644245, 50.983016750879855 ], [ 15.191838349598003, 50.980546390561138 ], [ 15.200025649795924, 50.984005441259789 ], [ 15.196608629815765, 50.988331751367582 ], [ 15.204308549633573, 50.992507951140588 ], [ 15.212863820048723, 50.992005201334671 ], [ 15.236556030370883, 50.998668830561137 ], [ 15.242325860288902, 50.996945260974002 ], [ 15.237181179705562, 50.994565360762195 ], [ 15.243302120231343, 50.988395031262691 ], [ 15.239295580269749, 50.986007050638008 ], [ 15.248452349640941, 50.979674300886387 ], [ 15.274076189506731, 50.979546830976339 ], [ 15.277209670335452, 50.971626451356926 ], [ 15.273885269734921, 50.962910151040106 ], [ 15.288105639502671, 50.958002661246681 ], [ 15.292243039832972, 50.952638831166439 ], [ 15.288715780047115, 50.94630345090026 ], [ 15.267849229695999, 50.932498070581595 ], [ 15.266916620148056, 50.920278121291837 ], [ 15.277062230077759, 50.891021560849474 ], [ 15.311761980370262, 50.860210850505361 ], [ 15.328686560277889, 50.858983041187585 ], [ 15.32963249958318, 50.856338641370037 ], [ 15.338457429913277, 50.857233010848802 ], [ 15.353741099621208, 50.851378900962821 ], [ 15.367343590187607, 50.838025930899391 ], [ 15.376103729750533, 50.821146460987201 ], [ 15.370040089520405, 50.814361730859794 ], [ 15.374011660263276, 50.80736330112363 ], [ 15.366175379840149, 50.80207065058913 ], [ 15.372492469704959, 50.795766161126807 ], [ 15.373450610104312, 50.784782391143246 ], [ 15.369820270041153, 50.781154971177074 ], [ 15.373743149675439, 50.778091090683667 ], [ 15.394134539620678, 50.776545371022358 ], [ 15.415055739979952, 50.792776920765476 ], [ 15.420827390117338, 50.803237931028619 ], [ 15.439526110290466, 50.809055791033117 ], [ 15.450235120312719, 50.807109471068806 ], [ 15.450935440367799, 50.804076460708337 ], [ 15.473480560031769, 50.796754340684714 ], [ 15.480527810360327, 50.790836181087599 ], [ 15.493655609977921, 50.788227800914271 ], [ 15.5110030295222, 50.790810750957718 ], [ 15.524309369737489, 50.777001051202951 ], [ 15.545652829678609, 50.780455710507191 ], [ 15.564017680126698, 50.776116550874718 ], [ 15.57875183978528, 50.778968121225468 ], [ 15.603658580035278, 50.776308810638504 ], [ 15.616430230134885, 50.772340340773198 ], [ 15.622110580197855, 50.765190681045333 ], [ 15.680272659721776, 50.754735911166726 ], [ 15.688642849651377, 50.742796071018525 ], [ 15.705706419787328, 50.737257231071595 ], [ 15.723366239532297, 50.739787191260888 ], [ 15.739781119669384, 50.735942601205586 ], [ 15.759768300332112, 50.7435557112656 ], [ 15.779219039893741, 50.742272280676012 ], [ 15.788756369985252, 50.746748451110136 ], [ 15.791474999845136, 50.752653150555354 ], [ 15.816193690057711, 50.755319991158323 ], [ 15.831936719984123, 50.742686171163449 ], [ 15.829937140366548, 50.724388891265065 ], [ 15.851048180403144, 50.708224251079187 ], [ 15.857362580392136, 50.696823031086659 ], [ 15.863303419991626, 50.681301691255932 ], [ 15.860962800370265, 50.674449720606994 ], [ 15.884008749786849, 50.671163240820171 ], [ 15.885065119528099, 50.675347741342151 ], [ 15.919531100064413, 50.684595531090238 ], [ 15.926193980143198, 50.680753421367598 ], [ 15.931832759946294, 50.686475801252485 ], [ 15.961232729888797, 50.691851271252347 ], [ 15.990903949739785, 50.683412240916468 ], [ 15.990366200125003, 50.67700958056232 ], [ 15.998879050401142, 50.672321960616905 ], [ 16.004510050185697, 50.6574855012855 ], [ 16.004990030045455, 50.648621270584457 ], [ 16.000923189635277, 50.644760041272392 ], [ 16.008546349611628, 50.63449076107235 ], [ 16.021765979893686, 50.630173680698192 ], [ 15.997611839988764, 50.622521091308926 ], [ 15.986439160214466, 50.613482801324956 ], [ 16.008530990090385, 50.604697310765424 ], [ 16.015697159573822, 50.606112760924738 ], [ 16.024831790339316, 50.598622750972595 ], [ 16.042614589666094, 50.61423635135862 ], [ 16.056079570293864, 50.609703110835845 ], [ 16.067591860164232, 50.639758161344183 ], [ 16.084744650224781, 50.647077791136951 ], [ 16.089165560028302, 50.652696430627834 ], [ 16.09506211970082, 50.653003580577241 ], [ 16.103678470268857, 50.663361281226223 ], [ 16.112982949688661, 50.658617531003564 ], [ 16.12583281022571, 50.66058192104925 ], [ 16.139492049801067, 50.650782801016412 ], [ 16.148379240196824, 50.653336281170105 ], [ 16.170367180385483, 50.645276970684179 ], [ 16.176955920367266, 50.639645041013985 ], [ 16.179377010428947, 50.628656471347533 ], [ 16.184168240353412, 50.627204920598061 ], [ 16.217355060276549, 50.633345540992664 ], [ 16.221480180358977, 50.65150663115034 ], [ 16.234812260059627, 50.671568970858623 ], [ 16.258358309870378, 50.667117020961292 ], [ 16.279436690139462, 50.668206141332142 ], [ 16.284105150024221, 50.66044859116073 ], [ 16.30497700008161, 50.659062380653346 ], [ 16.322129460093837, 50.666594880873248 ], [ 16.343080130326392, 50.661507951162243 ], [ 16.351222000385221, 50.647853181208369 ], [ 16.364077489779856, 50.647498300634901 ], [ 16.373694110388644, 50.636602181275265 ], [ 16.379475250177666, 50.636646770559366 ], [ 16.380380899847999, 50.630355600959184 ], [ 16.394457590342366, 50.618727120487044 ], [ 16.404958490037213, 50.61731580091319 ], [ 16.422950989693952, 50.606330610900478 ], [ 16.443319490093483, 50.586501701019536 ], [ 16.444906510212178, 50.579569180801791 ], [ 16.421095119941086, 50.56919565118681 ], [ 16.404643880207413, 50.569271590834788 ], [ 16.410930549597488, 50.547898221256702 ], [ 16.387391719549232, 50.541983441308822 ], [ 16.401779720246399, 50.529886780980121 ], [ 16.3739418502294, 50.516371150536663 ], [ 16.360353729934282, 50.501224611254678 ], [ 16.343799169786482, 50.495839540989287 ], [ 16.320738449905761, 50.507587370489091 ], [ 16.311527269752492, 50.506132181084268 ], [ 16.3124083103801, 50.494112950585119 ], [ 16.300490279690653, 50.491479641204457 ], [ 16.294095189823729, 50.479193780601733 ], [ 16.271459770142535, 50.484673370504552 ], [ 16.269639580091553, 50.479582450502832 ], [ 16.274706029553524, 50.476583581094438 ], [ 16.26857850958103, 50.475879631370717 ], [ 16.264797960244938, 50.480049610533619 ], [ 16.258705049789373, 50.480174940949723 ], [ 16.249080120344065, 50.473511531163027 ], [ 16.255700430115311, 50.467622101311697 ], [ 16.243366319984208, 50.463057710974226 ], [ 16.233538230086356, 50.466819370946418 ], [ 16.235252149947158, 50.459913210751928 ], [ 16.224282199843994, 50.460729770891092 ], [ 16.220374749885341, 50.457885650530365 ], [ 16.230398669842479, 50.453600060825373 ], [ 16.234057870055381, 50.448693520719047 ], [ 16.231882419920602, 50.44347562092954 ], [ 16.223977880063053, 50.442076041102744 ], [ 16.221415160262058, 50.450885831342546 ], [ 16.212957860203844, 50.451703021011063 ], [ 16.19883271963424, 50.44178453125722 ], [ 16.195709799546453, 50.432130871171999 ], [ 16.198282550381609, 50.428839840813275 ], [ 16.209843480073452, 50.426788420682016 ], [ 16.214107639839138, 50.414694920563811 ], [ 16.210465620278207, 50.411240771178193 ], [ 16.214467579996903, 50.409103401034621 ], [ 16.221844879717196, 50.406921801327883 ], [ 16.238109479560631, 50.41407670050495 ], [ 16.252921710254995, 50.405642390716558 ], [ 16.247383169779525, 50.396188660706898 ], [ 16.250651850195943, 50.393497400813906 ], [ 16.263050490277855, 50.393563950649039 ], [ 16.265938049690455, 50.381605451357309 ], [ 16.276854539593629, 50.376203190551443 ], [ 16.278632389561608, 50.367443021306457 ], [ 16.291557290418549, 50.370092250485058 ], [ 16.299243080090179, 50.38076315083039 ], [ 16.304684150238963, 50.382593941186805 ], [ 16.316892390360419, 50.380184270714089 ], [ 16.326269790405338, 50.382105101198015 ], [ 16.341808110344171, 50.377865401200921 ], [ 16.34851543043618, 50.380650860581156 ], [ 16.360659989561675, 50.379547771041636 ], [ 16.368027840108851, 50.366964661122488 ], [ 16.362163969883152, 50.349726331131627 ], [ 16.375194200246234, 50.342275090956029 ], [ 16.38322879016436, 50.32881357091518 ], [ 16.399260569911213, 50.319188911271269 ], [ 16.410766929636605, 50.32456273101301 ], [ 16.431298340441359, 50.324699520594287 ], [ 16.448182139690857, 50.305012310602926 ], [ 16.464589690348308, 50.295677970993218 ], [ 16.466672000399409, 50.286873501142246 ], [ 16.480118869579247, 50.277059051265127 ], [ 16.481932949635151, 50.271414230710171 ], [ 16.486947750135897, 50.270761420932033 ], [ 16.489731060138642, 50.264232161216512 ], [ 16.497485250441585, 50.259837090736859 ], [ 16.50625720979858, 50.26028569055989 ], [ 16.517018570238346, 50.243282821074956 ], [ 16.529191860003881, 50.237595810631703 ], [ 16.5374608798084, 50.239039591235993 ], [ 16.548310239814494, 50.229760970924538 ], [ 16.551195940335869, 50.223038621363358 ], [ 16.557352479627486, 50.220378390782365 ], [ 16.553428519902784, 50.214963721128861 ], [ 16.561690269579348, 50.207611110491996 ], [ 16.554390780101688, 50.196213730606686 ], [ 16.557099860067588, 50.184838530700176 ], [ 16.563812479848824, 50.179842391144419 ], [ 16.558196979895616, 50.173885390726973 ], [ 16.561115969713015, 50.163876511022245 ], [ 16.585415020076933, 50.152271811328639 ], [ 16.580201050329741, 50.148643411098611 ], [ 16.584671439927348, 50.14564951134701 ], [ 16.580080069931554, 50.142416830799583 ], [ 16.595318150304987, 50.140468280514611 ], [ 16.603506039561928, 50.134008211037312 ], [ 16.611423119573125, 50.132831261086487 ], [ 16.613963939979737, 50.125111101129036 ], [ 16.625171720293988, 50.121020351336391 ], [ 16.633606620049289, 50.111337741176321 ], [ 16.653494430114637, 50.109787400801039 ], [ 16.68871267014449, 50.098608120897516 ], [ 16.706027849895488, 50.096582011281079 ], [ 16.723881639918162, 50.105245150876364 ], [ 16.72907489019417, 50.116878780857135 ], [ 16.745040489720537, 50.134722181012897 ], [ 16.755349060405635, 50.133936461328219 ], [ 16.782762099689911, 50.145111971273757 ], [ 16.781618789772246, 50.151331030534955 ], [ 16.797357830296573, 50.165653720675458 ], [ 16.8006773196925, 50.180108871052589 ], [ 16.812987120257414, 50.191403170650936 ], [ 16.82285208954433, 50.188664321329007 ], [ 16.825866689888741, 50.194603711221866 ], [ 16.835887400175487, 50.197927810546936 ], [ 16.836536469684741, 50.203078070525045 ], [ 16.848628279967706, 50.207641970732148 ], [ 16.863253629746691, 50.19811903069985 ], [ 16.881920069657557, 50.199553920604444 ], [ 16.885027780403306, 50.213057460561792 ], [ 16.898081080173192, 50.218589820888916 ], [ 16.898643820157158, 50.222658150581047 ], [ 16.917380439554396, 50.226194580746537 ], [ 16.928846440410354, 50.222798810843464 ], [ 16.95595292958097, 50.222524830584696 ], [ 16.965843169817482, 50.229787530598109 ], [ 16.96276324002449, 50.238667181075861 ], [ 16.975920149797435, 50.244816010475652 ], [ 16.99854160030608, 50.215881061087934 ], [ 17.014510869980423, 50.21925438121486 ], [ 17.028313570308725, 50.229989431095838 ], [ 17.011522560413859, 50.241372071088719 ], [ 17.010810700247763, 50.249226810998309 ], [ 17.001551990034141, 50.256395810650588 ], [ 17.016552640393662, 50.267340340516668 ], [ 17.020045730417387, 50.27826147091475 ], [ 17.009016020373856, 50.295290230988108 ], [ 17.003704199888965, 50.296303621247198 ], [ 17.002637460052611, 50.302117330876911 ], [ 16.973527400064746, 50.308179430566412 ], [ 16.968263779646275, 50.31592635074793 ], [ 16.955850659581923, 50.312221960502498 ], [ 16.946139399715033, 50.315388030958857 ], [ 16.934420739728306, 50.329862011348297 ], [ 16.93846751986267, 50.33310559078091 ], [ 16.937483229864746, 50.342213100686344 ], [ 16.929832479578767, 50.345823221289841 ], [ 16.915370530316071, 50.362980580819787 ], [ 16.919570699720207, 50.368967311017279 ], [ 16.910970929963547, 50.389036010727352 ], [ 16.907093549721811, 50.391312861224392 ], [ 16.899024860207717, 50.389596701157004 ], [ 16.890165529912743, 50.396738121294028 ], [ 16.863762479657723, 50.408902031129657 ], [ 16.860323740143176, 50.40774969112433 ], [ 16.869578829702512, 50.417081450578358 ], [ 16.881127269600654, 50.442395440719743 ], [ 16.89348419014458, 50.44346264101361 ], [ 16.898501520422514, 50.447715320928502 ], [ 16.907900610325349, 50.449448451215616 ], [ 16.921941239793451, 50.44049637113585 ], [ 16.963377950027123, 50.426033520760512 ], [ 16.974012229982542, 50.417755621051334 ], [ 16.998292810066165, 50.427749700612779 ], [ 17.013529019849763, 50.418583020720952 ], [ 17.02427298021124, 50.421473620740642 ], [ 17.029762020200916, 50.415384641216434 ], [ 17.037918880147487, 50.414846761195129 ], [ 17.052534160222411, 50.406960211372507 ], [ 17.082336569571439, 50.401995390701103 ], [ 17.085139089989074, 50.405785150895191 ], [ 17.110749940059875, 50.404961970845669 ], [ 17.111109200329089, 50.393688570595266 ], [ 17.123534659989701, 50.394080730772814 ], [ 17.143331580093633, 50.380420970475726 ], [ 17.157221729598962, 50.380069800509858 ], [ 17.162522429971457, 50.383658470489721 ], [ 17.179475930272215, 50.386158530915154 ], [ 17.184039629927128, 50.389955631370441 ], [ 17.203268219846933, 50.386358951133886 ], [ 17.199117499678561, 50.375078470518964 ], [ 17.201144969965835, 50.364016370487235 ], [ 17.247325249664019, 50.332074210484869 ], [ 17.264298730195268, 50.328018500978821 ], [ 17.282053590299661, 50.319005451369165 ], [ 17.291563420009695, 50.317558271321992 ], [ 17.310670890152, 50.320163511065786 ], [ 17.32779591004568, 50.327099280533808 ], [ 17.348664019825954, 50.328350360711887 ], [ 17.348228929622746, 50.322795860866322 ], [ 17.340491400159852, 50.322681700926886 ], [ 17.337509500062314, 50.313063270884776 ], [ 17.348620679694488, 50.311792040496279 ], [ 17.35368204978101, 50.308042830736596 ], [ 17.345987749838134, 50.297830450644021 ], [ 17.348197369709535, 50.287437440813157 ], [ 17.33773602040343, 50.283473371330388 ], [ 17.343803890142681, 50.279366770990734 ], [ 17.3507319200368, 50.263739700553799 ], [ 17.36253725039559, 50.264328700739185 ], [ 17.366125639788976, 50.282057491287993 ], [ 17.386204580074832, 50.282880111060479 ], [ 17.40083081029324, 50.279591930650099 ], [ 17.406872599688125, 50.273930441162804 ], [ 17.420673399754854, 50.277422941242477 ], [ 17.431188550111983, 50.263054371293158 ], [ 17.429691999987277, 50.254175920507677 ], [ 17.438233650167497, 50.251661951167335 ], [ 17.454914059637392, 50.256811861304051 ], [ 17.456188509592263, 50.269693790766112 ], [ 17.463471459645817, 50.267054350705685 ], [ 17.495592400371265, 50.275088420817546 ], [ 17.524457379803458, 50.275008020532766 ], [ 17.541852160353208, 50.270356761084571 ], [ 17.563199160010974, 50.270293270748049 ], [ 17.580728169771454, 50.27791845060581 ], [ 17.591883880237798, 50.278952751000922 ], [ 17.598049539552086, 50.270666370687003 ], [ 17.612096379743988, 50.266007370771632 ], [ 17.650755360275912, 50.277763770805954 ], [ 17.65783130976121, 50.28488854090218 ], [ 17.685996989868343, 50.299052930578796 ], [ 17.689121529641447, 50.301859560896823 ], [ 17.68692350021394, 50.327974920730597 ], [ 17.71901874011623, 50.320268101318376 ], [ 17.728820089580051, 50.303295040757604 ], [ 17.752048169685008, 50.299519910738695 ], [ 17.734636929756462, 50.277576841323238 ], [ 17.725871270141898, 50.272817081369155 ], [ 17.724950650356359, 50.256749230717475 ], [ 17.764973239627434, 50.236389890810997 ], [ 17.756552860332391, 50.22144892126245 ], [ 17.759993420058521, 50.216561480958866 ], [ 17.758458129844989, 50.206571140771004 ], [ 17.741134650245385, 50.202058311269333 ], [ 17.724216610211521, 50.206581430812605 ], [ 17.71736442012724, 50.205697521354956 ], [ 17.717331370047518, 50.202448850863988 ], [ 17.709985939597107, 50.19919882060163 ], [ 17.710623159630174, 50.191834860522135 ], [ 17.704266499595025, 50.189707441376122 ], [ 17.705844629925792, 50.186106401213756 ], [ 17.70178585013495, 50.184171311084242 ], [ 17.643317789786526, 50.176165220678747 ], [ 17.630672730058283, 50.173456021104876 ], [ 17.625699679690769, 50.169185810707312 ], [ 17.615461890153806, 50.171312101201707 ], [ 17.601154980413515, 50.169626120579977 ], [ 17.592686419937145, 50.159975940861514 ], [ 17.610882400198573, 50.1400383308332 ], [ 17.640256660317412, 50.130735041214145 ], [ 17.649366930242799, 50.111410631222128 ], [ 17.676659460360089, 50.10302357091134 ], [ 17.683269550253517, 50.117308230515739 ], [ 17.705127979965688, 50.114406570635566 ], [ 17.730878539716805, 50.097161200754314 ], [ 17.729497869928771, 50.087935421008417 ], [ 17.748913949624765, 50.078832161303808 ], [ 17.75243992965952, 50.069653840582063 ], [ 17.758895749845248, 50.067751270834776 ], [ 17.75638192978225, 50.065537181329084 ], [ 17.75945468029224, 50.064230771261869 ], [ 17.754836370199428, 50.062242451157189 ], [ 17.764176399822968, 50.056014220606585 ], [ 17.76151941038955, 50.053480591182726 ], [ 17.771505160438366, 50.048482971340228 ], [ 17.769799560201321, 50.035261641340263 ], [ 17.775160640147799, 50.035096211050778 ], [ 17.777248439660585, 50.030555020524943 ], [ 17.77125923991699, 50.025848091248207 ], [ 17.777220770223682, 50.020390730779724 ], [ 17.788677009836864, 50.01732566047685 ], [ 17.792137950004442, 50.01921802112291 ], [ 17.7981446496586, 50.01350067115122 ], [ 17.827690360116495, 50.011304010503537 ], [ 17.836859149829507, 50.003607981152179 ], [ 17.826372300248, 49.994006861259777 ], [ 17.834031600371443, 49.989809120919574 ], [ 17.837659050023881, 49.992352740916623 ], [ 17.842825659677992, 49.986804780945143 ], [ 17.850350680233515, 49.986785400559768 ], [ 17.851197390140943, 49.982668620793312 ], [ 17.861494009744838, 49.980648531233804 ], [ 17.868498539576802, 49.972488591105339 ], [ 17.88950791036736, 49.980084430583346 ], [ 17.909157929794478, 49.976509820601912 ], [ 17.922849039555238, 49.978749991345836 ], [ 17.954045050037973, 50.005066730970277 ], [ 17.961855400311933, 50.004981230625042 ], [ 17.969831289677401, 50.008878921158399 ], [ 17.983282050224435, 50.005078570549898 ], [ 17.98927099006896, 50.013535420956003 ], [ 18.004635919804823, 50.018360701015993 ], [ 18.007463679698024, 50.010698900763963 ], [ 18.035298320261667, 50.011008601192387 ], [ 18.045463350155405, 50.005126701367992 ], [ 18.045708550315954, 50.010290900837063 ], [ 18.040913480275378, 50.013604261355745 ], [ 18.046313019733198, 50.015886300940096 ], [ 18.042931360195926, 50.02204026097796 ], [ 18.049018720039957, 50.027427740525987 ], [ 18.044381450439257, 50.03660689132397 ], [ 18.024741769618181, 50.038760130902858 ], [ 18.01310465025988, 50.030239550946874 ], [ 18.00407341995102, 50.038994410594704 ], [ 18.005156540048922, 50.053494770795673 ], [ 18.033605740406113, 50.066020110972794 ], [ 18.046073780281226, 50.062585581193126 ], [ 18.049833299872599, 50.058371061301592 ], [ 18.061717339780319, 50.059182451234811 ], [ 18.063778479791413, 50.052736190850332 ], [ 18.06759025988293, 50.05313170099744 ], [ 18.065930480108047, 50.048094491198604 ], [ 18.089361760233434, 50.044118841139465 ], [ 18.085618840343887, 50.031970591195837 ], [ 18.103151670415631, 50.022604620633793 ], [ 18.093285280194245, 50.014997340886381 ], [ 18.094672890037131, 50.012097220638474 ], [ 18.104781980304356, 50.000918600839299 ], [ 18.11697509023028, 49.994153401284201 ], [ 18.134373000419803, 49.997427141281626 ], [ 18.136070040002654, 49.993906691172022 ], [ 18.146941839892897, 49.991619321300007 ], [ 18.153838600373483, 49.982370221238128 ], [ 18.169009870112742, 49.986450950782015 ], [ 18.172000329948581, 49.990011100558483 ], [ 18.167983470265217, 49.998515500823586 ], [ 18.173132640254476, 50.000289701341245 ], [ 18.190088229693689, 49.998773831077806 ], [ 18.19322403975724, 49.994521071120026 ], [ 18.206573390043506, 49.99793541112097 ], [ 18.213835910195872, 49.986130340676802 ], [ 18.214288270086072, 49.972005431234336 ], [ 18.221625809883808, 49.967656111074305 ], [ 18.23639839037412, 49.971047261148094 ], [ 18.276308149794961, 49.964635111152248 ], [ 18.281834960409089, 49.950547591028197 ], [ 18.279207609937842, 49.94006342052247 ], [ 18.289689079781496, 49.92872828091263 ], [ 18.299031569947857, 49.928729890697682 ], [ 18.299118230415608, 49.923810950740538 ], [ 18.317947050119656, 49.915676571148687 ], [ 18.32987268997449, 49.923304460662514 ], [ 18.330381979642276, 49.93059162133671 ], [ 18.340096319694396, 49.925658301220786 ], [ 18.344846359767782, 49.929832660982164 ], [ 18.350024380018276, 49.929597010721871 ], [ 18.340842149948411, 49.93210968054705 ], [ 18.341952600432414, 49.93469892135024 ], [ 18.351668460327904, 49.935382170484552 ], [ 18.346415960032754, 49.940212841077958 ], [ 18.334874589696632, 49.939973680774152 ], [ 18.332960540098853, 49.949385101272981 ], [ 18.37698265012364, 49.935608630560786 ], [ 18.397663340284627, 49.934263421052471 ], [ 18.430752289690417, 49.938160131311825 ], [ 18.432873589849592, 49.92816575137568 ], [ 18.445460270078438, 49.923020260510079 ], [ 18.463272569877859, 49.922319080692766 ], [ 18.467025840072854, 49.916091521040336 ], [ 18.48300116037958, 49.910796350603491 ], [ 18.490923479828286, 49.903391450681838 ], [ 18.495532449565463, 49.90632805102863 ], [ 18.498086200416683, 49.903013400876311 ], [ 18.499863339920914, 49.90490073071625 ], [ 18.505493050069358, 49.901825781363996 ], [ 18.519214619860083, 49.902325050793401 ], [ 18.52366412000508, 49.899494251189012 ], [ 18.53437127021629, 49.899604860609848 ], [ 18.547076099788146, 49.909150740546778 ], [ 18.539878040338685, 49.912047311161459 ], [ 18.543029340328328, 49.922445380580591 ], [ 18.539380590245894, 49.925685400492966 ], [ 18.544891740059299, 49.925839770921712 ], [ 18.5596978598677, 49.917886341209034 ], [ 18.57290854009495, 49.921620520597308 ], [ 18.576175990223, 49.913278231237094 ], [ 18.573701189952967, 49.907788500564557 ], [ 18.580063289984334, 49.905548980934995 ], [ 18.57086958007103, 49.891674860934501 ], [ 18.57348949044431, 49.887936480815632 ], [ 18.566029570009253, 49.88315120079406 ], [ 18.569587949929765, 49.873443130823759 ], [ 18.580238659585362, 49.866788231325181 ], [ 18.599120669677159, 49.866298590935095 ], [ 18.605728739685635, 49.861598460526601 ], [ 18.603878579731983, 49.857113620629264 ], [ 18.583713050015813, 49.852305941200932 ], [ 18.589620079605453, 49.845772130910902 ], [ 18.569430230418963, 49.834396810496195 ], [ 18.568923789794432, 49.829199480900449 ], [ 18.582348180427029, 49.817977730516738 ], [ 18.58530408022451, 49.804855210827917 ], [ 18.592947189863512, 49.80174484078038 ], [ 18.599955739663077, 49.789358721059685 ], [ 18.597291029554061, 49.784341421347989 ], [ 18.61046143004501, 49.770682190760212 ], [ 18.61338188036623, 49.755101600885197 ], [ 18.62921341975813, 49.747092601176035 ], [ 18.628859190296769, 49.726127280976051 ], [ 18.625217740007866, 49.722381720675095 ], [ 18.641699439783263, 49.712286980891101 ], [ 18.652315979703189, 49.71099332051628 ], [ 18.652584650356733, 49.7076207909018 ], [ 18.658609019896765, 49.710827420776674 ], [ 18.666890870311413, 49.709656070898689 ], [ 18.668225340129897, 49.703436420787291 ], [ 18.693662030184356, 49.706596680723521 ], [ 18.709557800046994, 49.70449206119244 ], [ 18.709249259739071, 49.695426380552092 ], [ 18.714871760027513, 49.696100760569657 ], [ 18.717069370354071, 49.683511251075799 ], [ 18.729787830040273, 49.684193571211686 ], [ 18.74097531985614, 49.6765436510046 ], [ 18.751169319604912, 49.676892420676346 ], [ 18.764156180168815, 49.684631240674122 ], [ 18.76676082004915, 49.682257461245989 ], [ 18.780636200005539, 49.685357590715888 ], [ 18.806949970064046, 49.676781831046569 ], [ 18.810087360244633, 49.671038210976327 ], [ 18.806342710050746, 49.651282951078215 ], [ 18.82025225973867, 49.624197970988206 ], [ 18.818801209907875, 49.618557070580856 ], [ 18.82425933030061, 49.614455221367074 ], [ 18.823204939952973, 49.604058680792846 ], [ 18.829291279963801, 49.594938890645381 ], [ 18.83908094003721, 49.595316861315723 ], [ 18.831701620439841, 49.584133210710263 ], [ 18.837210709912149, 49.563059220933972 ], [ 18.845587859689235, 49.560878570925588 ], [ 18.849283780116707, 49.554314040692262 ], [ 18.859254300139373, 49.550584641204537 ], [ 18.857452690083853, 49.537924891051105 ], [ 18.844096829611431, 49.534089130541915 ], [ 18.844699739602422, 49.528236360651093 ], [ 18.837234380059087, 49.523634401135382 ], [ 18.843011640174712, 49.518540711219188 ], [ 18.850907280350725, 49.517148081353554 ], [ 18.866769420074704, 49.519423651208463 ], [ 18.87549534044286, 49.515868010628516 ], [ 18.897156850103329, 49.514421800960356 ], [ 18.930851060325317, 49.519946930738939 ], [ 18.941661709919721, 49.518899731365778 ], [ 18.949175470073289, 49.512623101107224 ], [ 18.971646240079821, 49.504336160518626 ], [ 18.97333409040143, 49.496807060630019 ], [ 18.966231580318127, 49.49309237134775 ], [ 18.960450499884704, 49.482751000592565 ], [ 18.970197339639807, 49.476810040479705 ], [ 18.964587539578154, 49.472439420776865 ], [ 18.960782380304394, 49.454704111038026 ], [ 18.973874480419052, 49.451656270855189 ], [ 18.977785960256451, 49.440530910708354 ], [ 18.988968799665429, 49.431297970553494 ], [ 18.98572158967286, 49.421848551002611 ], [ 18.968742279736659, 49.413329100593472 ], [ 18.973150039644747, 49.406940511032168 ], [ 18.97118166020487, 49.40206536086226 ], [ 18.979853540311161, 49.395222290805712 ], [ 18.989641370246904, 49.39837899123247 ], [ 19.01005638989589, 49.394783981033051 ], [ 19.03502130998741, 49.395717760599432 ], [ 19.044690260348684, 49.400445501090395 ], [ 19.044305880206249, 49.404734760934396 ], [ 19.053911889721398, 49.41516249088999 ], [ 19.070187839902154, 49.412390490757147 ], [ 19.072731850188916, 49.417980690989147 ], [ 19.091469000199709, 49.415977470914363 ], [ 19.093640380005773, 49.410802610888865 ], [ 19.10301009983645, 49.409794101253695 ], [ 19.107283129618306, 49.403685470644689 ], [ 19.120354780053606, 49.40265802128522 ], [ 19.137516639786909, 49.409952740757745 ], [ 19.15066347983619, 49.403644550589291 ], [ 19.17560333042838, 49.413745970537363 ], [ 19.18745311967092, 49.409666721275762 ], [ 19.191610109918123, 49.411086031327009 ], [ 19.197402990349985, 49.41456271053169 ], [ 19.185744270185353, 49.434718070715135 ], [ 19.198582679642403, 49.448161700531969 ], [ 19.208991960016661, 49.451827791356379 ], [ 19.219010510123422, 49.448613481256821 ], [ 19.22531336011988, 49.454315851228202 ], [ 19.228266300246567, 49.463737121104614 ], [ 19.219986350088757, 49.469307831222331 ], [ 19.22046942991339, 49.473491420721359 ], [ 19.231540269567219, 49.486830291220514 ], [ 19.227827760247607, 49.491934070632688 ], [ 19.235511340275092, 49.495657341243536 ], [ 19.233266270028931, 49.510492001040426 ], [ 19.261029409977688, 49.527280731157532 ], [ 19.260690299911406, 49.531223120679229 ], [ 19.274718169803108, 49.531891570568185 ], [ 19.281515410410101, 49.53531722134597 ], [ 19.299662769716338, 49.533608281029309 ], [ 19.310346839735292, 49.53702257067134 ], [ 19.31556929998947, 49.536584930879329 ], [ 19.318793910012367, 49.531083290496845 ], [ 19.362356349563079, 49.536072230982917 ], [ 19.3685742100342, 49.545028950655848 ], [ 19.366592349752455, 49.553702250786422 ], [ 19.373455169822996, 49.557848390726249 ], [ 19.371364020339112, 49.567440210729949 ], [ 19.400015640111654, 49.574133040940147 ], [ 19.407646529768279, 49.580829031367728 ], [ 19.409963200436842, 49.59213693050269 ], [ 19.442020530320018, 49.598503930946123 ], [ 19.446250169603665, 49.613247241200582 ], [ 19.454946499579655, 49.610887380583044 ], [ 19.467375779568911, 49.613762470893818 ], [ 19.47470944958626, 49.603438780805497 ], [ 19.468438229639414, 49.596462261260484 ], [ 19.478408329680445, 49.58802876085057 ], [ 19.497232769683386, 49.581573471270431 ], [ 19.51020762968502, 49.581439081080198 ], [ 19.522009229643299, 49.572234770849398 ], [ 19.529332159945415, 49.573018120824905 ], [ 19.530448410167345, 49.535768450784907 ], [ 19.551612869934122, 49.507620391104084 ], [ 19.553640549774375, 49.489939681002689 ], [ 19.565627050350024, 49.480522991379054 ], [ 19.566913509847737, 49.471141421174217 ], [ 19.580579630150222, 49.46121949061758 ], [ 19.58146444972877, 49.455408310777216 ], [ 19.597403280041284, 49.45861537053198 ], [ 19.611448139918995, 49.446873410913142 ], [ 19.625431659749246, 49.449613120877018 ], [ 19.641115749890908, 49.457560830896917 ], [ 19.637791069603487, 49.440544950920184 ], [ 19.64859609034184, 49.435366590727433 ], [ 19.631730989790331, 49.408796501292166 ], [ 19.638684510084015, 49.408622880875122 ], [ 19.639483119745652, 49.411260840647543 ], [ 19.644749119775206, 49.410617861362134 ], [ 19.64433449993151, 49.408218670691163 ], [ 19.650583750342996, 49.410001850939992 ], [ 19.671656550306949, 49.406052361260556 ], [ 19.680089039874382, 49.402152920652711 ], [ 19.685374399611412, 49.40358304055944 ], [ 19.690097190235409, 49.399864601099637 ], [ 19.699768250404432, 49.399677980984329 ], [ 19.709593949903613, 49.390871241245954 ], [ 19.716499750359905, 49.390963080917565 ], [ 19.717647619843827, 49.386424030774123 ], [ 19.729635710422414, 49.391742291306166 ], [ 19.746274389555261, 49.407940111080769 ], [ 19.767580270408445, 49.412994250618297 ], [ 19.790592550108631, 49.410685751179962 ], [ 19.791129580261074, 49.383508830698091 ], [ 19.80382352983743, 49.364815841012053 ], [ 19.802460899550166, 49.353137050669133 ], [ 19.794731990090437, 49.344529250860312 ], [ 19.804964419668625, 49.322768301346713 ], [ 19.792475979576476, 49.299739850950758 ], [ 19.794500619703179, 49.296042271265115 ], [ 19.809769730289805, 49.295410880640233 ], [ 19.822803700026366, 49.276794701151893 ], [ 19.80634292029044, 49.274491361122458 ], [ 19.792472160166483, 49.26796893085389 ], [ 19.785023680001149, 49.246662761315022 ], [ 19.778434229556677, 49.245400740886005 ], [ 19.766770900353709, 49.236595321352837 ], [ 19.766943830089659, 49.222611251143569 ], [ 19.758411239682832, 49.215991461174504 ], [ 19.763105590148719, 49.207579441069541 ], [ 19.778588310402903, 49.204954480999625 ], [ 19.784254579784378, 49.199286200728913 ], [ 19.795032449993858, 49.198364791334832 ], [ 19.807521620321001, 49.205651210967581 ], [ 19.819833519898886, 49.199527900721925 ], [ 19.829461200375942, 49.201690691105952 ], [ 19.841001020284374, 49.192615661121067 ], [ 19.851147700406102, 49.196251261324683 ], [ 19.869438919776929, 49.195797200810034 ], [ 19.888379959569921, 49.209187901036735 ], [ 19.902331059736643, 49.213312210827908 ], [ 19.903268899737693, 49.230918540692493 ], [ 19.93221771037976, 49.236490440615206 ], [ 19.971165699732886, 49.229954721071621 ], [ 19.981562959757081, 49.231800441069936 ], [ 20.008629160202851, 49.220051870533972 ], [ 20.00646844995897, 49.213157870968544 ], [ 20.020526760105309, 49.201504840809953 ], [ 20.040095589638284, 49.197287900849403 ], [ 20.048244629983028, 49.189790860893865 ], [ 20.079019469972692, 49.178475911064872 ], [ 20.088151720224921, 49.179658611293263 ], [ 20.089251189990293, 49.187845761306612 ], [ 20.084347859561245, 49.194883630809109 ], [ 20.086982089849503, 49.20691102085712 ], [ 20.101621710071342, 49.222657050916048 ], [ 20.097829420085166, 49.23454990058783 ], [ 20.100883890081647, 49.250337110602636 ], [ 20.125139340409543, 49.270924890905064 ], [ 20.134202400417294, 49.305920600892541 ], [ 20.145138630436978, 49.312623670776929 ], [ 20.145499559855207, 49.317516490825994 ], [ 20.151860720092973, 49.318445390675343 ], [ 20.15771526974904, 49.302813690531259 ], [ 20.175800600120898, 49.314079281070299 ], [ 20.167447679871273, 49.323178630524879 ], [ 20.17357663965598, 49.324975460682261 ], [ 20.170581470063681, 49.327731541009896 ], [ 20.184154829787463, 49.327807771146205 ], [ 20.193214299694564, 49.34097740091827 ], [ 20.21232803990269, 49.344663770549829 ], [ 20.220826730363878, 49.351786901178791 ], [ 20.231819060100314, 49.346316400712368 ], [ 20.253188569791948, 49.35175646092258 ], [ 20.253977410126289, 49.348907021075085 ], [ 20.268655460186242, 49.345689370904893 ], [ 20.273049709576306, 49.351367441184152 ], [ 20.292810260185359, 49.35155517106729 ], [ 20.308429969667589, 49.343942090686397 ], [ 20.316486459889347, 49.344527881191198 ], [ 20.323656330076254, 49.351810780871972 ], [ 20.326214279869358, 49.365860900892081 ], [ 20.321377789753662, 49.378384051215818 ], [ 20.331272829683179, 49.391429311048498 ], [ 20.317508519603891, 49.38872715136791 ], [ 20.325079349837228, 49.403027531124707 ], [ 20.362269679901775, 49.398261710644711 ], [ 20.368989569815728, 49.400989821155591 ], [ 20.371132700117542, 49.407380861372836 ], [ 20.375680030316129, 49.407858710745181 ], [ 20.380909839818081, 49.403256470642212 ], [ 20.382428649966286, 49.391024311253467 ], [ 20.393035149847147, 49.390575930868131 ], [ 20.41228300954926, 49.395201980523595 ], [ 20.41686914010527, 49.405788200696996 ], [ 20.427362900076194, 49.402483320777876 ], [ 20.433265159654983, 49.396613881059238 ], [ 20.436987610093801, 49.406273401129134 ], [ 20.428726169776375, 49.408271701012659 ], [ 20.432292620212781, 49.417579020487622 ], [ 20.446350420439813, 49.411917140700609 ], [ 20.450927350016148, 49.412769860773622 ], [ 20.445977410435503, 49.416332311018166 ], [ 20.471959239826734, 49.415434951294472 ], [ 20.490144420124324, 49.406429700606388 ], [ 20.50489445012364, 49.403282291079208 ], [ 20.509935750041631, 49.393444001068687 ], [ 20.546506270046656, 49.385540780519904 ], [ 20.557680760166118, 49.37809731137483 ], [ 20.563174150173655, 49.379473570879568 ], [ 20.575523949866056, 49.376104590891387 ], [ 20.581690940187208, 49.3838767307588 ], [ 20.586894150441228, 49.385488530803656 ], [ 20.592134439753675, 49.383030040640797 ], [ 20.600198739681737, 49.388294501027765 ], [ 20.605772709849465, 49.401299471225933 ], [ 20.613596260353553, 49.401824631234973 ], [ 20.611271609995644, 49.412453811123065 ], [ 20.614932519819714, 49.417844941023354 ], [ 20.621962389849983, 49.416819881165097 ], [ 20.624667359914348, 49.410458041036172 ], [ 20.638345700192144, 49.40750497051102 ], [ 20.642595700126797, 49.400992370735004 ], [ 20.646986370226962, 49.400668230785378 ], [ 20.665698830239503, 49.403549671209738 ], [ 20.665765850416825, 49.406308480988166 ], [ 20.691720889913231, 49.419775921253162 ], [ 20.722918760197125, 49.419654050523441 ], [ 20.72813484964146, 49.414820870820122 ], [ 20.743117140345564, 49.415140410737379 ], [ 20.746105049708802, 49.411642581272865 ], [ 20.742267149715964, 49.403831730980492 ], [ 20.75802495009038, 49.400393251384955 ], [ 20.747536270383691, 49.390962061085496 ], [ 20.761361520323799, 49.384244681183674 ], [ 20.757593330368191, 49.375278851371988 ], [ 20.761428220330764, 49.371603571279273 ], [ 20.785404039959499, 49.374399410636286 ], [ 20.788347289893004, 49.371596440558591 ], [ 20.781726189608019, 49.366278700731172 ], [ 20.782473859875612, 49.361029471265255 ], [ 20.79810991005251, 49.363260720734694 ], [ 20.809316079680084, 49.359370100680771 ], [ 20.810595949849368, 49.355068150506206 ], [ 20.806878760454079, 49.353148740951639 ], [ 20.804737019595485, 49.359504240858854 ], [ 20.797870790208083, 49.358702601375754 ], [ 20.802217139908784, 49.355274981087248 ], [ 20.797377830425145, 49.343171421153485 ], [ 20.811832540136439, 49.347685340639721 ], [ 20.825903920126912, 49.334405000720565 ], [ 20.837329089967092, 49.334021971372209 ], [ 20.85438379996955, 49.347282610741395 ], [ 20.865547339942498, 49.347482841190853 ], [ 20.882382869872608, 49.333095820751623 ], [ 20.879635289936019, 49.322613260928513 ], [ 20.87273716969138, 49.319786991212766 ], [ 20.884185470091005, 49.319097111379897 ], [ 20.89717211030144, 49.32535599081578 ], [ 20.903574730191135, 49.323534650537113 ], [ 20.907616170156146, 49.319579890832472 ], [ 20.9032594800398, 49.315918160826364 ], [ 20.910239940428113, 49.31147337133627 ], [ 20.911339480329993, 49.306266881240795 ], [ 20.923869819840434, 49.299468220617854 ], [ 20.924083130041094, 49.29596754120282 ], [ 20.969606089854405, 49.309887980782761 ], [ 20.986542520120494, 49.306620790546404 ], [ 20.994135720094238, 49.312678871162056 ], [ 20.989064599553167, 49.328445141362032 ], [ 21.008087000123123, 49.334851910724787 ], [ 21.011309319571623, 49.347563361092831 ], [ 21.016248120160125, 49.346897950915917 ], [ 21.042544480249436, 49.364879931198942 ], [ 21.048925809578542, 49.365646850553738 ], [ 21.054442539701228, 49.36183094078217 ], [ 21.066201539666206, 49.365530641062939 ], [ 21.075328679975655, 49.359315940812024 ], [ 21.07894990002433, 49.363918800544106 ], [ 21.094109510044667, 49.365053980590851 ], [ 21.10410431986508, 49.376399960623324 ], [ 21.067953980194353, 49.395515050711168 ], [ 21.067228560050207, 49.402082950698421 ], [ 21.054313290026773, 49.404219041107275 ], [ 21.047541529926566, 49.418339330727846 ], [ 21.096385859628995, 49.429487300734699 ], [ 21.113729650403421, 49.423940131263066 ], [ 21.124022529717585, 49.436579940744878 ], [ 21.152249289981071, 49.426956720906837 ], [ 21.155224429870131, 49.420989550960428 ], [ 21.179421210224596, 49.409027630654627 ], [ 21.180026749841268, 49.40216920107909 ], [ 21.192125060433643, 49.400990731268791 ], [ 21.201838990386459, 49.40463708107287 ], [ 21.20819212956566, 49.402481980790192 ], [ 21.227253100261557, 49.416950591330725 ], [ 21.223453409745847, 49.425517080780097 ], [ 21.232746570303043, 49.43654526108935 ], [ 21.240665990350315, 49.434183200730168 ], [ 21.258563779698406, 49.446346131199462 ], [ 21.265918869770239, 49.446984351283469 ], [ 21.267339769826389, 49.457187381127135 ], [ 21.277521990253479, 49.460939540661251 ], [ 21.307180300336302, 49.447996441117887 ], [ 21.344680339830955, 49.450424030581026 ], [ 21.368494429886606, 49.439118640545232 ], [ 21.372748869775577, 49.432644380666225 ], [ 21.402015999952305, 49.433418020654209 ], [ 21.406530190125089, 49.426619700873964 ], [ 21.434079679935035, 49.412281741147375 ], [ 21.447322230344106, 49.412590141154361 ], [ 21.45623166007567, 49.416298551374638 ], [ 21.473693100162013, 49.413584850698747 ], [ 21.479602520152639, 49.416373240964177 ], [ 21.487269260371932, 49.428461461160246 ], [ 21.49266725030451, 49.429492980854398 ], [ 21.517044610033267, 49.417804181052908 ], [ 21.523539530033069, 49.419938201221179 ], [ 21.518716349890553, 49.425395750549718 ], [ 21.530271630047178, 49.435083071363572 ], [ 21.55207913025566, 49.433114511161676 ], [ 21.563983779943136, 49.441262030750153 ], [ 21.575601480241218, 49.435406231045491 ], [ 21.590555560100594, 49.433816630770423 ], [ 21.596397129836166, 49.436956880785651 ], [ 21.601845349598868, 49.435347791300806 ], [ 21.614774800125758, 49.444815751281709 ], [ 21.630942230015084, 49.447302990973384 ], [ 21.644305919991364, 49.430650500950655 ], [ 21.656473320101867, 49.424638820863763 ], [ 21.658904989788635, 49.416800801146927 ], [ 21.681232059824211, 49.410804570511658 ], [ 21.699363889644939, 49.418513181369676 ], [ 21.710189680219674, 49.413379150564865 ], [ 21.721769420130258, 49.412280840920872 ], [ 21.726890349620476, 49.39810284090867 ], [ 21.734650190374698, 49.39895417063115 ], [ 21.740498370118555, 49.392531411330069 ], [ 21.76338685003611, 49.383467570711453 ], [ 21.766243339667902, 49.367193770808989 ], [ 21.777995330331763, 49.356048091379051 ], [ 21.789215130092511, 49.355488020595175 ], [ 21.787846559792161, 49.36771654131924 ], [ 21.803000440235273, 49.382174921175377 ], [ 21.817380890233405, 49.384342490549756 ], [ 21.825835200052669, 49.390788790507578 ], [ 21.838311459720057, 49.391679400821353 ], [ 21.847307629967016, 49.386671520614229 ], [ 21.847914889972738, 49.37811801107501 ], [ 21.8589961698612, 49.368560651292313 ], [ 21.875472249763927, 49.373631620737584 ], [ 21.887328929598901, 49.368976160555938 ], [ 21.891827869984045, 49.358626611369701 ], [ 21.903768020401351, 49.349964970946459 ], [ 21.907886040328592, 49.353275780987701 ], [ 21.918034410276675, 49.35419462102427 ], [ 21.934026949897778, 49.346115460697682 ], [ 21.952390249924715, 49.350071391319247 ], [ 21.961011359708255, 49.349052430659313 ], [ 21.975381189612406, 49.330024940834491 ], [ 21.983181890151794, 49.310365920991572 ], [ 22.010688360009436, 49.289528220891661 ], [ 22.023379310332192, 49.286132851185791 ], [ 22.034019550081389, 49.278543571367116 ], [ 22.030318009786502, 49.262669290798051 ], [ 22.041885279700974, 49.257160561049652 ], [ 22.038969879982961, 49.245018610856953 ], [ 22.033367809608173, 49.241749830627185 ], [ 22.03505642973802, 49.233823151261376 ], [ 22.030421600006022, 49.225169230612565 ], [ 22.061965640030955, 49.211585990939398 ], [ 22.117565880192423, 49.201046660513313 ], [ 22.143805160312308, 49.200514470508978 ], [ 22.143105600172003, 49.192744580742307 ], [ 22.175906969766729, 49.1831003113751 ], [ 22.188188129616893, 49.17432053060864 ], [ 22.204987409675589, 49.179763151191629 ], [ 22.211027740374668, 49.18555450098215 ], [ 22.222462219984333, 49.18445925083703 ], [ 22.230825250418668, 49.18047285118984 ], [ 22.235800590457483, 49.170076150538904 ], [ 22.226251689700138, 49.161852170584304 ], [ 22.225716090365221, 49.15254148135034 ], [ 22.248493860142286, 49.153046630544601 ], [ 22.281769929670546, 49.142078361274272 ], [ 22.297227530069954, 49.141533740832521 ], [ 22.317651829814572, 49.13555239127718 ], [ 22.334609000250353, 49.146471030556803 ], [ 22.362244770120498, 49.14451362105283 ], [ 22.366195990101719, 49.146920530603772 ], [ 22.378512290058708, 49.13189236099543 ], [ 22.390232579612931, 49.127392941279751 ], [ 22.391821410071731, 49.11805180099698 ], [ 22.412472960404436, 49.102901891060903 ], [ 22.422655970444129, 49.099490151002605 ], [ 22.456068289972752, 49.103761381239124 ], [ 22.467133640161265, 49.100603561160469 ], [ 22.485954579986743, 49.088890521038664 ], [ 22.498712750152155, 49.085794800942828 ], [ 22.507731430417415, 49.091394891016648 ], [ 22.539426499891331, 49.094692311057216 ], [ 22.555963069999898, 49.08758815073007 ], [ 22.564094060048941, 49.087727150842589 ], [ 22.584481470498492, 49.097310370634155 ], [ 22.599814440142204, 49.09349553105482 ], [ 22.605035060379251, 49.084511070888205 ], [ 22.625674260325791, 49.080319111395475 ], [ 22.63972336050762, 49.059716261155081 ], [ 22.645979309968819, 49.057769771219334 ], [ 22.651571709931726, 49.050819991209835 ], [ 22.659887579921584, 49.047110170864372 ], [ 22.669203739734812, 49.047631320794324 ], [ 22.671266830370314, 49.042810650656634 ], [ 22.680183270316078, 49.039380380968041 ], [ 22.686493820303845, 49.03972684118304 ], [ 22.699110529799757, 49.049695910602246 ], [ 22.717871849985098, 49.05276944082631 ], [ 22.727479099650175, 49.048250650611351 ], [ 22.73539154995559, 49.049026600960985 ], [ 22.754970920453196, 49.042941321253615 ], [ 22.765497060522975, 49.053525770670198 ], [ 22.809509949812931, 49.034638060669771 ], [ 22.813191400144046, 49.025138890617391 ], [ 22.824323509705675, 49.022756780777627 ], [ 22.833750070305182, 49.026072311366676 ], [ 22.847095299893862, 49.002383181214952 ], [ 22.889514669663122, 49.006796211157024 ], [ 22.893965829951853, 49.017847570590149 ], [ 22.883161040348039, 49.021471950847356 ], [ 22.874109309984348, 49.030488941287935 ], [ 22.881115410042717, 49.038249881006358 ], [ 22.877847670321692, 49.039878061306034 ], [ 22.873815059909663, 49.036550790966182 ], [ 22.866454920150407, 49.039989731019553 ], [ 22.875802040020822, 49.051120560841412 ], [ 22.870862810459034, 49.058553150884968 ], [ 22.867673260505548, 49.057533490552601 ], [ 22.864680359896759, 49.066574370593024 ], [ 22.871634630221205, 49.071750601185791 ], [ 22.866653240443807, 49.074684000846958 ], [ 22.868127330004238, 49.077196410764863 ], [ 22.883720389884214, 49.081210070665833 ], [ 22.88069779995384, 49.084008950635543 ], [ 22.892662429920222, 49.094665730717487 ], [ 22.889109890208793, 49.097461270601784 ], [ 22.884957259864088, 49.096544961261131 ], [ 22.885667100145671, 49.098799210897496 ], [ 22.87599821994009, 49.096746561385423 ], [ 22.862745080018946, 49.10010001098118 ], [ 22.855390870379598, 49.104247281367122 ], [ 22.860291320273863, 49.112189381416748 ], [ 22.854199999814544, 49.111032410792482 ], [ 22.851153389911573, 49.114672351124192 ], [ 22.842605650413962, 49.110103340969289 ], [ 22.831509560503328, 49.111015020603482 ], [ 22.829213639889328, 49.119224840728101 ], [ 22.820109700289745, 49.122718020695849 ], [ 22.818878139898036, 49.126221970942602 ], [ 22.815030959793699, 49.123337131081577 ], [ 22.812177919962032, 49.125123101021863 ], [ 22.816394180031104, 49.129760100825344 ], [ 22.807406260170875, 49.128738101358415 ], [ 22.808079650040405, 49.132395860857642 ], [ 22.793178239869249, 49.138233570697452 ], [ 22.789157960049991, 49.157624840789566 ], [ 22.773097640325101, 49.152491470977139 ], [ 22.774081149703054, 49.155831580928883 ], [ 22.751789160415303, 49.152880150766741 ], [ 22.744751809826642, 49.158018040566283 ], [ 22.739463240406959, 49.157669960669786 ], [ 22.742285240146618, 49.168635580532481 ], [ 22.755856630357396, 49.182673431103666 ], [ 22.752515059903512, 49.181257891002957 ], [ 22.747467739926943, 49.184452861173895 ], [ 22.732758719917744, 49.182194191376354 ], [ 22.729981849957802, 49.175297450680503 ], [ 22.724072529796498, 49.174421161177122 ], [ 22.724712499956254, 49.168293280577423 ], [ 22.718153690310405, 49.164892060790386 ], [ 22.707707040422594, 49.174279000839114 ], [ 22.708374939920382, 49.180985721079495 ], [ 22.716160670358299, 49.183602561176549 ], [ 22.722708640466266, 49.195997660625217 ], [ 22.730819890406519, 49.198498850605347 ], [ 22.734010669726125, 49.211560441224343 ], [ 22.747615510220697, 49.215338220653351 ], [ 22.742068700488478, 49.218676720818294 ], [ 22.720119200010547, 49.221138320842421 ], [ 22.714882820055795, 49.226493900539602 ], [ 22.721308320492838, 49.241339191215452 ], [ 22.739621850248259, 49.247346890910599 ], [ 22.74410148037618, 49.298832201208299 ], [ 22.750943109712399, 49.316599400905766 ], [ 22.743167619859062, 49.335857091098788 ], [ 22.74684461046181, 49.359901100918684 ], [ 22.712874109629873, 49.437550811085075 ], [ 22.696692170074584, 49.495125391389571 ], [ 22.670412069724026, 49.497520041381598 ], [ 22.651223210051086, 49.508379961223326 ], [ 22.640824729645495, 49.529989621381326 ], [ 22.663157069703043, 49.538826110697613 ], [ 22.67468925976274, 49.54915612121583 ], [ 22.684731669804524, 49.5717117413637 ], [ 22.693586700429055, 49.58068977137637 ], [ 22.783317150242009, 49.657240561271841 ], [ 22.787226489690621, 49.676461771357062 ], [ 22.803005550042808, 49.691110531393221 ], [ 22.821925520527888, 49.694531810567035 ], [ 22.847787609698141, 49.710082021337385 ], [ 22.852100670091033, 49.720357461 ], [ 22.873430800283273, 49.740631970566675 ], [ 22.896777519857253, 49.751756320771278 ], [ 22.901604780223082, 49.76825576056865 ], [ 22.932818750180367, 49.793288870865794 ], [ 22.961926749821405, 49.804703861279606 ], [ 22.956671090190056, 49.811128251052835 ], [ 22.970696979779305, 49.838646050555639 ], [ 22.995472140221029, 49.842156471427849 ], [ 23.033275789951048, 49.881343470911766 ], [ 23.107485470100244, 49.941959490939567 ], [ 23.114920009868971, 49.956544461156476 ], [ 23.142634300446513, 49.971228041141366 ], [ 23.213016880556324, 50.031099281315889 ], [ 23.215996790450653, 50.047467311278467 ], [ 23.239326600076303, 50.054459400793739 ], [ 23.264603879905113, 50.078870511185002 ], [ 23.279326469788309, 50.08629126076071 ], [ 23.280087279145384, 50.100549914669841 ], [ 23.283916899990068, 50.099039537468641 ], [ 23.296848950459346, 50.102907410979476 ], [ 23.29851233022066, 50.10705769138201 ], [ 23.313946720009579, 50.111967871053331 ], [ 23.380326280097272, 50.15935579097679 ], [ 23.429442130423993, 50.184209471238596 ], [ 23.470127020023277, 50.21787934132302 ], [ 23.506332710267522, 50.230315770925344 ], [ 23.581012050565242, 50.265996731049512 ], [ 23.611567530631604, 50.29924914122968 ], [ 23.631041430434937, 50.304799150765781 ], [ 23.638851620617366, 50.320509100921903 ], [ 23.686331400002057, 50.331640670901606 ], [ 23.69664814012577, 50.366179471332302 ], [ 23.708741450483867, 50.379260891101907 ], [ 23.727029149909242, 50.388005751194513 ], [ 23.803364940690219, 50.404768041275176 ], [ 23.883985280679834, 50.408270091287825 ], [ 23.940764280247699, 50.413912570927216 ], [ 23.997537420738336, 50.412144231323978 ], [ 24.005822649923424, 50.435381781291866 ], [ 24.034523250384392, 50.444836390853858 ], [ 24.070100210196731, 50.50338770146238 ], [ 24.091312459950878, 50.562016641550407 ], [ 24.090344600574483, 50.577931651516927 ], [ 24.098648230773684, 50.599534221425721 ], [ 24.097392450749229, 50.610606561143285 ], [ 24.091224240046806, 50.619120891710104 ], [ 24.098187770689332, 50.63743700161487 ], [ 24.093606910181457, 50.635229550895147 ], [ 24.088509979993159, 50.637318171490072 ], [ 24.088387740538124, 50.635153431374398 ], [ 24.087781930227617, 50.644669701139563 ], [ 24.080161800069988, 50.644760690938931 ], [ 24.089152090536682, 50.650631551593811 ], [ 24.090361530303362, 50.653646821040553 ], [ 24.085822190578707, 50.655255251319161 ], [ 24.091121110299412, 50.663532490925476 ], [ 24.085405250486819, 50.661475021049796 ], [ 24.086665070273504, 50.669092941575229 ], [ 24.082256890385374, 50.674796851181455 ], [ 24.079025039910775, 50.673087910868134 ], [ 24.073423320259263, 50.676044561591119 ], [ 24.073079049900333, 50.673832131331622 ], [ 24.070361670090357, 50.678909341175249 ], [ 24.062152090073901, 50.677975891649531 ], [ 24.063427850352411, 50.685086991151884 ], [ 24.069328960601542, 50.684124480944298 ], [ 24.065093120483045, 50.686806961652636 ], [ 24.072262920532719, 50.698922431308517 ], [ 24.066994640722616, 50.707159391168361 ], [ 24.075204910512589, 50.711034220934273 ], [ 24.071489330007058, 50.711949671421308 ], [ 24.075197530679823, 50.713585331384913 ], [ 24.071220930036624, 50.715440041001791 ], [ 24.071997470342534, 50.720614410909121 ], [ 24.049939390221546, 50.719075791384476 ], [ 24.044515710252387, 50.715261991410301 ], [ 24.023741750501326, 50.725138490898736 ], [ 24.022506310436281, 50.72189621099529 ], [ 24.016588410745861, 50.723134231213372 ], [ 24.020608749903626, 50.737754230922945 ], [ 24.016152100150961, 50.73724187096137 ], [ 24.023143900088392, 50.745498371308564 ], [ 24.019935210755879, 50.74865481092688 ], [ 24.015367310359196, 50.747355180844082 ], [ 24.017940179904969, 50.751235971316305 ], [ 24.023656700706226, 50.750864301303388 ], [ 24.011144990654675, 50.754485980894621 ], [ 24.017789359996247, 50.756727341447345 ], [ 24.012389820542477, 50.757051770967017 ], [ 24.01562230053414, 50.76248375167566 ], [ 24.020862360515775, 50.761410251632519 ], [ 24.021241590235547, 50.758121201580948 ], [ 24.025154030550762, 50.759137551509191 ], [ 24.023772460538574, 50.766233081042969 ], [ 24.011335890649558, 50.772094511396354 ], [ 23.997483460494294, 50.76919173095029 ], [ 23.980831080190939, 50.771206721344768 ], [ 23.981979500052084, 50.768024371358578 ], [ 23.978801710529495, 50.768228081288704 ], [ 23.978473040691675, 50.773324611269842 ], [ 23.971898000093983, 50.774548901540648 ], [ 23.972078449955529, 50.776990791119232 ], [ 23.968820390537971, 50.77497406143241 ], [ 23.970382160408665, 50.778702951009969 ], [ 23.966134389882964, 50.778046341588976 ], [ 23.96324237072476, 50.78157096095557 ], [ 23.96825971990507, 50.78575949132923 ], [ 23.957501260661306, 50.794085501165185 ], [ 23.968897840158213, 50.811669931649114 ], [ 23.963434240188693, 50.814093541610205 ], [ 23.970693840246188, 50.816092691346135 ], [ 23.968712980015898, 50.819289701182683 ], [ 23.974497360054936, 50.817091101604234 ], [ 23.975284290230736, 50.82561268161129 ], [ 23.979673900026327, 50.824301911629981 ], [ 23.98037339001181, 50.827898690806322 ], [ 23.983731659986521, 50.826838591560204 ], [ 23.980947679982048, 50.829643091383396 ], [ 23.985121170099234, 50.834655001455523 ], [ 24.001100389876733, 50.840387960978347 ], [ 24.019285970373605, 50.838721641340463 ], [ 24.020796860192522, 50.841598220932852 ], [ 24.026987900177783, 50.838177751158284 ], [ 24.02891130003168, 50.84154866109435 ], [ 24.03205124068521, 50.835937821428033 ], [ 24.034491880205088, 50.839549151630386 ], [ 24.047149579904822, 50.838321571646567 ], [ 24.039912340592959, 50.836634891350045 ], [ 24.044185230076405, 50.833563951177567 ], [ 24.052596150309352, 50.836231441097233 ], [ 24.063587710228749, 50.834087011279934 ], [ 24.064652270104762, 50.83624965147515 ], [ 24.07454842070219, 50.834152531391901 ], [ 24.081103700511058, 50.83446901091731 ], [ 24.081014880757934, 50.836710601695756 ], [ 24.100156240060894, 50.835948151081581 ], [ 24.131348300734281, 50.848500831559271 ], [ 24.143285950141227, 50.858215490871132 ], [ 24.145478240081122, 50.864924931556622 ], [ 24.145036440036936, 50.869635601117942 ], [ 24.135966500199576, 50.866602121301739 ], [ 24.125801730204966, 50.868283731214014 ], [ 24.122826390670149, 50.871708151718181 ], [ 24.116662660397665, 50.869726920963579 ], [ 24.112493700168827, 50.875588310853445 ], [ 24.099530820032321, 50.876756891710492 ], [ 24.086452109903306, 50.889013281523489 ], [ 24.082802179900565, 50.887030351054975 ], [ 24.07347431991192, 50.890988141463808 ], [ 24.05234529072515, 50.891414041488531 ], [ 24.047202700157101, 50.900805321673509 ], [ 24.024141960483298, 50.916091771167672 ], [ 24.011023300681153, 50.919813151402735 ], [ 23.997335770228521, 50.928318540904222 ], [ 23.990666750460257, 50.942812730852722 ], [ 23.979625289871393, 50.948599241392557 ], [ 23.976056520087827, 50.946014671667569 ], [ 23.970381119885808, 50.950298561651032 ], [ 23.967024870678316, 50.978330811134398 ], [ 23.956755000523717, 50.990762171253586 ], [ 23.938607740131321, 51.002964440761183 ], [ 23.9150805104229, 51.007050400749527 ], [ 23.918515220072265, 51.00938376104741 ], [ 23.915651070006714, 51.012368780888885 ], [ 23.922260100494388, 51.009647101434744 ], [ 23.925879930190725, 51.014913570908767 ], [ 23.934603330650106, 51.012899630917069 ], [ 23.935655229884315, 51.01470163128014 ], [ 23.923326020143392, 51.016444911306131 ], [ 23.927289940342302, 51.020018640849429 ], [ 23.91589824057025, 51.02840329097107 ], [ 23.931516910450107, 51.038078691284184 ], [ 23.921355350143195, 51.036636931444555 ], [ 23.913019329944547, 51.041760540909443 ], [ 23.9199343700393, 51.046588731179313 ], [ 23.91370437052473, 51.046814511375615 ], [ 23.912896760443282, 51.063246751129178 ], [ 23.908773290615841, 51.06420386091353 ], [ 23.911091620541455, 51.07459938075273 ], [ 23.905689250025333, 51.078431861426537 ], [ 23.90329557039389, 51.074009151190303 ], [ 23.896264829809063, 51.076743651381669 ], [ 23.892346190475866, 51.074491391051531 ], [ 23.885007629946905, 51.08217562128884 ], [ 23.875927999925555, 51.077069041382714 ], [ 23.871706360105364, 51.094534611158188 ], [ 23.867854060169066, 51.093442060777804 ], [ 23.867439790167772, 51.098334821469969 ], [ 23.861464810504675, 51.096854790987855 ], [ 23.856858110658862, 51.099955001390697 ], [ 23.862199700507102, 51.103260281511034 ], [ 23.857628629996135, 51.107259961444896 ], [ 23.862567720173086, 51.107956791245648 ], [ 23.85694663002468, 51.11050206149271 ], [ 23.862297589902898, 51.112842860982454 ], [ 23.855315040404992, 51.114310581532827 ], [ 23.857289019922689, 51.118171361189688 ], [ 23.85206585999121, 51.118228781098431 ], [ 23.849612260342798, 51.123973751055658 ], [ 23.854212619960784, 51.130788421416042 ], [ 23.855285850204471, 51.127905961160053 ], [ 23.860290420013907, 51.131198211000303 ], [ 23.861646260411394, 51.127558121376872 ], [ 23.869836460028385, 51.129893171509707 ], [ 23.867882720652716, 51.142031331050532 ], [ 23.871385230189816, 51.145079311538844 ], [ 23.86542602013591, 51.147556911397459 ], [ 23.869125429943981, 51.150462161373923 ], [ 23.862395849837952, 51.15158907124848 ], [ 23.860522020616006, 51.157844801264083 ], [ 23.849948420630703, 51.155213111556876 ], [ 23.851045870509736, 51.159986511529759 ], [ 23.841981810455302, 51.160679751228322 ], [ 23.84299811990682, 51.164298971183847 ], [ 23.838157370602087, 51.159442711269946 ], [ 23.835639550357659, 51.163647741510594 ], [ 23.828582400298732, 51.15999207113213 ], [ 23.827022450660589, 51.162971641086301 ], [ 23.824229940591962, 51.161748251033011 ], [ 23.821543730386779, 51.166396441098193 ], [ 23.826537770031297, 51.16697891130552 ], [ 23.814226380375349, 51.170709461020408 ], [ 23.81420207979043, 51.178996150700407 ], [ 23.808375480177013, 51.184986861299762 ], [ 23.785079459879771, 51.189560331185433 ], [ 23.780458670349763, 51.196543370815846 ], [ 23.78288094032445, 51.198933471139945 ], [ 23.768558920176112, 51.199956960775786 ], [ 23.763123670432631, 51.205563861412003 ], [ 23.760498390201104, 51.202854621371507 ], [ 23.756600540500518, 51.212340351056312 ], [ 23.74600655017424, 51.211469341462717 ], [ 23.7422802803192, 51.214888991057897 ], [ 23.739193209902883, 51.211964680849292 ], [ 23.735944249833427, 51.219648801374554 ], [ 23.742748829802522, 51.220832021407823 ], [ 23.742974869904007, 51.224428770896616 ], [ 23.738864309854712, 51.23160011147359 ], [ 23.726518950097347, 51.236467111087393 ], [ 23.731286020648412, 51.238662530669593 ], [ 23.726026930102758, 51.241723590890409 ], [ 23.729713500287911, 51.241647930925303 ], [ 23.729892129928672, 51.244941281529911 ], [ 23.724154359941032, 51.246525290728478 ], [ 23.723384899996631, 51.26049992074784 ], [ 23.726632390577471, 51.261346151318598 ], [ 23.717406750227131, 51.264202230861116 ], [ 23.720491090296825, 51.269458430974552 ], [ 23.716508810436189, 51.271467290698745 ], [ 23.71376318022573, 51.26928721084942 ], [ 23.710536120453728, 51.275628341384873 ], [ 23.705512410375832, 51.274756811091876 ], [ 23.709313439971268, 51.277497581362262 ], [ 23.697295880398681, 51.283201340778405 ], [ 23.695013929839799, 51.291636521113332 ], [ 23.694953900101339, 51.288449971297347 ], [ 23.688465820336329, 51.286356390941322 ], [ 23.685331889845465, 51.291012861060089 ], [ 23.677380190439234, 51.290393801030888 ], [ 23.677836920127248, 51.292466071054562 ], [ 23.670690579798521, 51.28997336078119 ], [ 23.662460420596872, 51.292247021380547 ], [ 23.656754480325269, 51.28701626128958 ], [ 23.653126910162189, 51.289056901247292 ], [ 23.648411410352928, 51.287422991372452 ], [ 23.645959530198578, 51.291816611238531 ], [ 23.650174739860518, 51.294035231534259 ], [ 23.647032460068605, 51.298496211519414 ], [ 23.65234006993272, 51.29958494068282 ], [ 23.640966950144918, 51.306753281129851 ], [ 23.639624309993987, 51.310817741032245 ], [ 23.643420070463645, 51.310507551375245 ], [ 23.643871580497038, 51.313377901359509 ], [ 23.635590749894508, 51.319667660818311 ], [ 23.642183550320858, 51.326388761219945 ], [ 23.635773010095132, 51.328515781064503 ], [ 23.64748711053161, 51.339787300832938 ], [ 23.656530659747801, 51.339409831092318 ], [ 23.657586300156566, 51.342211141026134 ], [ 23.649807089808053, 51.343965830748282 ], [ 23.655868479933421, 51.344833530837128 ], [ 23.656693190628815, 51.359089681035705 ], [ 23.663177129908483, 51.358075471504783 ], [ 23.661987230612063, 51.362575211375201 ], [ 23.669204790059513, 51.360887710899597 ], [ 23.665318240339165, 51.366823660881373 ], [ 23.686577709882535, 51.368617430651788 ], [ 23.682706159958684, 51.372426010955216 ], [ 23.684368810371843, 51.378110951159911 ], [ 23.67795325013968, 51.377028291521164 ], [ 23.678620640616305, 51.383827451277291 ], [ 23.684367720383314, 51.383657901192358 ], [ 23.689160400024637, 51.388203790671874 ], [ 23.676898620568522, 51.394051961423877 ], [ 23.686674740433382, 51.393828161540327 ], [ 23.6824717597537, 51.398521161222355 ], [ 23.702747110180095, 51.403549571162181 ], [ 23.696329469819478, 51.40788523152078 ], [ 23.702162740618661, 51.411604921041032 ], [ 23.692781710004933, 51.414523431513622 ], [ 23.702931759888806, 51.419544321318874 ], [ 23.68872923985283, 51.41911456138758 ], [ 23.684530850210155, 51.426486610871322 ], [ 23.676988399883857, 51.429671890845626 ], [ 23.678509659785234, 51.433439391014971 ], [ 23.685742110208231, 51.43380499150765 ], [ 23.681251869862095, 51.437381170806496 ], [ 23.684635909914956, 51.445228950857938 ], [ 23.675911090316468, 51.441211911301501 ], [ 23.667748839830175, 51.445441370714093 ], [ 23.649433860366649, 51.446261221466493 ], [ 23.650852580459095, 51.453740840659002 ], [ 23.646709040471634, 51.459103990843374 ], [ 23.654395070263014, 51.459682321476464 ], [ 23.667819979793038, 51.471298471346614 ], [ 23.676308130209257, 51.471006251038474 ], [ 23.669814790300759, 51.483028501457277 ], [ 23.659464030620633, 51.490549831202799 ], [ 23.651773440369585, 51.485967011060424 ], [ 23.638236540063247, 51.485588141070281 ], [ 23.636090799922741, 51.490283501466635 ], [ 23.620130140372776, 51.496366720824028 ], [ 23.624728020557026, 51.50063074119798 ], [ 23.616471190166578, 51.503090540771709 ], [ 23.617347209875362, 51.510239990961125 ], [ 23.624871939961434, 51.51390397107005 ], [ 23.614432270607121, 51.522617070699454 ], [ 23.612752040250406, 51.528815091222228 ], [ 23.602466160357181, 51.528976011412368 ], [ 23.594238070500939, 51.535239031332665 ], [ 23.58535411047837, 51.528876960971687 ], [ 23.5651330404276, 51.534409011034306 ], [ 23.56516212000162, 51.550005981151678 ], [ 23.577895060568377, 51.557109030824179 ], [ 23.568224139790079, 51.561645010679037 ], [ 23.568851130037775, 51.56761299090882 ], [ 23.564206209906839, 51.569575970818363 ], [ 23.567102040393682, 51.579151001379877 ], [ 23.553246119975928, 51.5836149509283 ], [ 23.54897298047679, 51.597737001420867 ], [ 23.54028497013206, 51.601921981273655 ], [ 23.544015160130666, 51.605011040982127 ], [ 23.54030411040436, 51.612191051033697 ], [ 23.546458129792253, 51.620907961089124 ], [ 23.539328149932309, 51.633765951495683 ], [ 23.547647930167269, 51.636890040702731 ], [ 23.548704049906636, 51.64100597151235 ], [ 23.542193170527387, 51.645388000909641 ], [ 23.53744216007788, 51.644641031219727 ], [ 23.543684060332247, 51.651648110627882 ], [ 23.539312009800504, 51.656813000772402 ], [ 23.546598100283191, 51.663098981287774 ], [ 23.558229050296102, 51.66527603132554 ], [ 23.552242190588178, 51.674660951498097 ], [ 23.55595618019807, 51.681338030981749 ], [ 23.548858990511281, 51.684733040952629 ], [ 23.560412079911007, 51.698949960933163 ], [ 23.548473170559891, 51.704166961392751 ], [ 23.555541179936643, 51.707135950827592 ], [ 23.547272070204631, 51.710101981479376 ], [ 23.552950939995604, 51.716185970667411 ], [ 23.548253139729503, 51.719082000788561 ], [ 23.546939080030231, 51.727151980837149 ], [ 23.537256180284732, 51.722546001352043 ], [ 23.534596019847481, 51.728094911001655 ], [ 23.527016100167195, 51.72975504061241 ], [ 23.532325040120266, 51.73707992065183 ], [ 23.530877150518865, 51.743609970878374 ], [ 23.545979069929114, 51.748439931010957 ], [ 23.558965130093508, 51.76156601112362 ], [ 23.565611000409227, 51.757433941089154 ], [ 23.587215020012586, 51.759463011271912 ], [ 23.597049090407456, 51.772151001036278 ], [ 23.614963189865389, 51.772663970741725 ], [ 23.615339020142681, 51.777145940905385 ], [ 23.62279412022739, 51.777862920914053 ], [ 23.626637100496652, 51.782724991346107 ], [ 23.630509119874407, 51.779768971041854 ], [ 23.628516189836532, 51.790830951461508 ], [ 23.635864120396619, 51.791213021247614 ], [ 23.634385109758934, 51.795369980918409 ], [ 23.641383050255069, 51.80035205148846 ], [ 23.628466069726812, 51.818977061423681 ], [ 23.62152408053214, 51.820886981326311 ], [ 23.622134070004819, 51.830098070646962 ], [ 23.602884100479855, 51.830345020876742 ], [ 23.602090179878275, 51.834223061212988 ], [ 23.609323040396841, 51.838700050941824 ], [ 23.600148100215755, 51.840479920781704 ], [ 23.612030130151403, 51.845352021349463 ], [ 23.617491069921616, 51.856108981416995 ], [ 23.610333010527295, 51.860689040639485 ], [ 23.607078149995811, 51.876321011473294 ], [ 23.617973219850022, 51.878240030723767 ], [ 23.630341090538472, 51.873435021390193 ], [ 23.630669049909073, 51.877963991022163 ], [ 23.622278150381391, 51.884858960944264 ], [ 23.637970150067449, 51.892994941346352 ], [ 23.631764149861603, 51.899723980955116 ], [ 23.618356179956542, 51.903484011347167 ], [ 23.620370199986052, 51.910973961050459 ], [ 23.612044059750488, 51.917381040677135 ], [ 23.617751269861916, 51.924537981313513 ], [ 23.630233119735472, 51.92201000143907 ], [ 23.632247129868148, 51.931318031375994 ], [ 23.645640150335922, 51.933759051317828 ], [ 23.640355060409565, 51.94966299063546 ], [ 23.628148070347237, 51.947558060826623 ], [ 23.62757117053501, 51.951146111179355 ], [ 23.641546119831411, 51.954142991285046 ], [ 23.651370110604379, 51.963602960793018 ], [ 23.669259170248875, 51.964727020722428 ], [ 23.665040110579849, 51.978430091462521 ], [ 23.685667149888666, 51.986249990739111 ], [ 23.689023169754641, 51.99191007098004 ], [ 23.683866010186915, 52.000652010970164 ], [ 23.657347139827507, 52.0187280207616 ], [ 23.66308615986458, 52.024181990787113 ], [ 23.662731250522626, 52.039946000990476 ], [ 23.653808030588632, 52.054836011348655 ], [ 23.642334159762445, 52.059665971480442 ], [ 23.655470140501105, 52.059628970679881 ], [ 23.644188050104184, 52.065075980847595 ], [ 23.652942190294194, 52.073757061018547 ], [ 23.642884190512635, 52.077195930926813 ], [ 23.64017698024492, 52.085796110772833 ], [ 23.62246605023309, 52.09019596114863 ], [ 23.61156206000512, 52.098222020997369 ], [ 23.610836100260016, 52.102672980741509 ], [ 23.619462230052978, 52.105089951013753 ], [ 23.618488140175458, 52.108624000663788 ], [ 23.609314190155416, 52.108808960634569 ], [ 23.598563119751383, 52.117390030788442 ], [ 23.580247130349385, 52.119874060799418 ], [ 23.568086110040813, 52.115603121042632 ], [ 23.55720515054762, 52.118732000936497 ], [ 23.556677260198541, 52.111042091476421 ], [ 23.550160230355431, 52.10944703140985 ], [ 23.542179230132902, 52.127994930768978 ], [ 23.533113080042202, 52.132626991490795 ], [ 23.521240189926644, 52.132920040975613 ], [ 23.518705230403658, 52.138496970801761 ], [ 23.514271100572568, 52.137195051055066 ], [ 23.510881009895101, 52.149626061332796 ], [ 23.50080000994663, 52.146964031203964 ], [ 23.48816308009361, 52.151576040641281 ], [ 23.485968210003364, 52.164701051444439 ], [ 23.495592150192543, 52.170107911389593 ], [ 23.492583079785831, 52.175086070806245 ], [ 23.497862110082551, 52.171742061389288 ], [ 23.507355930076713, 52.173883000942475 ], [ 23.501153140439431, 52.178947941330698 ], [ 23.485609040552006, 52.181284910602898 ], [ 23.467121090002319, 52.174238061368037 ], [ 23.458154070389185, 52.184596011125791 ], [ 23.445332929703962, 52.183134060619004 ], [ 23.431981189903389, 52.17341700101484 ], [ 23.424870149765276, 52.172532031251528 ], [ 23.416010129691205, 52.182358021228637 ], [ 23.40417604980744, 52.177600070705054 ], [ 23.398824999997146, 52.178793031293317 ], [ 23.397277250571449, 52.187642980759286 ], [ 23.401711060238163, 52.192955991042531 ], [ 23.393663039840504, 52.195946970694756 ], [ 23.395757069850017, 52.200831031345501 ], [ 23.376779149761223, 52.194908991174813 ], [ 23.371233160200454, 52.196500980951875 ], [ 23.370450189739323, 52.204836930992769 ], [ 23.365953080385541, 52.20801506135475 ], [ 23.353073230152564, 52.204364020689553 ], [ 23.352548980269308, 52.210671001271997 ], [ 23.337738960091286, 52.206180981275295 ], [ 23.326379009993087, 52.210705090976028 ], [ 23.309280100103543, 52.208825031253419 ], [ 23.298453990269699, 52.212679980594444 ], [ 23.307263169873071, 52.21744105086777 ], [ 23.305444999697915, 52.221455941036375 ], [ 23.267508060554455, 52.214863071366267 ], [ 23.203666159753226, 52.226554061009566 ], [ 23.19411011028091, 52.239540021339572 ], [ 23.205621110521626, 52.257219030822363 ], [ 23.199725139891939, 52.267835050934764 ], [ 23.204430999888078, 52.275663000927608 ], [ 23.178338110507305, 52.283140990545519 ], [ 23.2413337699377, 52.357387361226593 ], [ 23.278017439953249, 52.392788940655272 ], [ 23.299910550238049, 52.403796150573832 ], [ 23.310275350135313, 52.413967301253173 ], [ 23.312248649754249, 52.425022270559772 ], [ 23.356696430503341, 52.468950370869528 ], [ 23.408153889699804, 52.51151587057204 ], [ 23.457882709847716, 52.540363831249024 ], [ 23.466625930469004, 52.54944432102652 ], [ 23.540169600586314, 52.580238881358547 ], [ 23.641418380106401, 52.607454591417557 ], [ 23.718656869885766, 52.614648990645058 ], [ 23.734218140514226, 52.606522101502279 ], [ 23.739172190008762, 52.611986961424364 ], [ 23.756176170169343, 52.614522950674079 ], [ 23.775677199816837, 52.622523001240765 ], [ 23.87941385036812, 52.679706511385675 ], [ 23.892554010253111, 52.679712850709507 ], [ 23.900085899846932, 52.691180090836532 ], [ 23.938622409798981, 52.712915271182062 ], [ 23.939551140570572, 52.813192390774311 ], [ 23.924594110025982, 52.830665501363541 ], [ 23.925761800560021, 52.898838461575252 ], [ 23.916253080602083, 52.904742850752406 ], [ 23.916456400225929, 52.938848281370745 ], [ 23.946262680273243, 52.958732450998383 ], [ 23.931103170068326, 52.976226370998681 ], [ 23.933341669874878, 52.988426360740661 ], [ 23.925385669907367, 53.024624321300408 ], [ 23.9099981006202, 53.032826080800909 ], [ 23.916431090609205, 53.03998599099986 ], [ 23.89969008032077, 53.048072011354151 ], [ 23.902599160504529, 53.058156051001419 ], [ 23.895945250258755, 53.062366050890034 ], [ 23.886171029751324, 53.062182041495134 ], [ 23.88161411997342, 53.073959971303672 ], [ 23.877172229894345, 53.075393031090918 ], [ 23.878475160482086, 53.079441041494363 ], [ 23.874120189872965, 53.078984951223653 ], [ 23.871878180008199, 53.084091060778569 ], [ 23.882800209734462, 53.093529040964846 ], [ 23.882198289891068, 53.101239041275022 ], [ 23.888773100283952, 53.105020990858662 ], [ 23.885395220585053, 53.114362971105329 ], [ 23.893596339782853, 53.124755031252469 ], [ 23.897931150282194, 53.124977010910648 ], [ 23.893867069893354, 53.126380991119262 ], [ 23.896813200355236, 53.130671950678284 ], [ 23.905942310173074, 53.138176080900443 ], [ 23.912206080135778, 53.137840011445967 ], [ 23.915788200348519, 53.142970011497262 ], [ 23.90971818033174, 53.149921961568872 ], [ 23.918259260337489, 53.15762210082115 ], [ 23.913869150529987, 53.157342951256254 ], [ 23.914811159788158, 53.16293804109268 ], [ 23.91025514034385, 53.163886071319432 ], [ 23.914113150080112, 53.166477051409082 ], [ 23.909791250251928, 53.166910950914961 ], [ 23.904382230132796, 53.17489103112888 ], [ 23.894759000409966, 53.176685031121565 ], [ 23.878860230392199, 53.189660990985558 ], [ 23.863874110371516, 53.195534930908934 ], [ 23.863977200556072, 53.203528031516413 ], [ 23.857221219951612, 53.210358011029093 ], [ 23.861971140421186, 53.213668020682938 ], [ 23.86144812979412, 53.220939051118101 ], [ 23.855335759807492, 53.231840750768121 ], [ 23.818743719900688, 53.24404011096091 ], [ 23.79898318998135, 53.274202281501502 ], [ 23.737088000361169, 53.391574771229962 ], [ 23.6596588003477, 53.521366031463849 ], [ 23.586028600153973, 53.703085360731073 ], [ 23.582104459668702, 53.743816570808725 ], [ 23.549035010267371, 53.767773280726999 ], [ 23.546249600342659, 53.825805471162091 ], [ 23.553999080006932, 53.831390050630503 ], [ 23.547888079673097, 53.83468600117655 ], [ 23.552353180367064, 53.84078807122625 ], [ 23.545143009741441, 53.845041030834089 ], [ 23.552007130225771, 53.851017021336816 ], [ 23.547548070287419, 53.856503981186371 ], [ 23.535111090306817, 53.85725201118494 ], [ 23.524064160036211, 53.862588041418618 ], [ 23.526431090222484, 53.868912991357405 ], [ 23.511560620329497, 53.916207501385706 ], [ 23.516515759791684, 53.95753380095217 ], [ 23.507493189950793, 53.966055820721742 ], [ 23.496990749716215, 53.968188610623152 ], [ 23.498250199880779, 53.971779311270247 ], [ 23.489227850381159, 53.974623660958365 ], [ 23.48069826011421, 53.998013310563159 ], [ 23.493260590297258, 54.007109830755951 ], [ 23.503640819859857, 54.006553321283576 ], [ 23.500834720143267, 54.007705140585436 ], [ 23.508975160273391, 54.01179704061024 ], [ 23.516199030260491, 54.028582541262431 ], [ 23.524878350458771, 54.031080000849954 ], [ 23.528601300006031, 54.065780071300615 ], [ 23.518390109720965, 54.078679900860259 ], [ 23.518323309876905, 54.08979746119352 ], [ 23.506962029670106, 54.099496360773308 ], [ 23.502022760544993, 54.112935311421808 ], [ 23.496466499817316, 54.11302662138408 ], [ 23.49261636004584, 54.117007100800265 ], [ 23.495335300177835, 54.132571231280373 ], [ 23.485846959757925, 54.153226700846979 ], [ 23.473315610318853, 54.158083710790052 ], [ 23.475521280369435, 54.163416400941742 ], [ 23.461223630053723, 54.167769080969109 ], [ 23.458995010205246, 54.175535450789575 ], [ 23.424477879834473, 54.177529111070847 ], [ 23.419159649880015, 54.191122761295524 ], [ 23.406382580482401, 54.196342751105043 ], [ 23.394212809754407, 54.216853901065633 ], [ 23.38555695018097, 54.219627891390459 ], [ 23.386787130109703, 54.22483932055389 ], [ 23.381284389840097, 54.228935290912212 ], [ 23.361724250449932, 54.231015590975709 ], [ 23.348411450411838, 54.245680151193689 ], [ 23.337518930133552, 54.251723610630627 ], [ 23.296615759782558, 54.255528270780673 ], [ 23.281796589918596, 54.260673621357299 ], [ 23.248879460491327, 54.256819831233841 ], [ 23.233887420238236, 54.26091123122999 ], [ 23.202421329844665, 54.288625821280071 ], [ 23.176425739916333, 54.290862850688043 ], [ 23.169621849735542, 54.294951611179073 ], [ 23.154200220428098, 54.297024160881229 ], [ 23.15975632016314, 54.309604100696077 ], [ 23.148796460453653, 54.314356920583606 ], [ 23.140399039946445, 54.315949841159537 ], [ 23.092169600106775, 54.298453690831252 ], [ 23.050973509775741, 54.312434450627769 ], [ 23.042121679820074, 54.315974371058374 ], [ 23.046361360047197, 54.327222530929063 ], [ 23.063164769794575, 54.340958441318705 ], [ 23.047700109725717, 54.349187590575397 ], [ 23.009383160255513, 54.355719670560546 ], [ 22.993913550316254, 54.361898460877043 ], [ 23.010215120383673, 54.382795641239404 ], [ 22.984778020235566, 54.384542431317143 ], [ 22.983846280336046, 54.389574140870295 ], [ 22.887499000226875, 54.399943190946125 ], [ 22.887996030330282, 54.409087960665026 ], [ 22.883408770237615, 54.409526980909092 ], [ 22.854689839812036, 54.410402781183286 ], [ 22.849233910163761, 54.407233911138242 ], [ 22.836302320143417, 54.406480900696984 ], [ 22.811426289937781, 54.370977780620919 ], [ 22.792002280018036, 54.363323080519606 ], [ 22.680601960450886, 54.360241300805797 ], [ 22.650006080154387, 54.354166410962975 ], [ 22.616547569645025, 54.355682131039941 ], [ 22.528080609757428, 54.349189490809444 ], [ 22.446912790423102, 54.34868232083506 ], [ 22.434461709966708, 54.346268481113327 ], [ 22.421786659655588, 54.348456210588381 ], [ 22.382514249753992, 54.3446834610805 ], [ 22.329250510319969, 54.344539761107306 ], [ 22.31877854991528, 54.340517221296629 ], [ 22.231974600160477, 54.340279141071449 ], [ 22.225705009788555, 54.343771490958915 ], [ 22.179475190043579, 54.337201840889364 ], [ 21.797109350228656, 54.331794390991575 ], [ 21.577417750135098, 54.325547341233701 ], [ 21.570191180383382, 54.322015081229196 ], [ 21.528753569932963, 54.325421811162869 ], [ 21.446112470423042, 54.318215341259865 ], [ 21.433682690413196, 54.326898611272426 ], [ 21.414298540251345, 54.326216570835157 ], [ 21.379467040181694, 54.331052100467595 ], [ 21.323869409845457, 54.329357051082944 ], [ 21.302855590120249, 54.333537030701486 ], [ 21.274392630113049, 54.328386370528229 ], [ 21.196732219821463, 54.337783961254971 ], [ 21.164115499933494, 54.337295471107275 ], [ 21.1432343499898, 54.342551450881565 ], [ 21.098790959730668, 54.346744691010393 ], [ 21.03808051989698, 54.348591960546528 ], [ 21.006689850261225, 54.353624141333064 ], [ 20.958159919941956, 54.354642950905728 ], [ 20.951340359971073, 54.35712887129403 ], [ 20.818435320335386, 54.360011510518994 ], [ 20.692855970121713, 54.372107971198545 ], [ 20.648110529984663, 54.371183531091773 ], [ 20.631070290060201, 54.366311051009482 ], [ 20.616890409561798, 54.372553740852744 ], [ 20.583958519573734, 54.378021841029984 ], [ 20.51514073016769, 54.380605701180968 ], [ 20.361067229670411, 54.395858160822421 ], [ 20.332020999970986, 54.401148770790876 ], [ 19.646937000347165, 54.4533933004519 ], [ 19.404172222977483, 54.603900001576889 ], [ 19.084044443798099, 54.758702778498296 ], [ 19.037955555899327, 54.789411112718753 ], [ 18.941355557312704, 54.841130557913274 ], [ 18.846633333261767, 54.879697223937157 ], [ 18.657905556692253, 54.94413611268093 ], [ 18.500711111923895, 55.009383334561107 ], [ 18.412566666918551, 55.029136113231651 ], [ 18.317075000005875, 55.035825001710741 ], [ 17.951911110816578, 55.031733334612369 ], [ 17.854508333293815, 55.024016667620188 ], [ 17.659341667182748, 54.995413890922585 ], [ 17.543947220985288, 54.971902779775512 ], [ 17.408097221811779, 54.954791668787387 ], [ 17.277552779340198, 54.944936112701228 ], [ 17.12565000124156, 54.919055557753452 ], [ 16.858477779116615, 54.837219445910755 ], [ 16.807577779084863, 54.814263890955196 ], [ 16.763130555920824, 54.785116669183658 ], [ 16.69408611128722, 54.769852780071609 ], [ 16.627838889154496, 54.766611112603385 ], [ 16.494252777644661, 54.748197223916172 ], [ 16.391025000390353, 54.726119445947916 ], [ 16.327525001172951, 54.705194445956181 ], [ 16.23760555613887, 54.658861111543068 ], [ 16.175519444061372, 54.620752779606839 ], [ 16.088113889239228, 54.554019446035895 ], [ 16.047933334042803, 54.51121944631695 ], [ 15.976397222336233, 54.465466669249864 ], [ 15.943227779129106, 54.452730556771151 ], [ 15.758169444248427, 54.434050002008036 ], [ 15.585824998704544, 54.394538890461909 ], [ 15.472225001262418, 54.38528055796256 ], [ 15.424741666866822, 54.3766833359795 ], [ 15.376844442878266, 54.363097223872877 ], [ 15.175636109673359, 54.337672224116453 ], [ 15.109652779214944, 54.319841668988403 ], [ 14.920974998640956, 54.278130557621374 ], [ 14.825672221734848, 54.253527780135435 ], [ 14.600102778632715, 54.209858334776392 ], [ 14.529761110488764, 54.187438890888103 ], [ 14.278908332435446, 54.125363890878283 ], [ 14.237458332002277, 54.125777778686057 ], [ 14.199122221588455, 54.250591668242805 ], [ 14.165311111185488, 54.263955556983326 ], [ 14.156422221982819, 54.301730557902239 ], [ 14.105933332616209, 54.317852779775855 ], [ 14.112530555006565, 54.440508335078796 ], [ 14.078291666789356, 54.44113055712797 ], [ 14.069638890072445, 54.27764166834136 ], [ 14.168019444710556, 54.238800002195845 ], [ 14.242208334318534, 53.987727778781291 ], [ 14.226097939438285, 53.927731531053418 ], [ 14.20765986976917, 53.915867001034563 ], [ 14.191106639717136, 53.915765731081926 ], [ 14.185332489467756, 53.911961891112853 ], [ 14.205772419427348, 53.910551441172913 ], [ 14.203921530111174, 53.906621760859679 ], [ 14.212262990312171, 53.900265051364435 ], [ 14.215419689831791, 53.880797941446858 ], [ 14.212368739785772, 53.867417330716933 ], [ 14.283671279582981, 53.772355180903041 ], [ 14.26695455997903, 53.753496530707991 ], [ 14.273895149805194, 53.743821690681713 ], [ 14.268347650296572, 53.708441281308694 ], [ 14.271927339636099, 53.705843501441635 ], [ 14.267734519499568, 53.704624741099991 ], [ 14.266813319641157, 53.69869579143937 ], [ 14.272051379539439, 53.689549750985087 ], [ 14.283718039830811, 53.6825424908074 ], [ 14.281125180156488, 53.67292437102244 ], [ 14.270645869574826, 53.666643161414562 ], [ 14.284487609490782, 53.658992991191631 ], [ 14.283863460196331, 53.634425241396471 ], [ 14.311096149439841, 53.618446311207478 ], [ 14.316934499604715, 53.618055641204215 ], [ 14.313885170130341, 53.565354081484053 ], [ 14.30260050946829, 53.553394911304409 ], [ 14.307245399922616, 53.551386731469009 ], [ 14.305797749527038, 53.543913360767753 ], [ 14.315860209954314, 53.536931690800081 ], [ 14.319279689569495, 53.529601950819732 ], [ 14.31579107007685, 53.525142251466512 ], [ 14.326942710214206, 53.503814250884339 ], [ 14.350679159984567, 53.49599778071827 ], [ 14.358057180068203, 53.457318830748996 ], [ 14.371281619924192, 53.456434730623677 ], [ 14.368690499533791, 53.432612121293012 ], [ 14.37334593003866, 53.408948550780067 ], [ 14.394854869733692, 53.375719480707254 ], [ 14.390316430236423, 53.353738970721523 ], [ 14.405503809528827, 53.347071150649889 ], [ 14.415447420040392, 53.324369780976475 ], [ 14.406802630213232, 53.308715351371049 ], [ 14.414916509764721, 53.301932330846483 ], [ 14.421210610262385, 53.276131010675805 ], [ 14.445093439991425, 53.274336951323569 ], [ 14.450466339726288, 53.262507020911634 ], [ 14.435653059520606, 53.249244030724739 ], [ 14.430596659987764, 53.238916581472964 ], [ 14.409167849887002, 53.223874780831586 ], [ 14.406586800112851, 53.211271420877203 ], [ 14.400402849481379, 53.20709570134845 ], [ 14.377003089688026, 53.201403911006402 ], [ 14.36652469012952, 53.172370221461051 ], [ 14.371176009836962, 53.156491461361632 ], [ 14.387246279668332, 53.142392161019963 ], [ 14.378687219509011, 53.111352081283833 ], [ 14.370750789682372, 53.105699931254215 ], [ 14.365841399618718, 53.078793871291531 ], [ 14.344581920183881, 53.05101857071022 ], [ 14.314003359918626, 53.036609801068614 ], [ 14.288639040108857, 53.018504540825205 ], [ 14.240334880094737, 52.994904221440059 ], [ 14.201600100201498, 52.985377640971457 ], [ 14.170529090070604, 52.974614531349872 ], [ 14.16148625940518, 52.965131720864335 ], [ 14.144374320134451, 52.961832731516694 ], [ 14.139506430192728, 52.951266281133819 ], [ 14.142136869842339, 52.93578435138766 ], [ 14.152640629379579, 52.900148761177959 ], [ 14.161049049501349, 52.888644730688085 ], [ 14.157378650030422, 52.873956620824131 ], [ 14.124153410165794, 52.845925031448566 ], [ 14.12365822995023, 52.83501200123645 ], [ 14.13156548936554, 52.827494201327902 ], [ 14.145583469424304, 52.823757461566245 ], [ 14.215856919496009, 52.817318270727135 ], [ 14.246635460192156, 52.793604830991072 ], [ 14.281038929751904, 52.773470791028167 ], [ 14.350011939445885, 52.751923171478374 ], [ 14.360165559642649, 52.741191790833653 ], [ 14.373536499963445, 52.736453780977314 ], [ 14.385209540048505, 52.724173851394475 ], [ 14.403795329658864, 52.712352570663249 ], [ 14.414473049560767, 52.700174321138327 ], [ 14.425218879604612, 52.695157771460373 ], [ 14.433520259713363, 52.681146651445907 ], [ 14.448080780073132, 52.678967191224615 ], [ 14.457800009734296, 52.674002010824481 ], [ 14.462251709617735, 52.662976271278851 ], [ 14.511835489784815, 52.640608121094708 ], [ 14.567750560124491, 52.623558860967016 ], [ 14.597014610116753, 52.610457921405839 ], [ 14.608303959855604, 52.599731611133834 ], [ 14.614394370198795, 52.585773141025662 ], [ 14.639044360302119, 52.57318870100702 ], [ 14.638261600279332, 52.56729611093305 ], [ 14.61588669979847, 52.554643251393991 ], [ 14.603720219694074, 52.531349911079374 ], [ 14.612693489597035, 52.510287721315613 ], [ 14.629953749561647, 52.503478520622735 ], [ 14.635166460259729, 52.493125010819305 ], [ 14.624792249853224, 52.482322270769693 ], [ 14.611711929946644, 52.475251341285606 ], [ 14.609269720202708, 52.464076531014719 ], [ 14.580160649470589, 52.442074600981073 ], [ 14.560229760076137, 52.439322510946198 ], [ 14.548966509572994, 52.433338390577767 ], [ 14.543845289601309, 52.424809621391447 ], [ 14.546239159878768, 52.412163281037884 ], [ 14.534066769440239, 52.395405401269329 ], [ 14.552602469498286, 52.373531591332664 ], [ 14.552417099447839, 52.351625141408597 ], [ 14.563070159938421, 52.338417610605703 ], [ 14.561271979896679, 52.328494850881 ], [ 14.576423079638166, 52.321254600639961 ], [ 14.58514094027556, 52.305480821105654 ], [ 14.574513989805936, 52.295453920780695 ], [ 14.576852700167452, 52.287431910578647 ], [ 14.587047869945149, 52.283936241284927 ], [ 14.59600763022541, 52.272833340805768 ], [ 14.616466990037724, 52.271481111175262 ], [ 14.6454644701916, 52.262663140702301 ], [ 14.691659610292049, 52.256081811123856 ], [ 14.715763599504996, 52.235937690669978 ], [ 14.705998300277519, 52.20856369095965 ], [ 14.685284720108209, 52.195490791368847 ], [ 14.687000439513056, 52.190022851280666 ], [ 14.702602460227418, 52.179297500581626 ], [ 14.705434289554988, 52.169994531119848 ], [ 14.67920760983335, 52.144156631028139 ], [ 14.684274220268826, 52.12549041056166 ], [ 14.681961690070127, 52.114634940557629 ], [ 14.701174360202954, 52.097723801016819 ], [ 14.722287029820013, 52.094466871145748 ], [ 14.73644022024075, 52.088186861235741 ], [ 14.759194399894175, 52.065678661433928 ], [ 14.756998560336513, 52.060336890828651 ], [ 14.745317219515103, 52.053893260963889 ], [ 14.749941840142492, 52.042123961046386 ], [ 14.748363160326166, 52.031943941251008 ], [ 14.740336550091246, 52.029040010583984 ], [ 14.741105029767114, 52.023059301342322 ], [ 14.726659159485946, 52.013856221382923 ], [ 14.725402990056546, 52.008364921405438 ], [ 14.714061610042805, 52.003744160665185 ], [ 14.721629489609134, 51.994253340817004 ], [ 14.716370370282975, 51.982562040907801 ], [ 14.704844700308822, 51.976092461096812 ], [ 14.707912570193386, 51.964670731175481 ], [ 14.721412219685128, 51.951479380968266 ], [ 14.718822829601521, 51.941256640682006 ], [ 14.703398950192412, 51.93132931060061 ], [ 14.705417939880848, 51.923088531310889 ], [ 14.691103580153898, 51.907641660736964 ], [ 14.694216870302117, 51.901912541339506 ], [ 14.674043569543416, 51.894216151361952 ], [ 14.674451299672551, 51.889569371441347 ], [ 14.662699069794279, 51.890247500734247 ], [ 14.643117180298084, 51.866711080870402 ], [ 14.634788860093963, 51.865510790806134 ], [ 14.624894189795791, 51.858306801237482 ], [ 14.611208119828728, 51.857147070602032 ], [ 14.607117409618933, 51.852459100832284 ], [ 14.6122961394307, 51.845327241382826 ], [ 14.604669650159924, 51.84807018081527 ], [ 14.605012639895463, 51.840102560706448 ], [ 14.596225799454691, 51.842247810711534 ], [ 14.590241369717019, 51.838404200917608 ], [ 14.593231159557892, 51.830278560931411 ], [ 14.590051350154091, 51.820988630746911 ], [ 14.596983820025779, 51.817573540707194 ], [ 14.607384340094505, 51.803673341279151 ], [ 14.623117339872937, 51.800304820831755 ], [ 14.633326669462305, 51.801302791309517 ], [ 14.636485059720581, 51.797442471215113 ], [ 14.645112749826678, 51.795948960788913 ], [ 14.653834439787692, 51.78382156072832 ], [ 14.654771889494716, 51.767714091346917 ], [ 14.650470659678776, 51.761797991195486 ], [ 14.664147019647844, 51.756922960643585 ], [ 14.657305769824148, 51.75318609137797 ], [ 14.66002545998707, 51.748329480733084 ], [ 14.656233160110459, 51.741178420766119 ], [ 14.668214459904142, 51.725912901170325 ], [ 14.677668590107851, 51.722791700591586 ], [ 14.690844560105921, 51.708279940574769 ], [ 14.727900750004842, 51.688935481092066 ], [ 14.736730669767745, 51.688329930683189 ], [ 14.737236120235623, 51.679067600687596 ], [ 14.747200009558433, 51.675792551283536 ], [ 14.757664559562301, 51.661438121369109 ], [ 14.750999129892852, 51.652594191068999 ], [ 14.755980050231216, 51.64536411126705 ], [ 14.753345960238846, 51.627809710946643 ], [ 14.762945589965632, 51.619746821161606 ], [ 14.76518012015725, 51.607685390870259 ], [ 14.751737190003668, 51.595451761092257 ], [ 14.732795580040214, 51.586214211021051 ], [ 14.727130879976761, 51.575217201219935 ], [ 14.711253909530431, 51.562723481213382 ], [ 14.716688029710982, 51.554957981032203 ], [ 14.729297409734817, 51.549917851134829 ], [ 14.729037279927621, 51.531501940765821 ], [ 14.736104089624225, 51.525784240956327 ], [ 14.752048869848725, 51.521742480831982 ], [ 14.760135439688499, 51.523456460948793 ], [ 14.765281269604815, 51.518965460690282 ], [ 14.796279229593393, 51.517816220636249 ], [ 14.805090619727824, 51.514515061215313 ], [ 14.811707369995531, 51.506106111404101 ], [ 14.818844039918986, 51.507739841417205 ], [ 14.832238879713493, 51.503884860590183 ], [ 14.851667770260104, 51.489528451262863 ], [ 14.864747109898948, 51.49050447109461 ], [ 14.871815210109483, 51.484695291335875 ], [ 14.887153279800623, 51.48802786138431 ], [ 14.89831680988256, 51.482004440637006 ], [ 14.916609450178955, 51.48361994138984 ], [ 14.924759440199788, 51.480411520954299 ], [ 14.92643971013279, 51.473289860720378 ], [ 14.947470469497413, 51.471996801091265 ], [ 14.952442410102321, 51.468535431039626 ], [ 14.956088779685153, 51.458284380997497 ], [ 14.974310799817474, 51.441221801019616 ], [ 14.970441869611617, 51.432292930652828 ], [ 14.963691519655699, 51.434265661010173 ], [ 14.958680800293353, 51.431323600875551 ], [ 14.966155859924827, 51.426754861422523 ], [ 14.967118550002473, 51.417094751397656 ], [ 14.958652620037878, 51.409937220799463 ], [ 14.969210730109639, 51.398285491054729 ], [ 14.958289540339493, 51.395620800734228 ], [ 14.96598345988005, 51.391229690875704 ], [ 14.969117699739511, 51.379239550742803 ], [ 14.983654649757343, 51.374067030742204 ], [ 14.977419040269755, 51.365703440938937 ], [ 14.96543402987003, 51.362309140534151 ], [ 14.965821209590796, 51.359866241012774 ], [ 14.976330230177449, 51.357062620720377 ], [ 14.977705340344967, 51.341648701304514 ], [ 14.986252079789123, 51.329140941074201 ], [ 14.993081079948238, 51.328707991251626 ], [ 14.99395540982877, 51.322417670614442 ], [ 15.009101959906939, 51.316841740824565 ], [ 15.006668550032405, 51.311579270639449 ], [ 15.012602959478787, 51.308584360954463 ], [ 15.012110409787828, 51.301166830957975 ], [ 15.022357689872983, 51.300415431201635 ], [ 15.033477090214037, 51.29398671118782 ], [ 15.034313830232975, 51.277517120789511 ], [ 15.041668119912604, 51.274272600670898 ], [ 15.036888279884966, 51.270526981004657 ], [ 15.038077939965829, 51.258207891350331 ], [ 15.025011709748853, 51.253898260964256 ], [ 15.02324411024599, 51.250383041317093 ], [ 15.029921720335423, 51.25122832129636 ], [ 15.03787875991193, 51.243926350588339 ], [ 15.028410520253944, 51.241529600683826 ], [ 15.028927480244276, 51.237210941098922 ], [ 15.023510520012827, 51.235247541209652 ], [ 15.025850889630746, 51.231828861079912 ], [ 15.016091130223979, 51.227296000981575 ], [ 15.017177809828286, 51.214965781316373 ], [ 15.009818959698439, 51.213520101345139 ], [ 15.01297683013002, 51.208357311115115 ], [ 15.007612799514503, 51.204562960785239 ], [ 15.007740919621916, 51.199516060794181 ], [ 15.014329459958995, 51.195823050563703 ], [ 15.004705259855426, 51.190966340997988 ], [ 15.008911870196792, 51.182190811328958 ], [ 15.001468459515023, 51.17214764137718 ], [ 15.005077509940961, 51.167734160879512 ], [ 14.993142359746907, 51.162448951332657 ], [ 15.000940880334495, 51.150026750805615 ], [ 14.99637716987885, 51.144039410862888 ], [ 14.990245839493221, 51.142438140986094 ], [ 14.995251049609948, 51.137287500592656 ], [ 14.997762359666037, 51.12252217133738 ], [ 14.988859549840045, 51.11647962111671 ], [ 14.980832730056358, 51.116039690753581 ], [ 14.978122949529538, 51.107915021142027 ], [ 14.983896849776345, 51.10236972135894 ], [ 14.980181170338572, 51.095920780997318 ], [ 14.984001139647368, 51.091098630577683 ], [ 14.97635237957711, 51.087099700665121 ], [ 14.979453230297683, 51.077173001013037 ], [ 14.967681979747207, 51.071116851238848 ], [ 14.971287299775303, 51.065617400701477 ], [ 14.962998719724107, 51.057913431242874 ], [ 14.964680159672527, 51.050108550651508 ], [ 14.94854851021819, 51.042667830739894 ], [ 14.951845749494403, 51.037666310535357 ], [ 14.946562589495651, 51.031673660991054 ], [ 14.949129680000043, 51.030416621009202 ], [ 14.945643780039131, 51.026455021062723 ], [ 14.940349159996359, 51.026295841060559 ], [ 14.939965240311002, 51.020675731185321 ], [ 14.935158630177396, 51.020255361075996 ], [ 14.939305030016726, 51.017071241223228 ], [ 14.937986159839088, 51.01135404053764 ], [ 14.929129549988536, 50.998051121347302 ], [ 14.917239279572854, 50.995455201279562 ], [ 14.918343180299196, 50.974292621092367 ] ] ] } }
]
}
