{
"type": "FeatureCollection",
"name": "martwe_drewno_cykl1_perc95",
"crs": { "type": "name", "properties": { "name": "urn:ogc:def:crs:OGC:1.3:CRS84" } },
"features": [
{ "type": "Feature", "properties": { "cykl": 1, "typ_martwego_drewna": "wszystkie", "percentyl": 95, "prog_zasobnosci_m3ha": 7.4494547228077765, "srednia_krajowa_m3ha": 2.7552695001642169, "max_zasobnosci_m3ha": 31.809295552738394, "n_traktow": 8673, "wiarygodne": true }, "geometry": { "type": "MultiPolygon", "coordinates": [ [ [ [ 23.755650499785997, 52.638048243831946 ], [ 23.756629897866929, 52.649583718677007 ], [ 23.758155769438435, 52.661097198786344 ], [ 23.760246505732795, 52.672587930001249 ], [ 23.762921795794838, 52.684055096981865 ], [ 23.76311382977104, 52.684734120470296 ], [ 23.766212301878433, 52.695497432303902 ], [ 23.770136160277325, 52.706914161439684 ], [ 23.774716868135894, 52.71830428142141 ], [ 23.779979529253986, 52.72966671044081 ], [ 23.785950254362376, 52.741000310405234 ], [ 23.79064964654583, 52.748971110171986 ], [ 23.792668420895836, 52.752303388726816 ], [ 23.800186596071431, 52.763573695929161 ], [ 23.80850677587847, 52.774811008802672 ], [ 23.81489318376574, 52.782682774516843 ], [ 23.817680423519672, 52.786013074260154 ], [ 23.827776596888885, 52.797176888909298 ], [ 23.838213424462282, 52.80774313829501 ], [ 23.838784932088256, 52.808302651988193 ], [ 23.850835630686987, 52.819384787269627 ], [ 23.861031713620356, 52.828066398050687 ], [ 23.863901207114449, 52.830424118408423 ], [ 23.878100314455047, 52.841415435482446 ], [ 23.883533260168445, 52.845376012814697 ], [ 23.893474919540008, 52.852356611120612 ], [ 23.905809264361494, 52.860525721462608 ], [ 23.904941940299427, 52.851882335011339 ], [ 23.924025377187181, 52.839765955019679 ], [ 23.924440680666798, 52.839497764776695 ], [ 23.923272918609602, 52.827970777500902 ], [ 23.922100962303709, 52.816443958065115 ], [ 23.92092474556642, 52.804917309126353 ], [ 23.939296364475283, 52.793235688086853 ], [ 23.940385743234685, 52.792531192516037 ], [ 23.939198354072477, 52.781005105024605 ], [ 23.938006616183912, 52.769479192330337 ], [ 23.936810454291724, 52.757953457474429 ], [ 23.935609787826305, 52.746427903716508 ], [ 23.934404530158286, 52.734902534566395 ], [ 23.933194587790446, 52.723377353817611 ], [ 23.931979859507916, 52.711852365582587 ], [ 23.929965825913744, 52.710862305651034 ], [ 23.910134253324983, 52.701185657365734 ], [ 23.90827370227122, 52.700270237429109 ], [ 23.888277057761751, 52.690515563558208 ], [ 23.886593419693213, 52.689686455135117 ], [ 23.866406704455926, 52.679842140983666 ], [ 23.86492505277339, 52.679111856046099 ], [ 23.844521489283263, 52.669165450884257 ], [ 23.843268682820362, 52.668547415033842 ], [ 23.822619562759488, 52.658485559186353 ], [ 23.821624398263559, 52.657994190085226 ], [ 23.800698920243025, 52.647802536763201 ], [ 23.799992295055361, 52.647453327942891 ], [ 23.778757392071071, 52.637116459688848 ], [ 23.777494000730478, 52.625592545553801 ], [ 23.777114676538528, 52.625404860758714 ], [ 23.755518927555684, 52.614903771418852 ], [ 23.755514424132905, 52.614901541218096 ], [ 23.755264358280616, 52.614914013593335 ], [ 23.755200533398913, 52.626491466072117 ], [ 23.755650499785997, 52.638048243831946 ] ] ], [ [ [ 22.816045883110423, 49.01773814609615 ], [ 22.802312120414101, 49.027023400389183 ], [ 22.798046148210805, 49.029936548182043 ], [ 22.784350155610024, 49.03918976147898 ], [ 22.78003761037413, 49.042132410890524 ], [ 22.766379545578321, 49.051353512981088 ], [ 22.762020264518142, 49.054325747151353 ], [ 22.757221872254934, 49.051652431621086 ], [ 22.742253974043386, 49.043373194888616 ], [ 22.723361219408122, 49.043989357743392 ], [ 22.704467844931241, 49.0446027091362 ], [ 22.699694675451184, 49.041938612202507 ], [ 22.684717640794808, 49.033639785300046 ], [ 22.671035978060118, 49.042855051945182 ], [ 22.666679250027535, 49.045821004334982 ], [ 22.647784036458876, 49.046425962846705 ], [ 22.6341487314115, 49.055598857434184 ], [ 22.635034227445338, 49.067145681997211 ], [ 22.630576044160541, 49.070176124156774 ], [ 22.617020681100442, 49.079287042246861 ], [ 22.612511219578582, 49.082350064255792 ], [ 22.598998731301506, 49.091425759712628 ], [ 22.594437574392547, 49.09452162017304 ], [ 22.575522509350069, 49.095117160665012 ], [ 22.570500428480425, 49.092311900249975 ], [ 22.555779127191485, 49.084135473123624 ], [ 22.542289179815779, 49.093182154439511 ], [ 22.537690606546672, 49.096300105546696 ], [ 22.532642722453691, 49.093478137394051 ], [ 22.517954784109808, 49.08531217261195 ], [ 22.49904173923716, 49.08589648925701 ], [ 22.480128117181838, 49.08647813648308 ], [ 22.466676843312765, 49.095480475678421 ], [ 22.462019814265521, 49.098633824369365 ], [ 22.443100682854215, 49.099210640325907 ], [ 22.424180985909885, 49.099784845174121 ], [ 22.405260727421286, 49.100356458044985 ], [ 22.391899137230549, 49.109278777226386 ], [ 22.392731495142048, 49.120828541032807 ], [ 22.387918188003603, 49.124081223126929 ], [ 22.374649785144644, 49.132933295983619 ], [ 22.375477779356299, 49.144483254485046 ], [ 22.370559503409638, 49.147803482746269 ], [ 22.351620090279745, 49.148369418712619 ], [ 22.346203795894908, 49.145336288824915 ], [ 22.331902938290657, 49.137354746722501 ], [ 22.312966817690608, 49.137915273797624 ], [ 22.294030160864303, 49.138473380907335 ], [ 22.275092972228581, 49.139029097666125 ], [ 22.261979974408796, 49.147748989374406 ], [ 22.256914939576603, 49.151162683724579 ], [ 22.237972323402605, 49.151714263245196 ], [ 22.224948637008577, 49.160364198036611 ], [ 22.225744933182447, 49.171915833674277 ], [ 22.226540977667117, 49.183467457576548 ], [ 22.221284683714071, 49.187004581427303 ], [ 22.215522300148471, 49.183775090312096 ], [ 22.201579989233885, 49.175972915664566 ], [ 22.182627070204141, 49.176518917924611 ], [ 22.169770836213804, 49.185041149707878 ], [ 22.164412773938999, 49.188644331421791 ], [ 22.145454467301708, 49.189186690123996 ], [ 22.132705926848889, 49.197627206073584 ], [ 22.12722646117787, 49.201309250128546 ], [ 22.108262784507822, 49.201848192793697 ], [ 22.089298624685075, 49.20238520886592 ], [ 22.076706720645085, 49.210707570228948 ], [ 22.071052047516247, 49.214503948216581 ], [ 22.052082546357646, 49.215037916794273 ], [ 22.039621225128556, 49.223263895824829 ], [ 22.040378515567824, 49.234817459082961 ], [ 22.041135511176577, 49.246371010805596 ], [ 22.041892235553615, 49.257924550386903 ], [ 22.035953962557702, 49.261904686199763 ], [ 22.023711278557261, 49.26997567333013 ], [ 22.024463825832903, 49.281529377333733 ], [ 22.01838039670611, 49.285603567845214 ], [ 22.006273255155147, 49.293577878304788 ], [ 22.000086567086083, 49.297719303492734 ], [ 21.988077176779282, 49.305623573259119 ], [ 21.981783890942072, 49.30983444797463 ], [ 21.969875770866697, 49.31766645534335 ], [ 21.9706165771019, 49.329220662871471 ], [ 21.971357313525239, 49.340774852764149 ], [ 21.964864623567912, 49.345114733956912 ], [ 21.945843912441884, 49.345646703218328 ], [ 21.926822768899825, 49.346177480718751 ], [ 21.907801198331956, 49.346707139920561 ], [ 21.896294763896652, 49.354254828796279 ], [ 21.88945827410225, 49.358820724140884 ], [ 21.878073301401038, 49.3662833815808 ], [ 21.87110649935688, 49.370934422344334 ], [ 21.852074824751629, 49.371462592277972 ], [ 21.840902972697595, 49.378776540906628 ], [ 21.841618168845752, 49.39033192148532 ], [ 21.834376393879161, 49.395162712370556 ], [ 21.826399394965961, 49.390705259086793 ], [ 21.81467244856692, 49.384103880541353 ], [ 21.80664191524605, 49.379614023583798 ], [ 21.794977388688856, 49.373042737177741 ], [ 21.786891369918301, 49.368519278288275 ], [ 21.775291205309777, 49.361979232107743 ], [ 21.764458123376258, 49.369058315736382 ], [ 21.765159218379974, 49.380614406734693 ], [ 21.75755936014972, 49.385682793707971 ], [ 21.746930326534269, 49.392622114155401 ], [ 21.739165755109372, 49.397798227820481 ], [ 21.728698622302957, 49.404626933117299 ], [ 21.72076330530113, 49.409914705098146 ], [ 21.710464348601004, 49.416628857018701 ], [ 21.702352008702309, 49.422032372551698 ], [ 21.693400286737344, 49.417027865604325 ], [ 21.682666765489277, 49.410967683030869 ], [ 21.663617945449602, 49.411494050969928 ], [ 21.653705508764958, 49.417946281066172 ], [ 21.654386327997866, 49.429503276984235 ], [ 21.645816095720544, 49.435207477286994 ], [ 21.636150348802612, 49.441493290851362 ], [ 21.627377485678394, 49.447329799654604 ], [ 21.617689270786801, 49.441912906326628 ], [ 21.6076988900078, 49.436263954123582 ], [ 21.588639752863166, 49.436792451470154 ], [ 21.569580261241079, 49.437321167754007 ], [ 21.55052041574605, 49.437850125879038 ], [ 21.531460216390538, 49.438379337945534 ], [ 21.520946562536015, 49.432491122844503 ], [ 21.52042104344509, 49.420930144478163 ], [ 21.511214479602074, 49.4157085244874 ], [ 21.502560899517391, 49.421318283768386 ], [ 21.492750415824894, 49.427837467877282 ], [ 21.481916329972233, 49.421763489979433 ], [ 21.473110049586694, 49.416763869145832 ], [ 21.454057292977872, 49.41729171695745 ], [ 21.435004170742605, 49.417819602154509 ], [ 21.415950678485075, 49.418347442804027 ], [ 21.40825749306158, 49.423321865972774 ], [ 21.397462618214444, 49.430482335932332 ], [ 21.37840393958588, 49.431011060761691 ], [ 21.371204880557283, 49.435660239847138 ], [ 21.359902162993926, 49.443148835645005 ], [ 21.352997733928202, 49.447604519993952 ], [ 21.341391469844687, 49.455288457403739 ], [ 21.32232274377872, 49.455818434674988 ], [ 21.303253608669742, 49.456347618242432 ], [ 21.284184054874054, 49.456875787996985 ], [ 21.270651399552715, 49.449251398732201 ], [ 21.264578600157254, 49.445786331175519 ], [ 21.250890952057482, 49.438065794631463 ], [ 21.244981882767505, 49.434691567951866 ], [ 21.225919857406975, 49.435211708629772 ], [ 21.211829216025006, 49.427247795906837 ], [ 21.21141022748769, 49.415683759596995 ], [ 21.210992688463907, 49.40411967523336 ], [ 21.205293581862968, 49.400859513455117 ], [ 21.186243847408306, 49.401369049249944 ], [ 21.181081483161861, 49.404688029396134 ], [ 21.167705756883905, 49.413503497278235 ], [ 21.162882756785915, 49.416602052173545 ], [ 21.149158641089358, 49.425637831536335 ], [ 21.144679764241559, 49.428513221637736 ], [ 21.130602483558814, 49.437771881698623 ], [ 21.115251360495115, 49.429055488948549 ], [ 21.111037967781506, 49.426640401533341 ], [ 21.091976823503451, 49.427135138362999 ], [ 21.072915125254955, 49.427624990729164 ], [ 21.053852862114105, 49.428109569124004 ], [ 21.037671370403089, 49.418877232215813 ], [ 21.037325654430386, 49.407311458027451 ], [ 21.052586354264832, 49.397758040969705 ], [ 21.056259554910813, 49.395404254914531 ], [ 21.071165589926895, 49.386070035827622 ], [ 21.090223276934907, 49.38586436197243 ], [ 21.094459657283206, 49.383146314483071 ], [ 21.094094368024617, 49.371580940653963 ], [ 21.089505599315146, 49.368945955941484 ], [ 21.07046589178475, 49.369423814295132 ], [ 21.051425616791711, 49.369896081875289 ], [ 21.035961548039932, 49.361047824658122 ], [ 21.031904521635621, 49.358714058958135 ], [ 21.016386704598233, 49.349819113231803 ], [ 21.01239188289961, 49.347519382188146 ], [ 20.996836761641823, 49.338586674619357 ], [ 20.992887687033413, 49.336311551163327 ], [ 20.977312410735067, 49.327350508864392 ], [ 20.992150636691317, 49.318054394051345 ], [ 20.996209480141264, 49.315453562517519 ], [ 20.991946574495188, 49.312996373826664 ], [ 20.972925878001913, 49.313429274847458 ], [ 20.957521124765375, 49.304543620154398 ], [ 20.953443179280406, 49.302190080280532 ], [ 20.934425678860059, 49.302605296378339 ], [ 20.915407588162893, 49.3030127170912 ], [ 20.911817207854956, 49.305309029612872 ], [ 20.912438794269573, 49.316870658963417 ], [ 20.897285667257616, 49.326756762314496 ], [ 20.894176569607055, 49.328743395839098 ], [ 20.87870197827473, 49.338826823888944 ], [ 20.875904021344251, 49.340613352785468 ], [ 20.860109152901742, 49.350892904341279 ], [ 20.843293135771138, 49.341138182224498 ], [ 20.840635336082549, 49.339600814850726 ], [ 20.821601147900882, 49.33997521567624 ], [ 20.819177521205802, 49.341520366811373 ], [ 20.802993374757449, 49.352023927192612 ], [ 20.800866447251327, 49.353378939001203 ], [ 20.784376451238547, 49.36406821388578 ], [ 20.782544080575821, 49.365234724426941 ], [ 20.765750369945433, 49.376107990033567 ], [ 20.764210278643986, 49.377087720338494 ], [ 20.76482127549075, 49.388650036217626 ], [ 20.765431043101874, 49.400212347742652 ], [ 20.747944687059757, 49.411514650545527 ], [ 20.747082144746884, 49.412062721798478 ], [ 20.729291866259384, 49.423548158799903 ], [ 20.71022336634374, 49.423888695831494 ], [ 20.691154337210449, 49.424220676722065 ], [ 20.672237293758343, 49.413169634257727 ], [ 20.671687443196419, 49.412850624967518 ], [ 20.652932738448225, 49.401875774634341 ], [ 20.652229196331056, 49.401467288216459 ], [ 20.651553733265072, 49.401895485182692 ], [ 20.633555793385554, 49.413469033894572 ], [ 20.633146211957801, 49.413728491249778 ], [ 20.614873221501565, 49.425466102587656 ], [ 20.595756505562406, 49.414250648517005 ], [ 20.595605526619021, 49.402681287854264 ], [ 20.595455819576181, 49.391111888221211 ], [ 20.594663995476839, 49.390651332721973 ], [ 20.576225607161966, 49.379804244103738 ], [ 20.575231205757639, 49.379225424590352 ], [ 20.556176823589354, 49.379496327627834 ], [ 20.55524070198862, 49.380088509338407 ], [ 20.537487425359693, 49.391468758456924 ], [ 20.53679466788353, 49.391906671137363 ], [ 20.518788896073563, 49.403436919769142 ], [ 20.518337616023008, 49.403721979455653 ], [ 20.50008123234198, 49.415400845804527 ], [ 20.481011895274673, 49.415650534696489 ], [ 20.461942217287834, 49.415894419929849 ], [ 20.442872212229446, 49.416132754758685 ], [ 20.423927104169135, 49.404923414053371 ], [ 20.423463096764003, 49.404652372125618 ], [ 20.404783637864639, 49.393586312118352 ], [ 20.404062917539861, 49.393164998144279 ], [ 20.385001043235661, 49.393386803810593 ], [ 20.384291468225271, 49.393833519715713 ], [ 20.36626393661567, 49.405319980436332 ], [ 20.347197007947358, 49.405533613048171 ], [ 20.328129825652699, 49.405743137409289 ], [ 20.309557436338263, 49.394704279269625 ], [ 20.309496394057657, 49.383133712148293 ], [ 20.309435768870816, 49.371563118285842 ], [ 20.309375514135887, 49.359992498208612 ], [ 20.309315577913011, 49.348421852503094 ], [ 20.307507033632575, 49.347360903454991 ], [ 20.305755796594543, 49.348462125868657 ], [ 20.288768148329002, 49.359279640271502 ], [ 20.271269361067766, 49.348846607280777 ], [ 20.269416727244828, 49.347758700514959 ], [ 20.267621113606566, 49.348886678629633 ], [ 20.250668369726455, 49.359671265054324 ], [ 20.233222465837805, 49.349258839756637 ], [ 20.231325574390659, 49.348143823109638 ], [ 20.212279696348965, 49.348331933741719 ], [ 20.193233624770443, 49.348517216998196 ], [ 20.176118973656212, 49.338282776599065 ], [ 20.173908528576362, 49.336981164906177 ], [ 20.157071995774398, 49.326903772965949 ], [ 20.173428563277096, 49.316791819742548 ], [ 20.176061672420008, 49.315140779943505 ], [ 20.173351403995063, 49.313544059404414 ], [ 20.154318524417633, 49.313724186974582 ], [ 20.138011535658361, 49.303950463885684 ], [ 20.135016212719268, 49.302183596618974 ], [ 20.118982209012049, 49.292564998291887 ], [ 20.118965167417688, 49.280993830632134 ], [ 20.118947717085895, 49.269422644538636 ], [ 20.115194346923506, 49.267205872959629 ], [ 20.099931936506962, 49.2580338877179 ], [ 20.099917460200952, 49.246462636911659 ], [ 20.099902338174658, 49.234891369824787 ], [ 20.09988649415892, 49.223320087182934 ], [ 20.09514197476663, 49.220513769020776 ], [ 20.080886453410628, 49.2119280102253 ], [ 20.080872910028997, 49.200356669529519 ], [ 20.080858409080957, 49.188785315330641 ], [ 20.075382048995706, 49.185542113381857 ], [ 20.056397844463902, 49.185712294911035 ], [ 20.051054768819405, 49.189060418488751 ], [ 20.037658464681574, 49.197593721212797 ], [ 20.032539765473651, 49.200798910128988 ], [ 20.018910121148632, 49.209473062060333 ], [ 20.014017504430225, 49.21253445367838 ], [ 20.000152806304119, 49.221350274556073 ], [ 19.995487917044962, 49.224267046730724 ], [ 19.981386512561144, 49.233225311677586 ], [ 19.96238356114711, 49.233383335403936 ], [ 19.943380460461558, 49.233539075492764 ], [ 19.924377212560451, 49.233692517677461 ], [ 19.90537381946319, 49.233843644492147 ], [ 19.890939035773741, 49.22512078218017 ], [ 19.890966404484118, 49.213549225407199 ], [ 19.88595136415007, 49.210565768422676 ], [ 19.871996765307912, 49.202122638517444 ], [ 19.866751920818068, 49.199000146457976 ], [ 19.84776157919956, 49.199144698236566 ], [ 19.828771099790952, 49.199286821288368 ], [ 19.823647059608319, 49.202477563168841 ], [ 19.809971772541186, 49.211138431702281 ], [ 19.795999370091067, 49.202671420988814 ], [ 19.790789735696031, 49.199563664829491 ], [ 19.785680333655872, 49.202742078818787 ], [ 19.771981167312088, 49.211409993900169 ], [ 19.767109624615639, 49.214438229691183 ], [ 19.767522013749495, 49.226006781468264 ], [ 19.767935376575661, 49.237575302751509 ], [ 19.772430719244408, 49.240256513458824 ], [ 19.787350745358612, 49.249015855967883 ], [ 19.787770654437541, 49.260584224475629 ], [ 19.791802771705193, 49.262986759477769 ], [ 19.807202995359951, 49.272021304121964 ], [ 19.811005279860485, 49.274285197955315 ], [ 19.826646719725215, 49.283455027486468 ], [ 19.81131446844406, 49.293133441748573 ], [ 19.808056177401696, 49.295157705670654 ], [ 19.808483702691071, 49.306725863855796 ], [ 19.80891176463637, 49.318293994247519 ], [ 19.809340300716862, 49.329862097281648 ], [ 19.809769250484873, 49.341430173380225 ], [ 19.81019855589706, 49.352998222949296 ], [ 19.810628161661203, 49.364566246376306 ], [ 19.811058015598682, 49.376134244027668 ], [ 19.793793751777148, 49.386987502864542 ], [ 19.792427355198861, 49.387834434336924 ], [ 19.792852588317871, 49.399402478056899 ], [ 19.793277924968319, 49.41097049703977 ], [ 19.775283846534283, 49.422262199380526 ], [ 19.756931421148245, 49.411214146515889 ], [ 19.756027069340725, 49.410676477424985 ], [ 19.737918114465121, 49.399766137254453 ], [ 19.736779367080249, 49.399088604682881 ], [ 19.718911839046331, 49.388314949775449 ], [ 19.717540732728267, 49.387498557576947 ], [ 19.716193652268835, 49.388331820213985 ], [ 19.698643288868915, 49.399333384383759 ], [ 19.697537636281496, 49.40001680407471 ], [ 19.679736755821722, 49.41116493224137 ], [ 19.660663882027091, 49.411280465495182 ], [ 19.641590894742588, 49.411393305282942 ], [ 19.640743184761174, 49.411916369023764 ], [ 19.641128598056369, 49.42348508582905 ], [ 19.641753403384509, 49.423857595625314 ], [ 19.660588264782827, 49.434946394612396 ], [ 19.642049293442359, 49.446529913777916 ], [ 19.641899222884931, 49.446622448575809 ], [ 19.642148600372067, 49.454132798443617 ], [ 19.661242883522537, 49.454370618832883 ], [ 19.680336786149226, 49.4545667816055 ], [ 19.699430231325895, 49.454719270488511 ], [ 19.718523138394382, 49.454826028195413 ], [ 19.73761542328252, 49.454884982844263 ], [ 19.756706998899343, 49.454894075386044 ], [ 19.77579777560798, 49.454851287893575 ], [ 19.794887661776233, 49.454754672568335 ], [ 19.813976564404623, 49.45460238133613 ], [ 19.833064389831506, 49.454392695913896 ], [ 19.852151044514731, 49.454124058248134 ], [ 19.871236435889355, 49.453795101241397 ], [ 19.890320473300907, 49.453404679703979 ], [ 19.909403069014054, 49.452951901486976 ], [ 19.928484139296543, 49.452436158775171 ], [ 19.947563605578861, 49.451857159538797 ], [ 19.966641395690232, 49.451214959165398 ], [ 19.985717445172302, 49.450509992314345 ], [ 20.00479169867225, 49.449743105056974 ], [ 20.023864111417712, 49.448915587385805 ], [ 20.042934650776608, 49.448029206194839 ], [ 20.062003297905573, 49.447086238849828 ], [ 20.081070049491537, 49.446089507483606 ], [ 20.100134919591568, 49.445042414163787 ], [ 20.119197941576907, 49.443948977091146 ], [ 20.138259170187776, 49.442813867994083 ], [ 20.13848701946263, 49.442799901353382 ], [ 20.157319290883617, 49.441668247095826 ], [ 20.176377847364783, 49.440493535171548 ], [ 20.195434961455934, 49.439296115369586 ], [ 20.214490792189387, 49.438083477295557 ], [ 20.233545531246534, 49.43686395021021 ], [ 20.25259940575468, 49.435646749314934 ], [ 20.271652681244564, 49.434442024088611 ], [ 20.290705664774926, 49.433260908689135 ], [ 20.309758708229126, 49.432115574373043 ], [ 20.328812211786662, 49.431019283810471 ], [ 20.347866627569847, 49.429986447079806 ], [ 20.366922463462217, 49.429032679014277 ], [ 20.375364894225857, 49.428653859481862 ], [ 20.385980560055732, 49.428184545232988 ], [ 20.405041411627337, 49.427455047074154 ], [ 20.42410548535377, 49.426855553254164 ], [ 20.443173531274933, 49.426406472118664 ], [ 20.462246374011588, 49.426129654400889 ], [ 20.481324917050983, 49.426048440663749 ], [ 20.500410146978382, 49.426187702707509 ], [ 20.519503137575391, 49.426573876790492 ], [ 20.525292245036781, 49.426773172639464 ], [ 20.538605628367375, 49.427253358628022 ], [ 20.557718853889533, 49.428254302662893 ], [ 20.576843967894863, 49.429600955503425 ], [ 20.595982471702239, 49.431327084630823 ], [ 20.615135971256713, 49.433468006612088 ], [ 20.634306177556606, 49.436060498679346 ], [ 20.638878920782059, 49.436790265043122 ], [ 20.653497373730936, 49.439216060256278 ], [ 20.672710368010964, 49.442938840347004 ], [ 20.691946476778639, 49.447247491221162 ], [ 20.693247399042736, 49.44757827545611 ], [ 20.711212647537256, 49.452321456970466 ], [ 20.730507471143671, 49.458094693414928 ], [ 20.731949677156202, 49.458576502491617 ], [ 20.749839168503073, 49.464774338263233 ], [ 20.762571898496535, 49.469685262948083 ], [ 20.769207977357894, 49.472336541912121 ], [ 20.788532034027234, 49.480858146270286 ], [ 20.788619221154029, 49.480897921448097 ], [ 20.808079827534986, 49.490613276925608 ], [ 20.810781554283242, 49.492083387969686 ], [ 20.827592873269726, 49.501526967342755 ], [ 20.830577421554, 49.503343232657031 ], [ 20.847163825297514, 49.513744537925092 ], [ 20.848474504729328, 49.514630067983198 ], [ 20.864762621811195, 49.525940098828087 ], [ 20.866799107856846, 49.527391688465762 ], [ 20.879740791872379, 49.537269142188336 ], [ 20.88650392855666, 49.542556610262174 ], [ 20.893769954575124, 49.548611795409016 ], [ 20.906281120054544, 49.559262155156283 ], [ 20.907058893163811, 49.559964959925779 ], [ 20.919420102494282, 49.571331999973133 ], [ 20.926136631482191, 49.57760877648407 ], [ 20.931299543680655, 49.582705767335852 ], [ 20.94268256364991, 49.594086655290205 ], [ 20.946069090526631, 49.597508029211433 ], [ 20.953567141418031, 49.60547484324583 ], [ 20.964216539941035, 49.616866002415136 ], [ 20.966076754181234, 49.618865463418857 ], [ 20.974425515840441, 49.628263699019705 ], [ 20.984549727478946, 49.639661950540813 ], [ 20.986152791105173, 49.641465089206349 ], [ 20.99433446918632, 49.651065168187316 ], [ 21.004116402002168, 49.662467608767756 ], [ 21.00628536584226, 49.664978113320473 ], [ 21.013680150744143, 49.673873019971765 ], [ 21.023285372809966, 49.685276917570164 ], [ 21.026458657535024, 49.688993712291492 ], [ 21.032797896624526, 49.696681647522716 ], [ 21.042381238170815, 49.708084348288182 ], [ 21.0466546972396, 49.713067353778214 ], [ 21.051990083485268, 49.719485805809803 ], [ 21.061701236428267, 49.730884646618129 ], [ 21.066855613271109, 49.736775606214842 ], [ 21.071540742292015, 49.742280379650097 ], [ 21.081529278889452, 49.753672601216394 ], [ 21.087045721388428, 49.759763788105481 ], [ 21.091728171942229, 49.765060165958552 ], [ 21.102148302461867, 49.776442821805254 ], [ 21.107212970553309, 49.781775707695374 ], [ 21.112836468583563, 49.787819656470681 ], [ 21.123851792803695, 49.799189513010617 ], [ 21.127349508183705, 49.802661444845327 ], [ 21.135166677587005, 49.810552808182678 ], [ 21.146955144144474, 49.821906230833548 ], [ 21.1474514211395, 49.822366057996348 ], [ 21.159048142033022, 49.833252788716983 ], [ 21.167513768028559, 49.840813734802225 ], [ 21.171695435931451, 49.844587706919256 ], [ 21.184850542951608, 49.855911682712531 ], [ 21.187540328047451, 49.85812460917672 ], [ 21.198528542600933, 49.867224259262898 ], [ 21.207529905662685, 49.874304992346232 ], [ 21.212870891947876, 49.878522552753203 ], [ 21.227487020324645, 49.889484978716283 ], [ 21.227914047934007, 49.889805618555229 ], [ 21.243624661288866, 49.901073832347009 ], [ 21.247410010926391, 49.903656715898983 ], [ 21.260150237055722, 49.912324049574345 ], [ 21.267303877407354, 49.916954548396333 ], [ 21.277559172688417, 49.923554581344632 ], [ 21.287170699452364, 49.929446154286637 ], [ 21.295920419217257, 49.934763667924074 ], [ 21.307012348262017, 49.941192347990047 ], [ 21.315314065247858, 49.945949261502456 ], [ 21.326830717978343, 49.952252202565568 ], [ 21.335832647042896, 49.95710898416354 ], [ 21.346627641485323, 49.962681408286898 ], [ 21.357582731077127, 49.968240076723411 ], [ 21.366404826700329, 49.97253113332151 ], [ 21.380686839949714, 49.979339335978025 ], [ 21.386163810322806, 49.981847294245185 ], [ 21.405285812482003, 49.990403037148383 ], [ 21.405905925910783, 49.990670148930924 ], [ 21.425631329232125, 49.999015181509847 ], [ 21.431489252310069, 50.001427937299333 ], [ 21.44534215608773, 50.006936346451887 ], [ 21.459533660046233, 50.012407940290259 ], [ 21.465039341420937, 50.014462339402556 ], [ 21.4847231358846, 50.021607646624958 ], [ 21.489624077182654, 50.023337317112706 ], [ 21.504394398634041, 50.028397969683922 ], [ 21.522031856854799, 50.034208583755337 ], [ 21.524053927902536, 50.034857014231875 ], [ 21.543701979326872, 50.040997461976922 ], [ 21.557099692824313, 50.045012252867771 ], [ 21.563339161123181, 50.046838203996558 ], [ 21.582965843394014, 50.052393102068542 ], [ 21.595290476675775, 50.055735566771027 ], [ 21.602582274654786, 50.057673337299583 ], [ 21.622188919378118, 50.06269370162974 ], [ 21.637221660351827, 50.066361417346727 ], [ 21.641785569834671, 50.067456303412371 ], [ 21.661373282790546, 50.071986014262009 ], [ 21.680950820846768, 50.076265845073351 ], [ 21.683799349108902, 50.076864803327148 ], [ 21.700520157895138, 50.080336429162472 ], [ 21.720079807692027, 50.084176104382571 ], [ 21.736438941003364, 50.087206766645977 ], [ 21.739629926333006, 50.087792624963349 ], [ 21.759172275684616, 50.091221461914536 ], [ 21.778704769378216, 50.094430576092549 ], [ 21.797536500678056, 50.097321321468371 ], [ 21.798227541567702, 50.097426929598058 ], [ 21.817743135445955, 50.100258322123061 ], [ 21.837248934855825, 50.102883938532479 ], [ 21.8567449579878, 50.105308346172208 ], [ 21.872104694339562, 50.107071142393707 ], [ 21.876231791508168, 50.107545466869908 ], [ 21.895710920223856, 50.109623721142533 ], [ 21.915180230352778, 50.111511531706682 ], [ 21.93463971883245, 50.113212671015688 ], [ 21.954089378497546, 50.114730740305504 ], [ 21.973529198229144, 50.116069177791552 ], [ 21.973746515542608, 50.116082405037666 ], [ 21.992961281550425, 50.117265217509015 ], [ 22.012383393208307, 50.118286038906618 ], [ 22.031795480319477, 50.1191341894449 ], [ 22.051197509249221, 50.119812449809096 ], [ 22.070589441806693, 50.120323454775026 ], [ 22.089971235058975, 50.120669695007429 ], [ 22.109342841084828, 50.120853517847387 ], [ 22.128704206665418, 50.120877127091845 ], [ 22.148055272909787, 50.120742581773023 ], [ 22.167395974813012, 50.120451793950174 ], [ 22.186726240745404, 50.120006525530037 ], [ 22.20604599187142, 50.1194083841349 ], [ 22.225355141496937, 50.118658818039791 ], [ 22.244653594344062, 50.117759110201099 ], [ 22.263941245752513, 50.116710371400117 ], [ 22.283217980806747, 50.115513532524432 ], [ 22.302483673388188, 50.11416933600961 ], [ 22.321738185151705, 50.112678326461605 ], [ 22.340981364425538, 50.111040840478552 ], [ 22.360213045033614, 50.109256995687176 ], [ 22.379433045039267, 50.107326679005745 ], [ 22.398641165408772, 50.10524953414081 ], [ 22.408343952580616, 50.104126665244323 ], [ 22.41783901187393, 50.103050542237462 ], [ 22.437026861986457, 50.10073558775337 ], [ 22.456202684292204, 50.098278365987014 ], [ 22.475366235640728, 50.095677834034817 ], [ 22.494517250200797, 50.092932655517835 ], [ 22.513655437718668, 50.090041184463324 ], [ 22.51858511753009, 50.089261040677243 ], [ 22.532784992112237, 50.087062732449539 ], [ 22.551903283346157, 50.083963124051245 ], [ 22.571008471507778, 50.080719522364248 ], [ 22.590100200952946, 50.077329414100717 ], [ 22.602011749005086, 50.075125960772688 ], [ 22.609180995956745, 50.073828650669157 ], [ 22.62825302571591, 50.07024764100877 ], [ 22.647311226543017, 50.066520919297012 ], [ 22.666355162690163, 50.062644982833135 ], [ 22.672565370730151, 50.061338804063631 ], [ 22.685390806277525, 50.058699928846586 ], [ 22.704415187872055, 50.054648264898894 ], [ 22.72342481591291, 50.050446504129496 ], [ 22.735167842254086, 50.047764719980336 ], [ 22.742423315853255, 50.046143417480927 ], [ 22.761413503605077, 50.041776467584739 ], [ 22.780388368538588, 50.037257415312446 ], [ 22.792288230365642, 50.034335911815326 ], [ 22.799351881078074, 50.032638703974413 ], [ 22.818307405077647, 50.027964122290051 ], [ 22.837246945702127, 50.023134240652453 ], [ 22.84535261478986, 50.021013228432658 ], [ 22.856177665466383, 50.018240608218015 ], [ 22.875097946542216, 50.013264020754477 ], [ 22.894001481364448, 50.008127676932062 ], [ 22.895289767803121, 50.007771062184375 ], [ 22.912901670888427, 50.00299862852642 ], [ 22.931786005377091, 49.997723589583629 ], [ 22.942717287767938, 49.994592470467744 ], [ 22.950659431985738, 49.992364847307819 ], [ 22.969524731237705, 49.986957259710294 ], [ 22.988109275053421, 49.981464237941502 ], [ 22.988372509544469, 49.981388031472662 ], [ 23.007218952966831, 49.975853914077625 ], [ 23.026047502333562, 49.9701562356354 ], [ 23.031822103362867, 49.968376371689814 ], [ 23.04486993854043, 49.96443752365834 ], [ 23.063679679130754, 49.958619956381071 ], [ 23.074112791586863, 49.955321746671011 ], [ 23.082478935394093, 49.952730930513319 ], [ 23.101270068303762, 49.946799118835749 ], [ 23.101181551322501, 49.942791510803083 ], [ 23.100917164338981, 49.942649491972041 ], [ 23.08200891774176, 49.931894217635872 ], [ 23.081712746034032, 49.920329905439779 ], [ 23.07964362523991, 49.919217260234234 ], [ 23.062453516916356, 49.909432535995784 ], [ 23.059400398764321, 49.907789463131444 ], [ 23.04314133532371, 49.898533883219876 ], [ 23.042749234095279, 49.886972885958478 ], [ 23.03817635040182, 49.884509297691373 ], [ 23.023351017668347, 49.876074043878532 ], [ 23.017965584569406, 49.873170417070256 ], [ 23.003903161973412, 49.865173738241303 ], [ 23.003420125652259, 49.853615816857044 ], [ 22.996790081405354, 49.850037316223329 ], [ 22.983894897114624, 49.842714931627533 ], [ 22.976610850109008, 49.838780342297269 ], [ 22.964326871308074, 49.83181228744165 ], [ 22.96376406888335, 49.820256995523316 ], [ 22.963180728316988, 49.808702394811419 ], [ 22.954522366312979, 49.804019128110788 ], [ 22.943524071483999, 49.797799408405957 ], [ 22.934380075507065, 49.792849571722201 ], [ 22.923834738773511, 49.786894258580688 ], [ 22.914249027497341, 49.781701229284266 ], [ 22.904115803791306, 49.775986824291998 ], [ 22.90345116691719, 49.764434761941324 ], [ 22.902771549112984, 49.752883191768085 ], [ 22.892253014559831, 49.747177119845738 ], [ 22.882993586546988, 49.741974284441582 ], [ 22.872156344288737, 49.736090700395728 ], [ 22.86319527108359, 49.731062741022022 ], [ 22.862474164127381, 49.719512378809192 ], [ 22.851146329772437, 49.713355891941916 ], [ 22.842646660604121, 49.708598391747444 ], [ 22.831076481431161, 49.702305258169503 ], [ 22.822805029409288, 49.697681536950199 ], [ 22.811016783594422, 49.691264763664819 ], [ 22.802951312066664, 49.686761739274409 ], [ 22.790967118139903, 49.680233187855066 ], [ 22.783087386549226, 49.675838930312558 ], [ 22.782321365822551, 49.664289659838694 ], [ 22.781548105980839, 49.652740611252952 ], [ 22.769129147110981, 49.645966125986739 ], [ 22.761665346836271, 49.641814864745015 ], [ 22.749110410358544, 49.634960841551603 ], [ 22.741777582229339, 49.63088592260128 ], [ 22.740990075186133, 49.619337117048637 ], [ 22.728214595399901, 49.612355289066642 ], [ 22.721096067012649, 49.608404911099299 ], [ 22.720301460619481, 49.596856213873394 ], [ 22.707340007819059, 49.589765237622494 ], [ 22.700404305983945, 49.585920638680605 ], [ 22.699604606870416, 49.574371982287516 ], [ 22.6864863544609, 49.567187618930397 ], [ 22.679706967060234, 49.563432948795047 ], [ 22.678903913275775, 49.551884275370256 ], [ 22.66565337984953, 49.54461978502335 ], [ 22.659008072966017, 49.540941708605963 ], [ 22.645703219537729, 49.533641749614119 ], [ 22.639114589211463, 49.529995699794156 ], [ 22.645135762202109, 49.52602110134891 ], [ 22.657396025991044, 49.517844283392343 ], [ 22.656586866589905, 49.506295645840432 ], [ 22.6624934908047, 49.502391325583083 ], [ 22.681564061114305, 49.501789268592006 ], [ 22.693924869735891, 49.493533562198444 ], [ 22.699764564255915, 49.489667445032417 ], [ 22.712172600104651, 49.481374257114048 ], [ 22.711347210136566, 49.469826376004129 ], [ 22.710520416164606, 49.4582785239608 ], [ 22.709692397112828, 49.446730695200557 ], [ 22.708863321895226, 49.435182884264997 ], [ 22.714467443269239, 49.431464557030083 ], [ 22.727080098212568, 49.423021921316263 ], [ 22.726245391829412, 49.411474357737667 ], [ 22.731759247391889, 49.407811710488737 ], [ 22.744447112741653, 49.399310992931021 ], [ 22.74360720000519, 49.387763664792956 ], [ 22.7427668628922, 49.376216334354467 ], [ 22.741926225659906, 49.3646689975659 ], [ 22.741085405489777, 49.353121650609431 ], [ 22.74024451285386, 49.341574289887213 ], [ 22.74552713937862, 49.338058355764787 ], [ 22.758414405298527, 49.329409412622823 ], [ 22.757569438461893, 49.317862252503971 ], [ 22.756724664183849, 49.306315070030287 ], [ 22.755880171072853, 49.294767862305463 ], [ 22.755036042396867, 49.283220626608824 ], [ 22.754192356322264, 49.271673360387496 ], [ 22.753349186134624, 49.260126061249075 ], [ 22.752506600442754, 49.248578726954847 ], [ 22.73814601281455, 49.240668554441093 ], [ 22.719178138988799, 49.241287423613393 ], [ 22.713711060545741, 49.238259406825975 ], [ 22.712878698805806, 49.226711508439926 ], [ 22.717834447372784, 49.223410557550679 ], [ 22.736796379458099, 49.222803621 ], [ 22.749982970141758, 49.213936492927516 ], [ 22.735525616413518, 49.205966428594358 ], [ 22.730180506471982, 49.203003835064109 ], [ 22.729346194483018, 49.191456050820129 ], [ 22.734188125013532, 49.1882280490318 ], [ 22.753136218657939, 49.187618252927962 ], [ 22.76641927954552, 49.178676444553695 ], [ 22.751850991060216, 49.170642566453779 ], [ 22.746629728512172, 49.167746244068645 ], [ 22.74579378375994, 49.156198564509999 ], [ 22.750519971254132, 49.153045129926518 ], [ 22.769454249509437, 49.152432451453507 ], [ 22.774609885621604, 49.155258874165057 ], [ 22.789268121912279, 49.163340115624379 ], [ 22.802621117760875, 49.1543385035584 ], [ 22.801772706478356, 49.14279152019936 ], [ 22.806436738863034, 49.139673526034862 ], [ 22.819856437099375, 49.130618800242154 ], [ 22.82447678387998, 49.12752794438866 ], [ 22.837931099694991, 49.118443450388668 ], [ 22.842508001138224, 49.115379634346098 ], [ 22.855996735504643, 49.106265473244086 ], [ 22.860530398310246, 49.103228619464836 ], [ 22.87944314247483, 49.1025963668624 ], [ 22.892966590013227, 49.093447622569123 ], [ 22.892101080643172, 49.081901647752133 ], [ 22.877188160475708, 49.073688036363286 ], [ 22.872332408931193, 49.0709923591359 ], [ 22.871473602999988, 49.059446022864833 ], [ 22.870615939439784, 49.047899632471754 ], [ 22.874953333112554, 49.044992214182848 ], [ 22.888650231540208, 49.035717214005231 ], [ 22.88779039057836, 49.024170969456947 ], [ 22.886931718102822, 49.012624669796672 ], [ 22.871788007471309, 49.00427014423029 ], [ 22.852912735053529, 49.00490509809967 ], [ 22.839141441070844, 49.014227023607759 ], [ 22.834926784728516, 49.017108548668439 ], [ 22.816045883110423, 49.01773814609615 ] ] ], [ [ [ 18.973986576825947, 49.41381540726352 ], [ 18.993043265303282, 49.425262146181218 ], [ 18.993060089579394, 49.426156888178213 ], [ 19.012140503531608, 49.427684889936124 ], [ 19.031222062138433, 49.429148683023143 ], [ 19.050304693242786, 49.430550314622501 ], [ 19.069388327980871, 49.431891930541532 ], [ 19.088472900936871, 49.433175753544994 ], [ 19.107558350247547, 49.434404061868875 ], [ 19.126644617657135, 49.435579167908344 ], [ 19.145731648523061, 49.436703397100537 ], [ 19.146385502197873, 49.436740426628013 ], [ 19.164819485142189, 49.43780692859967 ], [ 19.183908007848565, 49.43886409924761 ], [ 19.183941428611021, 49.436686791685808 ], [ 19.184121636022066, 49.425115779603004 ], [ 19.184302316166089, 49.413544743198493 ], [ 19.183812289922852, 49.413248949250544 ], [ 19.164737382825717, 49.413290659351908 ], [ 19.145662438118514, 49.413329644233691 ], [ 19.126587458710414, 49.413365928390157 ], [ 19.10751244747366, 49.413399536789051 ], [ 19.107113859515415, 49.413642006025547 ], [ 19.088458444684651, 49.425136317028858 ], [ 19.069712112910139, 49.41367060286386 ], [ 19.069362340811224, 49.41345882728303 ], [ 19.05028725093619, 49.413484559775782 ], [ 19.031723904299049, 49.402116501897304 ], [ 19.031204720350484, 49.401801759813566 ], [ 19.012134126391654, 49.401822418388484 ], [ 18.993063516994951, 49.401840532930827 ], [ 18.973992894783599, 49.401856125276147 ], [ 18.973561256779746, 49.402117831157078 ], [ 18.973777741840514, 49.413688643089969 ], [ 18.973986576825947, 49.41381540726352 ] ] ], [ [ [ 17.045013125995553, 50.424723176360274 ], [ 17.055063166889553, 50.415569700225682 ], [ 17.045401486184616, 50.415290962728612 ], [ 17.04520025395507, 50.415404349309391 ], [ 17.045013125995553, 50.424723176360274 ] ] ], [ [ [ 16.631936337650675, 50.113292714362458 ], [ 16.623059590548504, 50.118270767106374 ], [ 16.622625903144399, 50.129832974120056 ], [ 16.611444579891504, 50.136135027997547 ], [ 16.592102972040056, 50.135690863540084 ], [ 16.583348036273591, 50.140592916400522 ], [ 16.582900982998595, 50.152154720661862 ], [ 16.571582641006955, 50.15852339818435 ], [ 16.563024428914758, 50.163310256053592 ], [ 16.562570278213272, 50.174871828040423 ], [ 16.562115620057511, 50.186433370022115 ], [ 16.561660473040209, 50.197994882391988 ], [ 16.561204859516572, 50.209556365622639 ], [ 16.56074880570673, 50.221117820268006 ], [ 16.548658085892349, 50.227900055572157 ], [ 16.54083073208983, 50.23226878819878 ], [ 16.528678642528249, 50.239080274593256 ], [ 16.520903960609672, 50.243416194199092 ], [ 16.508689853322753, 50.250257313425877 ], [ 16.500968614120989, 50.254560037320395 ], [ 16.500493511116137, 50.266120869926397 ], [ 16.488079384326664, 50.273066140404538 ], [ 16.480543810001969, 50.277260954556034 ], [ 16.468066776108564, 50.284236444222763 ], [ 16.460585985351358, 50.288397477543462 ], [ 16.460099109347819, 50.299957900688099 ], [ 16.447421830399669, 50.307037843448512 ], [ 16.440127831450692, 50.311090673439196 ], [ 16.439635493898408, 50.322650889404002 ], [ 16.426756802345377, 50.329836085306965 ], [ 16.407339356076097, 50.329364256667247 ], [ 16.387922334236499, 50.328890705534761 ], [ 16.380677147259785, 50.332907970539232 ], [ 16.38016941747966, 50.344467654457873 ], [ 16.367219122516794, 50.351681353542936 ], [ 16.36016916456715, 50.355586209537222 ], [ 16.366769718588365, 50.359800715425898 ], [ 16.379155052070626, 50.367586990628631 ], [ 16.365930703247958, 50.374949174433304 ], [ 16.359145738471152, 50.378705200639523 ], [ 16.345846007127378, 50.386105094411747 ], [ 16.326406638616795, 50.385624508826304 ], [ 16.306967712532938, 50.385142043248763 ], [ 16.294761970250082, 50.37722460188342 ], [ 16.288193098494471, 50.373023668545102 ], [ 16.281163037964639, 50.376907304183938 ], [ 16.268091215829745, 50.384171112931647 ], [ 16.261139412075103, 50.388008470872798 ], [ 16.260605929976734, 50.399567153435861 ], [ 16.247305470937928, 50.406952383554227 ], [ 16.240573126977345, 50.410664630360863 ], [ 16.227179263159886, 50.418097874869169 ], [ 16.220535112953453, 50.421758580769101 ], [ 16.207043480256299, 50.429242337914303 ], [ 16.200492193043424, 50.432849010227038 ], [ 16.199950669226421, 50.444407266833984 ], [ 16.205924955746891, 50.448231578643117 ], [ 16.212332467427295, 50.444704759002207 ], [ 16.226062713065492, 50.43719899780011 ], [ 16.238969758876795, 50.445340283603663 ], [ 16.225137405146224, 50.453012807727809 ], [ 16.218923171052797, 50.456433814814744 ], [ 16.22472000011993, 50.460141748329889 ], [ 16.24419182100214, 50.460577229725665 ], [ 16.257430054404107, 50.468919453418486 ], [ 16.26300165927152, 50.472478745254662 ], [ 16.282479286269044, 50.472905505220318 ], [ 16.295967359077746, 50.481392862886253 ], [ 16.301303956757032, 50.484797644274316 ], [ 16.314993860797525, 50.493404623445066 ], [ 16.314486785052797, 50.504963910857406 ], [ 16.319488716792073, 50.508152080527125 ], [ 16.324838391033726, 50.505202404353831 ], [ 16.339626951900918, 50.497097027660395 ], [ 16.359116243038599, 50.497504538696255 ], [ 16.373143073447416, 50.506303109273766 ], [ 16.377970712029068, 50.509375251711973 ], [ 16.392217343050934, 50.518303048583853 ], [ 16.396834855677728, 50.52123926080786 ], [ 16.41130842111037, 50.53030014243619 ], [ 16.395863480063632, 50.538877220116206 ], [ 16.39125182379329, 50.541423018971599 ], [ 16.395571862857995, 50.544168870555204 ], [ 16.410357943743431, 50.553420502634424 ], [ 16.409886884447694, 50.564980747748386 ], [ 16.413826986401165, 50.567482670367532 ], [ 16.433346961275294, 50.567867773365094 ], [ 16.448626356531133, 50.577407014524432 ], [ 16.448172190917912, 50.588967681446356 ], [ 16.431701412383983, 50.598111561429242 ], [ 16.42810421900818, 50.600096691512334 ], [ 16.411534040022492, 50.609293363693411 ], [ 16.408035914060438, 50.611222282547743 ], [ 16.391356819324862, 50.62047711820172 ], [ 16.387967651841514, 50.62234446372571 ], [ 16.387513812437771, 50.633904939929941 ], [ 16.370518251175515, 50.64333257010594 ], [ 16.367445689703285, 50.645023655532675 ], [ 16.350315820161985, 50.654523790124699 ], [ 16.347378787389346, 50.656138990454352 ], [ 16.330103440732771, 50.665717872119245 ], [ 16.310548944634892, 50.665236075000387 ], [ 16.290994809322026, 50.664753902086979 ], [ 16.288097281557427, 50.666344433547962 ], [ 16.27076347362377, 50.67595031392635 ], [ 16.251205226970129, 50.67546707697084 ], [ 16.231647366508636, 50.674983039718029 ], [ 16.215633056846357, 50.664634539680449 ], [ 16.216523106513229, 50.65308488701001 ], [ 16.217407148773141, 50.641535069779621 ], [ 16.214164448682844, 50.639468183607342 ], [ 16.194622000718816, 50.638980892900946 ], [ 16.191111872521542, 50.640903722258592 ], [ 16.174379379905957, 50.650166419553273 ], [ 16.154832918453046, 50.649676698500613 ], [ 16.151478218051704, 50.651511952697767 ], [ 16.134575882120917, 50.6608638621192 ], [ 16.115025424189376, 50.660371431595173 ], [ 16.095475419534985, 50.65987722233448 ], [ 16.079835417012379, 50.649737326962928 ], [ 16.076651549839969, 50.647700724872571 ], [ 16.0612334196388, 50.637698063040396 ], [ 16.062160192007966, 50.626150177687961 ], [ 16.058566448354004, 50.623849176583903 ], [ 16.043564477988831, 50.61410809538102 ], [ 16.039765934625525, 50.611674140154406 ], [ 16.024975002573537, 50.602063101076446 ], [ 16.020975008349428, 50.599498142076065 ], [ 16.016664324924996, 50.601850387935706 ], [ 16.000709327782396, 50.610661010348828 ], [ 15.996592562210507, 50.612905639624699 ], [ 16.000410576476703, 50.615354863399453 ], [ 16.015604774381508, 50.624966018673682 ], [ 16.015081829918756, 50.636523983564565 ], [ 16.014563758499705, 50.64808205637582 ], [ 16.014050814150551, 50.659640243664342 ], [ 16.013543263248369, 50.671198552305277 ], [ 15.996239827373865, 50.680753121601981 ], [ 15.993483029426413, 50.682253721714638 ], [ 15.975930557576802, 50.691942728638963 ], [ 15.956369215607554, 50.691435917474671 ], [ 15.93680838465913, 50.690926667751555 ], [ 15.917248072349389, 50.690414902800278 ], [ 15.900993205021537, 50.679829208384724 ], [ 15.898460303228497, 50.678202166559196 ], [ 15.878905973183695, 50.677684252946733 ], [ 15.876175065963386, 50.679166098235143 ], [ 15.875658319759264, 50.690723824948073 ], [ 15.857787675365806, 50.700567903111988 ], [ 15.855596663674001, 50.701755499894361 ], [ 15.855089835281388, 50.713313418521238 ], [ 15.836647019191741, 50.723468674953004 ], [ 15.835034402649468, 50.724341813913625 ], [ 15.834538729384786, 50.735899962230668 ], [ 15.834050570298368, 50.747458298793177 ], [ 15.814687176113152, 50.758116045177964 ], [ 15.795100464806177, 50.757593325727036 ], [ 15.777193281523916, 50.745899303276026 ], [ 15.776320893227551, 50.745337803239408 ], [ 15.756740273216412, 50.74480826457544 ], [ 15.737160230990202, 50.744275694247044 ], [ 15.717580772920734, 50.743740048842177 ], [ 15.698001905153115, 50.743201289194708 ], [ 15.697155637305102, 50.74365755871996 ], [ 15.696655039569142, 50.755215268963809 ], [ 15.676760002069942, 50.766133007876086 ], [ 15.657172413857349, 50.765589647040883 ], [ 15.637585433556621, 50.765043057919605 ], [ 15.637489645592661, 50.765094592071812 ], [ 15.637352026406091, 50.768295589377132 ], [ 15.656866258739162, 50.769880766498055 ], [ 15.676381613438236, 50.771467632155385 ], [ 15.695898200906633, 50.773054658664506 ], [ 15.715416149227369, 50.774640030158331 ], [ 15.734935604722208, 50.77622162600192 ], [ 15.7544567324935, 50.777797003856115 ], [ 15.77397971694546, 50.779363382420314 ], [ 15.793504762281179, 50.780917623895164 ], [ 15.796369831945515, 50.781143192374707 ], [ 15.813031848664819, 50.782459806559714 ], [ 15.832561477980912, 50.783982296332361 ], [ 15.852093961904675, 50.785480100638736 ], [ 15.871629587256214, 50.786948474921594 ], [ 15.891168662069823, 50.788382236327209 ], [ 15.91071151576012, 50.789775747286335 ], [ 15.930258499209994, 50.791122899632377 ], [ 15.949809984768008, 50.792417099465212 ], [ 15.969366366141569, 50.793651253001187 ], [ 15.988928058170693, 50.794817753683333 ], [ 16.008495496466004, 50.79590847085958 ], [ 16.028069136893539, 50.796914740368926 ], [ 16.047649454888212, 50.797827357404636 ], [ 16.067236944577513, 50.798636572048757 ], [ 16.086832117697234, 50.79933208788826 ], [ 16.106435502281997, 50.799903064130753 ], [ 16.126047641115282, 50.80033812163078 ], [ 16.145669089926336, 50.800625353214485 ], [ 16.165300415325529, 50.800752338646966 ], [ 16.184942192474907, 50.800706164518857 ], [ 16.204595002497463, 50.800473449233778 ], [ 16.224259429636856, 50.80004037315269 ], [ 16.243936058188908, 50.79939271379282 ], [ 16.263625469237308, 50.798515885786557 ], [ 16.283328237238287, 50.79739498507962 ], [ 16.303044926512293, 50.796014836588874 ], [ 16.322184854388031, 50.794409936205412 ], [ 16.322776107753757, 50.794359693726896 ], [ 16.342523063685192, 50.792400779147556 ], [ 16.362285698217011, 50.790132916212173 ], [ 16.382064505639462, 50.787540193673422 ], [ 16.401651399201111, 50.784637803977489 ], [ 16.401859964452473, 50.78460648056874 ], [ 16.421673891780426, 50.781290802578894 ], [ 16.441505478990379, 50.77759897094311 ], [ 16.457558315594586, 50.774300213646463 ], [ 16.461355427208371, 50.773509091417615 ], [ 16.481225335177264, 50.76898184235246 ], [ 16.501114037025555, 50.764028474401485 ], [ 16.502340131105665, 50.763698095674521 ], [ 16.521023967039557, 50.758592483138322 ], [ 16.540156427431025, 50.752932090640137 ], [ 16.540953498275929, 50.752692930245054 ], [ 16.560905119640246, 50.746270325559195 ], [ 16.573119763094727, 50.742052958677689 ], [ 16.580877529473515, 50.739336665914692 ], [ 16.600871494311129, 50.731863868081618 ], [ 16.60280288889313, 50.731097157959816 ], [ 16.62088800631809, 50.723818393858579 ], [ 16.629655863378819, 50.720076335330553 ], [ 16.640926266853096, 50.715201153561878 ], [ 16.654474726091546, 50.70900846041787 ], [ 16.660986469127977, 50.705993137544986 ], [ 16.677579189687862, 50.697901196263579 ], [ 16.681068634730792, 50.696178103341815 ], [ 16.699233173110624, 50.686760766535137 ], [ 16.701172584577289, 50.685743294134333 ], [ 16.719655456783215, 50.675592255461588 ], [ 16.721297915982813, 50.674680071917869 ], [ 16.739028097406443, 50.664399838363252 ], [ 16.741443987390021, 50.662984428148988 ], [ 16.757503118601747, 50.653186960473633 ], [ 16.761609911909378, 50.650657339684166 ], [ 16.775207863080428, 50.641956476810975 ], [ 16.781794560329121, 50.637704945825057 ], [ 16.792249297376621, 50.630710762409919 ], [ 16.801996573671548, 50.624138532669718 ], [ 16.808717490813684, 50.619451799783846 ], [ 16.822214384768067, 50.60997432279796 ], [ 16.82468843900098, 50.60818124874406 ], [ 16.840170703215055, 50.59689947002969 ], [ 16.842446203865052, 50.59523404016231 ], [ 16.855215013393654, 50.585607590487108 ], [ 16.862689860759907, 50.579948678380262 ], [ 16.869936093793161, 50.574307876552986 ], [ 16.882943258367042, 50.564148858450167 ], [ 16.88437471017884, 50.563001189839653 ], [ 16.898470825502073, 50.551686549959221 ], [ 16.903203538207286, 50.547883624404747 ], [ 16.912331154732968, 50.540365993495477 ], [ 16.923468618580863, 50.531186377015828 ], [ 16.926012300643876, 50.529040611889357 ], [ 16.939461226694089, 50.517709528162698 ], [ 16.943735434528563, 50.514114558274322 ], [ 16.95273837916945, 50.506373884848877 ], [ 16.964001931504303, 50.49670456630956 ], [ 16.96590706214338, 50.495034846213727 ], [ 16.978899255200183, 50.483691266748842 ], [ 16.984264816893141, 50.479023476495797 ], [ 16.99179191274909, 50.472344532749133 ], [ 17.004523117864398, 50.461086175569982 ], [ 17.004623936158794, 50.460995343716739 ], [ 17.017306708755566, 50.449642208775352 ], [ 17.024772462229667, 50.442989861242204 ], [ 17.029956545018418, 50.438287145723301 ], [ 17.042548178624148, 50.426929739579244 ], [ 17.025461273166592, 50.426439517899802 ], [ 17.006003169403005, 50.425889614740967 ], [ 16.986545126242071, 50.425347895023663 ], [ 16.967087155805292, 50.424813830983709 ], [ 16.965669875310702, 50.425610532447479 ], [ 16.94712380207994, 50.435973563954406 ], [ 16.945602754272173, 50.436827921489297 ], [ 16.927150907478602, 50.447133676720831 ], [ 16.925532806504251, 50.44804183009353 ], [ 16.907168460059065, 50.4582942069149 ], [ 16.890304005089838, 50.447408248320912 ], [ 16.888217161762295, 50.446096879804529 ], [ 16.871799603490658, 50.435500981255259 ], [ 16.872506466535548, 50.423943702767211 ], [ 16.869798847261908, 50.422240587424383 ], [ 16.853983097163908, 50.412033131847387 ], [ 16.870677754124522, 50.402644157016184 ], [ 16.873913461176947, 50.400828956028995 ], [ 16.890648436085989, 50.391407150114958 ], [ 16.893829599516167, 50.389621139780878 ], [ 16.91060982153229, 50.380163737846722 ], [ 16.913731592101215, 50.378409690932102 ], [ 16.914428852955048, 50.36685194946169 ], [ 16.915124340301119, 50.355294153854153 ], [ 16.931557354651115, 50.346021282960471 ], [ 16.935009885722394, 50.344078816301192 ], [ 16.935702567917971, 50.332520837803379 ], [ 16.936393712455789, 50.320962809616539 ], [ 16.952474055900613, 50.311878663485906 ], [ 16.956263871532297, 50.309743609448276 ], [ 16.972387188209201, 50.300625914912224 ], [ 16.991809303118508, 50.300808232175498 ], [ 16.995275724033483, 50.298852823180155 ], [ 17.011708956561172, 50.289541108873763 ], [ 17.015106647178314, 50.287622966330098 ], [ 17.015795392184703, 50.276064453510898 ], [ 17.016482631814512, 50.26450589231235 ], [ 17.012846958135253, 50.262220407442321 ], [ 16.998023306979864, 50.252618952791593 ], [ 16.998706838547932, 50.241060370736747 ], [ 17.014089420873098, 50.232343537900782 ], [ 17.018535937968181, 50.229829929134411 ], [ 17.014304432762462, 50.2271681280263 ], [ 16.994924555665996, 50.226691853000311 ], [ 16.990230885248756, 50.229343651576187 ], [ 16.989942804622213, 50.240909057447112 ], [ 16.974555151149062, 50.249574373139751 ], [ 16.960377498760341, 50.240393722186873 ], [ 16.961059075499538, 50.228835258371255 ], [ 16.956165292489544, 50.225751998847052 ], [ 16.936785931924963, 50.225287571421873 ], [ 16.917406768733226, 50.22482627853973 ], [ 16.898027815144125, 50.224367746212259 ], [ 16.884954960052418, 50.215903872245455 ], [ 16.885636784677601, 50.204345715379731 ], [ 16.879683479172161, 50.200585372417407 ], [ 16.860314219534985, 50.200135833434985 ], [ 16.853874081742461, 50.20376309291936 ], [ 16.840418946293365, 50.211346494536578 ], [ 16.827963003736457, 50.203281365025326 ], [ 16.828648266191752, 50.191723509022829 ], [ 16.822107006188659, 50.187584362328991 ], [ 16.802743161180214, 50.187140391505729 ], [ 16.790857334433561, 50.179439963656414 ], [ 16.791545411834221, 50.167882290117532 ], [ 16.792233093135653, 50.156324587176471 ], [ 16.784996870547221, 50.151737870303599 ], [ 16.773680651421355, 50.144399462336565 ], [ 16.766190503175849, 50.139648264690734 ], [ 16.746846067641901, 50.13921160704745 ], [ 16.73588147186987, 50.132097466907801 ], [ 16.736575155197762, 50.120540075122761 ], [ 16.728605412017096, 50.115477146248693 ], [ 16.718023610222151, 50.108605841071856 ], [ 16.709826705577772, 50.103394739657439 ], [ 16.690497155511039, 50.102960280962044 ], [ 16.671167960653182, 50.102524756006453 ], [ 16.662313042182006, 50.107497015644611 ], [ 16.651269430078237, 50.113731892574584 ], [ 16.631936337650675, 50.113292714362458 ] ] ] ] } }
]
}
