{
"type": "FeatureCollection",
"name": "martwe_drewno_cykl2_perc95",
"crs": { "type": "name", "properties": { "name": "urn:ogc:def:crs:OGC:1.3:CRS84" } },
"features": [
{ "type": "Feature", "properties": { "cykl": 2, "typ_martwego_drewna": "wszystkie", "percentyl": 95, "prog_zasobnosci_m3ha": 9.0803812849730399, "srednia_krajowa_m3ha": 4.4340872578682671, "max_zasobnosci_m3ha": 27.496120170388267, "n_traktow": 8978, "wiarygodne": true }, "geometry": { "type": "MultiPolygon", "coordinates": [ [ [ [ 23.471635903123676, 52.591261647107657 ], [ 23.467699079877274, 52.600474688507333 ], [ 23.466581020120515, 52.603026426874521 ], [ 23.461812108735511, 52.614780145842403 ], [ 23.45739220154422, 52.626520466256345 ], [ 23.45332021610054, 52.638247472617849 ], [ 23.451634736196997, 52.643591150987262 ], [ 23.449569246776438, 52.64996221769281 ], [ 23.446155361667575, 52.66166413223872 ], [ 23.443105831178976, 52.673352225591721 ], [ 23.44042488671812, 52.685026371853645 ], [ 23.438118249851417, 52.696686386252949 ], [ 23.43715403188402, 52.702585647144339 ], [ 23.436181744983703, 52.708332452049845 ], [ 23.434629586747274, 52.719964059562251 ], [ 23.433483369245, 52.731580420023874 ], [ 23.432753458661651, 52.743181162265365 ], [ 23.432451536558435, 52.754765861969787 ], [ 23.432590565778344, 52.766334042601095 ], [ 23.433184758789643, 52.777885176157163 ], [ 23.434249548498414, 52.789418683743889 ], [ 23.435801561663219, 52.800933935962583 ], [ 23.437858595150161, 52.812430253098555 ], [ 23.440439595374279, 52.823906905093899 ], [ 23.4435646413847, 52.835363111282959 ], [ 23.447254932163286, 52.846798039863899 ], [ 23.45153277882175, 52.858210807074869 ], [ 23.453522632028502, 52.862895621231552 ], [ 23.456422354866625, 52.869600447748624 ], [ 23.461950782631728, 52.880965872894883 ], [ 23.468144384343404, 52.89230600901687 ], [ 23.475030491008315, 52.903619728560457 ], [ 23.478892613507917, 52.909411889867656 ], [ 23.482644811331621, 52.914905569527299 ], [ 23.491022134339623, 52.926162083161273 ], [ 23.500187466699298, 52.937388168329669 ], [ 23.502688150147289, 52.940243639721018 ], [ 23.510196890464165, 52.94858151955205 ], [ 23.521075854839573, 52.959740963560783 ], [ 23.525808100262861, 52.964281616213924 ], [ 23.532880715227169, 52.970864118525675 ], [ 23.545647512352279, 52.981949338538037 ], [ 23.548533760004712, 52.984319559838838 ], [ 23.559448353608428, 52.992993554061869 ], [ 23.570989398247324, 53.001599730991465 ], [ 23.574313561470518, 53.003995247950257 ], [ 23.590324007813344, 53.014950905102303 ], [ 23.593248595430278, 53.016859012083813 ], [ 23.6075487763278, 53.025857393930252 ], [ 23.615354931456743, 53.030537199337488 ], [ 23.626047041628635, 53.036711894015802 ], [ 23.637340337404272, 53.042956049357166 ], [ 23.645901407125212, 53.047510592261787 ], [ 23.659225616094638, 53.054327436143502 ], [ 23.667201237298901, 53.058249311028682 ], [ 23.681026647383163, 53.064813424366328 ], [ 23.69004282870533, 53.068923485247318 ], [ 23.702755679682838, 53.074539440409701 ], [ 23.714529729749014, 53.079528131445919 ], [ 23.72442223950204, 53.083603528946441 ], [ 23.7407732279718, 53.090057807469947 ], [ 23.746033784388434, 53.092082984640776 ], [ 23.767596465126328, 53.100041760368228 ], [ 23.768902469201549, 53.100506182270657 ], [ 23.789116687679297, 53.107544834018348 ], [ 23.799091355132237, 53.110864909683549 ], [ 23.810597315970774, 53.114624257710183 ], [ 23.831442956526189, 53.121128248277515 ], [ 23.832041265077521, 53.121311911000511 ], [ 23.853455018910207, 53.127670659101518 ], [ 23.866207173254931, 53.131284216090918 ], [ 23.874837735891692, 53.133697620168398 ], [ 23.896193125671253, 53.139429882952236 ], [ 23.895301084964029, 53.130088818170492 ], [ 23.895118598428144, 53.129999956534476 ], [ 23.873476677958763, 53.119411061343733 ], [ 23.872376512659816, 53.107881054912269 ], [ 23.871274545130859, 53.096351116511315 ], [ 23.870170647250269, 53.084821251345623 ], [ 23.869064693039444, 53.073291464529532 ], [ 23.88735917444194, 53.061745753642164 ], [ 23.888659365322571, 53.060910957097057 ], [ 23.887545035271067, 53.049381596914877 ], [ 23.905339395891314, 53.038142490914183 ], [ 23.907119223575936, 53.036998571769068 ], [ 23.905995971721705, 53.025469663672176 ], [ 23.923299928146523, 53.014531102572541 ], [ 23.925548930371161, 53.013084162647296 ], [ 23.924416291291553, 53.001555729007933 ], [ 23.923280850181463, 52.990027405781831 ], [ 23.92214252325395, 52.978499196378792 ], [ 23.938628612480635, 52.968064911194929 ], [ 23.941659637313485, 52.96611202608284 ], [ 23.940511268986434, 52.954584322610735 ], [ 23.936886843980798, 52.952813771916546 ], [ 23.918709453629077, 52.943915282524486 ], [ 23.917558830132478, 52.932387558964479 ], [ 23.916404964263577, 52.920859963660106 ], [ 23.915247796108897, 52.909332499019847 ], [ 23.914087269004327, 52.897805167315738 ], [ 23.912923329226384, 52.886277970696341 ], [ 23.911755925650741, 52.874750911200877 ], [ 23.910585009380181, 52.863223990774713 ], [ 23.909410533343774, 52.851697211286023 ], [ 23.924306784591078, 52.842247590035669 ], [ 23.928848766550114, 52.839314397110982 ], [ 23.927663549620711, 52.82778815890844 ], [ 23.926474713007231, 52.816262064652918 ], [ 23.925282216607521, 52.804736115925884 ], [ 23.93957140185686, 52.795657710628831 ], [ 23.944683267793913, 52.792351761288089 ], [ 23.943480063675761, 52.780826357279928 ], [ 23.942273163101813, 52.769301100855486 ], [ 23.941062524916862, 52.757775993642696 ], [ 23.939848105280625, 52.746251037380141 ], [ 23.938629857069877, 52.734726233941899 ], [ 23.937407729263214, 52.723201585363086 ], [ 23.936181666308546, 52.711677093866193 ], [ 23.929697766139235, 52.708489811480398 ], [ 23.91437774689307, 52.701009415281575 ], [ 23.908004217819922, 52.697873617275768 ], [ 23.892567979418978, 52.690338129244793 ], [ 23.886322170753886, 52.687262454053467 ], [ 23.870751318997392, 52.67966327421265 ], [ 23.864651671557013, 52.676656920919186 ], [ 23.848926646385106, 52.668984890933601 ], [ 23.842992770311245, 52.666057659576779 ], [ 23.827092766211841, 52.658303022451776 ], [ 23.821345520569995, 52.655465355382134 ], [ 23.805248406094847, 52.647617714072659 ], [ 23.799709979305707, 52.644880737896699 ], [ 23.783392216915274, 52.636929013280685 ], [ 23.782139640182287, 52.625404690571187 ], [ 23.776827858259971, 52.622776559385272 ], [ 23.760264471704158, 52.614712741258558 ], [ 23.755222808947558, 52.61221606047102 ], [ 23.734874224096284, 52.613180956123131 ], [ 23.71452504175285, 52.614147168406419 ], [ 23.694175273707774, 52.61511483091747 ], [ 23.673824931423137, 52.616084076497494 ], [ 23.653474025969643, 52.617055036623555 ], [ 23.635093815013704, 52.608112911659859 ], [ 23.631906332382968, 52.606528621464236 ], [ 23.611560018253151, 52.607506847865025 ], [ 23.592428372010296, 52.598204046310194 ], [ 23.590009675363579, 52.597000138052422 ], [ 23.569668027577105, 52.597986660207262 ], [ 23.549701460331889, 52.588282413321451 ], [ 23.548135170520727, 52.587501668648322 ], [ 23.52766042505678, 52.577554901247865 ], [ 23.526614660783061, 52.577033163521158 ], [ 23.505592217726118, 52.566824468783246 ], [ 23.505106543381796, 52.566581950214399 ], [ 23.484780131424809, 52.567592147910283 ], [ 23.482738396398869, 52.567693627269335 ], [ 23.477014226109112, 52.579484346726375 ], [ 23.471635903123676, 52.591261647107657 ] ] ], [ [ [ 22.835013847223667, 49.018240140024581 ], [ 22.816132955606399, 49.018875458203489 ], [ 22.804172388223503, 49.026962000242079 ], [ 22.798134103622168, 49.031090354955396 ], [ 22.786237867278416, 49.039127754234173 ], [ 22.78012642655689, 49.043302570879646 ], [ 22.768294483109724, 49.051290914557377 ], [ 22.762109919098819, 49.055512114327414 ], [ 22.755289569912819, 49.051715411242874 ], [ 22.742342703203441, 49.044553993381513 ], [ 22.723449883577512, 49.045175269529288 ], [ 22.704556429862652, 49.045793595086558 ], [ 22.697756372113215, 49.042000820179425 ], [ 22.684805260298784, 49.034824483382728 ], [ 22.672974372902726, 49.042793291965779 ], [ 22.666767633958454, 49.04702141560044 ], [ 22.647872298736885, 49.04763092238742 ], [ 22.636120785810814, 49.055536661651658 ], [ 22.637024749711397, 49.067082891967551 ], [ 22.630665887650942, 49.071407463842824 ], [ 22.619036875782566, 49.079223762026693 ], [ 22.612601758026429, 49.083596612828423 ], [ 22.601040330631161, 49.09136200591324 ], [ 22.594528784538348, 49.095783204071857 ], [ 22.575613532913238, 49.096382814858785 ], [ 22.568438979684959, 49.092375725881531 ], [ 22.555869113041425, 49.085394152933766 ], [ 22.544350720559979, 49.093118795031096 ], [ 22.537781215287566, 49.097573446351369 ], [ 22.530569222980336, 49.093541653010391 ], [ 22.51804433234566, 49.086578180161581 ], [ 22.499131048096711, 49.087165928148643 ], [ 22.480217173038987, 49.087750849573105 ], [ 22.46876146498451, 49.095417778015189 ], [ 22.462109428612752, 49.099920680119993 ], [ 22.443190014668279, 49.100500478406047 ], [ 22.424270021745762, 49.101077503642408 ], [ 22.405349453894797, 49.101651773151808 ], [ 22.394021372120257, 49.109216332062019 ], [ 22.394872292945355, 49.120765537765259 ], [ 22.388008207474858, 49.12540104844043 ], [ 22.376813214559636, 49.132869970442677 ], [ 22.377659564194332, 49.144419379621958 ], [ 22.370650774309087, 49.149147434103227 ], [ 22.351711001862768, 49.149715634166114 ], [ 22.34401102457268, 49.145399885504268 ], [ 22.331992688487361, 49.138692168682432 ], [ 22.313056184851664, 49.139254590233065 ], [ 22.294119131892888, 49.139814416517758 ], [ 22.275181534043469, 49.140371674348309 ], [ 22.264181357914399, 49.14768671272941 ], [ 22.257003857990519, 49.152517623941073 ], [ 22.238060803969649, 49.153070409623162 ], [ 22.22717283945936, 49.16030199532301 ], [ 22.227987628506025, 49.171853101878142 ], [ 22.228802050184274, 49.183404199756147 ], [ 22.221375010850092, 49.188394479060371 ], [ 22.213258031483374, 49.183838176213428 ], [ 22.201669085385525, 49.177352866436742 ], [ 22.18271568420338, 49.177899564599009 ], [ 22.172036356071366, 49.184978885047371 ], [ 22.164501647259254, 49.190036407023292 ], [ 22.145542829393598, 49.190579090370989 ], [ 22.134991317451217, 49.197565134885608 ], [ 22.127315045033107, 49.202712694843655 ], [ 22.108350827473757, 49.203251568506197 ], [ 22.089386112748546, 49.203788290336625 ], [ 22.07901025467039, 49.210646130470671 ], [ 22.071139702843553, 49.215917473697957 ], [ 22.052169615557602, 49.216450707171724 ], [ 22.041941291061054, 49.223202766047628 ], [ 22.042717109515447, 49.234755829340337 ], [ 22.043492546843314, 49.246308883204371 ], [ 22.044267636132727, 49.257861926784862 ], [ 22.036043332298213, 49.2633601047214 ], [ 22.026103622393364, 49.269912984433546 ], [ 22.026874471240173, 49.281466196843745 ], [ 22.018470576304516, 49.287079501626302 ], [ 22.008700488556642, 49.293514650152829 ], [ 22.000176814629253, 49.299204734719957 ], [ 21.990520629331428, 49.305560312353435 ], [ 21.981874184855123, 49.3113291397041 ], [ 21.972335060648536, 49.317603176749628 ], [ 21.973094231778411, 49.329156899615981 ], [ 21.973853337130528, 49.340710604577232 ], [ 21.964956362575219, 49.346640120087258 ], [ 21.945934941177057, 49.347170041035149 ], [ 21.926913068464735, 49.347698425658137 ], [ 21.907890748771969, 49.348225322746771 ], [ 21.898794571525311, 49.354192115416545 ], [ 21.889547756246913, 49.360346740694411 ], [ 21.880586625666371, 49.366220730264658 ], [ 21.871195887317558, 49.372467934430581 ], [ 21.85216339092679, 49.372992133540727 ], [ 21.843422745391042, 49.378714545234075 ], [ 21.844156831302485, 49.390269449074836 ], [ 21.834465510931178, 49.396710092527769 ], [ 21.823876228821277, 49.390766961708344 ], [ 21.814759988357693, 49.38563513264809 ], [ 21.804146906884259, 49.379674614237551 ], [ 21.79506333066395, 49.37455724460559 ], [ 21.784425635659233, 49.368578739725685 ], [ 21.775375525792082, 49.363476309375208 ], [ 21.766923923343189, 49.36899927976566 ], [ 21.767644109655816, 49.380554902145157 ], [ 21.757644088040792, 49.387195520889044 ], [ 21.749423104394644, 49.392562818493978 ], [ 21.739250163611842, 49.399314736641621 ], [ 21.731198245811669, 49.404567873512946 ], [ 21.720847352853994, 49.411434305143423 ], [ 21.712969682802484, 49.416570062304217 ], [ 21.702435651039703, 49.42355431105981 ], [ 21.690926554387385, 49.41708549931716 ], [ 21.682748592646526, 49.41246812383644 ], [ 21.66369859515159, 49.412983465240345 ], [ 21.656161141626004, 49.417889861644063 ], [ 21.656861546547944, 49.429446396404636 ], [ 21.645896867515791, 49.436707935120175 ], [ 21.638625383360207, 49.441436809392215 ], [ 21.627457645696264, 49.448828713794867 ], [ 21.61525975063752, 49.441967908725658 ], [ 21.607777035788125, 49.437736825242858 ], [ 21.588716499581764, 49.438249591531715 ], [ 21.569655547069281, 49.438761161374416 ], [ 21.550594175464909, 49.439271460642658 ], [ 21.531532381391578, 49.439780401498581 ], [ 21.518691600267527, 49.432540287618828 ], [ 21.518186034083115, 49.42097886736601 ], [ 21.511283684608276, 49.41706405742022 ], [ 21.504795951068139, 49.421269862632286 ], [ 21.492818530064774, 49.429180953513928 ], [ 21.479763085779354, 49.42180971260845 ], [ 21.473175711076959, 49.418069788721034 ], [ 21.454121063075902, 49.418569855396214 ], [ 21.43506596612124, 49.419067842341349 ], [ 21.416010413506729, 49.419563570537193 ], [ 21.410262769273931, 49.42328006355546 ], [ 21.397520819841397, 49.431675881314113 ], [ 21.378459897097059, 49.432167771506769 ], [ 21.373112665819519, 49.435621085579243 ], [ 21.359956384269076, 49.444277968627979 ], [ 21.354860490561141, 49.44756658651778 ], [ 21.341443844936794, 49.456387305010423 ], [ 21.322372581834099, 49.456872631084309 ], [ 21.303300817045979, 49.457354449422141 ], [ 21.284228542172237, 49.457832498716201 ], [ 21.269178807989469, 49.449280315103252 ], [ 21.264619733685809, 49.446678937010326 ], [ 21.249528486980608, 49.438092317676279 ], [ 21.245019604233367, 49.435517610446503 ], [ 21.225954631642335, 49.435979726287606 ], [ 21.21068027588457, 49.427269776004486 ], [ 21.210279030183532, 49.415705397630944 ], [ 21.209879223516428, 49.404140971496489 ], [ 21.205323848559015, 49.401535060606406 ], [ 21.186271084745005, 49.40198227406659 ], [ 21.18209224381539, 49.404668950078936 ], [ 21.167730359926541, 49.414061915581279 ], [ 21.163803405982467, 49.41658482042191 ], [ 21.149180513408371, 49.426138344102128 ], [ 21.14550514714302, 49.42849790444604 ], [ 21.130621531198646, 49.438211367494048 ], [ 21.114660343812567, 49.429066302583017 ], [ 21.111053351824122, 49.426998792075082 ], [ 21.091988921746687, 49.427419548048206 ], [ 21.072923923942998, 49.427833733878174 ], [ 21.053858358677186, 49.428241180878558 ], [ 21.037592680850668, 49.418878619366993 ], [ 21.03725593815728, 49.40731268686902 ], [ 21.052581651269435, 49.397645239110446 ], [ 21.056073663010675, 49.395407562106854 ], [ 21.071157988404483, 49.385889274214932 ], [ 21.09021251406859, 49.385610757884216 ], [ 21.094041835212639, 49.383153886246681 ], [ 21.093688972468225, 49.371588286430303 ], [ 21.089516034862633, 49.369192076062326 ], [ 21.070473202886497, 49.369597829499114 ], [ 21.05142981289751, 49.369996881797555 ], [ 21.035925628676786, 49.361048457526429 ], [ 21.031905420610229, 49.358735870693678 ], [ 21.016478382864495, 49.349817513334109 ], [ 21.012389610851724, 49.347463698537673 ], [ 20.997052667078439, 49.338582943021194 ], [ 20.992882389083729, 49.3361803841605 ], [ 20.977648337881924, 49.327344759158386 ], [ 20.99215610765761, 49.318189981421547 ], [ 20.996432556400006, 49.315449707703657 ], [ 20.991941105105443, 49.312860786316733 ], [ 20.972917683909696, 49.313224184085797 ], [ 20.957971175526108, 49.304535993107208 ], [ 20.953432360154185, 49.301916474963477 ], [ 20.934412342714037, 49.302264724237887 ], [ 20.915391827596007, 49.302606237047989 ], [ 20.911148578913444, 49.305320092905426 ], [ 20.911764991603764, 49.316881810777268 ], [ 20.89726723037381, 49.326277114945697 ], [ 20.893387208470426, 49.328756334114743 ], [ 20.878681004197873, 49.338276002867296 ], [ 20.874997309146966, 49.340628069630107 ], [ 20.860085657544733, 49.350269962553462 ], [ 20.844412989223699, 49.34112031238309 ], [ 20.840609956434715, 49.338920516673056 ], [ 20.821573748445552, 49.339233105847534 ], [ 20.817955904006276, 49.341539592970115 ], [ 20.802963666555495, 49.351211320790917 ], [ 20.799528458618937, 49.353399782454737 ], [ 20.784344470144053, 49.363184679752663 ], [ 20.781088954021602, 49.365257159618459 ], [ 20.76571615585274, 49.37515319371262 ], [ 20.762637406426673, 49.37711171889201 ], [ 20.763226191871105, 49.388674380404787 ], [ 20.763814041320476, 49.400237033254172 ], [ 20.747907205381697, 49.410459327462171 ], [ 20.745342425999091, 49.412089001751291 ], [ 20.729252153688062, 49.422418434784511 ], [ 20.710182099976418, 49.422701685738211 ], [ 20.691111662202662, 49.422979310873146 ], [ 20.674334903611278, 49.41313927229929 ], [ 20.671644222712324, 49.411578229083084 ], [ 20.655071093669111, 49.401845177905123 ], [ 20.652185656962633, 49.400169876221938 ], [ 20.649415372069967, 49.401926016886236 ], [ 20.633510547407376, 49.412105923972952 ], [ 20.630899024661659, 49.413760215608448 ], [ 20.614826328582918, 49.424037627992753 ], [ 20.598133356175762, 49.414217815329927 ], [ 20.597939169688729, 49.402649052948043 ], [ 20.597746237998738, 49.391080251759931 ], [ 20.594618993053647, 49.389261352437956 ], [ 20.578524213808802, 49.379772875111335 ], [ 20.575186600835508, 49.377830152091903 ], [ 20.556131858675112, 49.378072576113105 ], [ 20.552895158406304, 49.380120045621304 ], [ 20.537441260973075, 49.389989875338898 ], [ 20.53435770909336, 49.391939044348518 ], [ 20.518741588685362, 49.401903401646464 ], [ 20.515810016342598, 49.403755149833501 ], [ 20.500032838830599, 49.41381321787847 ], [ 20.480963482647439, 49.414041833424612 ], [ 20.461893875434061, 49.414267120961362 ], [ 20.442824024933, 49.414489223652396 ], [ 20.426601887311016, 49.404890437543038 ], [ 20.423416177244345, 49.403029592711853 ], [ 20.407418257578939, 49.393554265673359 ], [ 20.404017340594233, 49.391566214400271 ], [ 20.384955841173483, 49.391779350865434 ], [ 20.381642542924709, 49.393865209802371 ], [ 20.366218129568132, 49.403669360955604 ], [ 20.347151684228518, 49.403877298679944 ], [ 20.328085032772506, 49.404082725330554 ], [ 20.312236297637515, 49.39467390190844 ], [ 20.312113425000366, 49.383104036114013 ], [ 20.311991475954894, 49.371534137816077 ], [ 20.311870405644179, 49.35996420752258 ], [ 20.311750166095443, 49.348394245776767 ], [ 20.307467841694745, 49.345882139876252 ], [ 20.30332119924493, 49.348489606371288 ], [ 20.28872854813984, 49.357764378328284 ], [ 20.273702347232479, 49.348819819994077 ], [ 20.269378702259356, 49.346280922863031 ], [ 20.265188118418749, 49.348913337946485 ], [ 20.250630006301879, 49.358158614271019 ], [ 20.235647836881064, 49.349232935126786 ], [ 20.231288806020199, 49.346670683277544 ], [ 20.212243581716411, 49.346862256454379 ], [ 20.193198176919658, 49.347051651721138 ], [ 20.178463561421783, 49.338258892920685 ], [ 20.173874648511855, 49.335556772241304 ], [ 20.159348354048031, 49.326880958848243 ], [ 20.173460700480128, 49.318144353944355 ], [ 20.178286928566841, 49.315118111269186 ], [ 20.173319274995045, 49.312191524067536 ], [ 20.154287031548719, 49.312376573949699 ], [ 20.140161749320775, 49.303929267291352 ], [ 20.134986186967396, 49.30087637427971 ], [ 20.121066212474197, 49.292544797038438 ], [ 20.120992472429187, 49.280974178557784 ], [ 20.120919023673903, 49.269403534885456 ], [ 20.115167314669627, 49.26600657251246 ], [ 20.10184001294019, 49.258015704567093 ], [ 20.101771263491631, 49.246444970537908 ], [ 20.101702596721083, 49.234874213318442 ], [ 20.101633945648292, 49.223303433545787 ], [ 20.095118459890159, 49.219449658043409 ], [ 20.082575134725694, 49.211912194013216 ], [ 20.082510609135753, 49.200341330434306 ], [ 20.082445888837128, 49.188770446241286 ], [ 20.075361083511861, 49.184574737716716 ], [ 20.056377326008825, 49.18474853394104 ], [ 20.049473205177087, 49.189074802171021 ], [ 20.037637748414124, 49.196603508143092 ], [ 20.030914405303459, 49.200813430269989 ], [ 20.018889224173751, 49.208456255100018 ], [ 20.012348094058943, 49.212549098319052 ], [ 20.000131746196431, 49.220306745427543 ], [ 19.993774224811645, 49.224281803593335 ], [ 19.981365307353801, 49.232154946038833 ], [ 19.962362838945889, 49.232316698584341 ], [ 19.943360213796741, 49.232475925199694 ], [ 19.924357433708455, 49.23263258307712 ], [ 19.905354500518751, 49.232786627761989 ], [ 19.892622805890642, 49.225107782590769 ], [ 19.892602592929471, 49.213536592348646 ], [ 19.885933555701861, 49.209569213294323 ], [ 19.873583749163235, 49.202110645667858 ], [ 19.86673502527297, 49.198033335697161 ], [ 19.847745071299101, 49.198178911141277 ], [ 19.828754972182153, 49.198321664464459 ], [ 19.822062773940726, 49.202488850523281 ], [ 19.80995556267635, 49.210146249373928 ], [ 19.797583638244973, 49.202660491332615 ], [ 19.790774347319822, 49.198598519437454 ], [ 19.784096058349427, 49.202752845219621 ], [ 19.771965712813259, 49.21041749807879 ], [ 19.765480066321267, 49.214449040788971 ], [ 19.765847670290214, 49.226017894660743 ], [ 19.766215680312555, 49.237586722081744 ], [ 19.772447047989367, 49.241303414246261 ], [ 19.785584322943297, 49.249027881408587 ], [ 19.785957247837977, 49.260596575235546 ], [ 19.791820428090769, 49.264090191176912 ], [ 19.805339438763632, 49.272034308732799 ], [ 19.811023867752212, 49.275418880923674 ], [ 19.824730647110592, 49.283468719794563 ], [ 19.811294894011692, 49.29194076348621 ], [ 19.806094720636125, 49.295171405417612 ], [ 19.806472438500546, 49.30673991761293 ], [ 19.806850126220269, 49.318308406282078 ], [ 19.807227723838285, 49.329876871847055 ], [ 19.807605172507699, 49.341445314722797 ], [ 19.807982414680627, 49.35301373531582 ], [ 19.808359394303327, 49.364582134022818 ], [ 19.808736057017228, 49.376150511229326 ], [ 19.793770608477125, 49.385551017648602 ], [ 19.790060459771155, 49.387850633357843 ], [ 19.790432069188959, 49.39941905136407 ], [ 19.790803215857824, 49.410987448827363 ], [ 19.775259776088717, 49.420734399636878 ], [ 19.759387723614996, 49.411198040670946 ], [ 19.756004186405139, 49.409186441968167 ], [ 19.740314415189467, 49.399750818574638 ], [ 19.736757615340501, 49.397634626348506 ], [ 19.721250976035837, 49.388300380743416 ], [ 19.71752005798653, 49.386078931014623 ], [ 19.713854511200104, 49.388346286935814 ], [ 19.698622766386695, 49.397886698126776 ], [ 19.695153338247881, 49.400031163901879 ], [ 19.679716407651096, 49.409691249631031 ], [ 19.660644140759175, 49.409809463909248 ], [ 19.641571750336492, 49.409924373231611 ], [ 19.638321633219146, 49.411929762344215 ], [ 19.63865841811004, 49.423498754945925 ], [ 19.641772942793676, 49.425355670293762 ], [ 19.658064058789908, 49.434960786001767 ], [ 19.642028960016773, 49.444972799912826 ], [ 19.639330475762453, 49.446636677322601 ], [ 19.623090922071182, 49.456767054546454 ], [ 19.604000175524487, 49.456876002859332 ], [ 19.584909313378237, 49.456981483325812 ], [ 19.582429254507538, 49.458507996289306 ], [ 19.582751286059274, 49.470077115404429 ], [ 19.566087497110555, 49.480447521521391 ], [ 19.563984235181039, 49.481740856242745 ], [ 19.564300930207782, 49.493310000940539 ], [ 19.564617041807661, 49.50487912477891 ], [ 19.547378057238728, 49.515589610504293 ], [ 19.54583077442927, 49.516539921350876 ], [ 19.546141575680014, 49.528109069028346 ], [ 19.546451810231058, 49.53967819568917 ], [ 19.546761488423304, 49.551247301290914 ], [ 19.528768015918004, 49.562404465131486 ], [ 19.527951579968288, 49.562905185436549 ], [ 19.528256161846699, 49.574474312211187 ], [ 19.509879062875214, 49.585855423336007 ], [ 19.490737611780816, 49.585945785967233 ], [ 19.490303225855147, 49.586211799547186 ], [ 19.471708677575307, 49.597711351136972 ], [ 19.471464910267116, 49.597860520868117 ], [ 19.471756374346516, 49.609429764553056 ], [ 19.471862661375109, 49.613668185897126 ], [ 19.491023569257656, 49.614431427029849 ], [ 19.510185747476289, 49.615258182027681 ], [ 19.529349238931633, 49.616145472580278 ], [ 19.548514074605926, 49.617089673148413 ], [ 19.567680272408655, 49.618086521061414 ], [ 19.586847836119265, 49.619131132796198 ], [ 19.606016754443868, 49.620218026433932 ], [ 19.608479335394598, 49.620362286172757 ], [ 19.625187300517037, 49.621364621377438 ], [ 19.64435920807939, 49.622545359278234 ], [ 19.663532372731176, 49.623749556520778 ], [ 19.682706714740537, 49.624969495870758 ], [ 19.70188213630993, 49.626197046749468 ], [ 19.721058521595442, 49.627423721940197 ], [ 19.740235736924365, 49.628640738544242 ], [ 19.759413631214265, 49.629839082624621 ], [ 19.777175665347958, 49.630923169379265 ], [ 19.778592070813669, 49.631011723635709 ], [ 19.797771268170962, 49.6321734977533 ], [ 19.816950603237636, 49.633288076875111 ], [ 19.836129858319541, 49.634345973423009 ], [ 19.855308803031107, 49.635337828068046 ], [ 19.87448719591287, 49.636254485864193 ], [ 19.893664786216888, 49.637087071651415 ], [ 19.912841315846723, 49.637827064125574 ], [ 19.93201652143761, 49.638466368014939 ], [ 19.951190136561401, 49.638997383852463 ], [ 19.970361894040508, 49.639413074890214 ], [ 19.98953152835464, 49.639707030763049 ], [ 20.008698778124376, 49.639873527574686 ], [ 20.027863388655781, 49.639907584148283 ], [ 20.047025114531127, 49.639805014253888 ], [ 20.066183722231589, 49.639562474696881 ], [ 20.08533899277905, 49.639177509222414 ], [ 20.104490724385528, 49.638648588260224 ], [ 20.123638735100368, 49.637975144601633 ], [ 20.142782865447238, 49.637157605162663 ], [ 20.161922981044633, 49.636197419046368 ], [ 20.181058975205818, 49.635097082168606 ], [ 20.200190771515963, 49.633860158756647 ], [ 20.219318326386244, 49.632491300065588 ], [ 20.238441631586458, 49.630996260684306 ], [ 20.257560716759421, 49.629381912817401 ], [ 20.27667565192171, 49.627656258932404 ], [ 20.290452545187566, 49.626339380187453 ], [ 20.295786806224626, 49.625838103721499 ], [ 20.314894804236861, 49.623954648922783 ], [ 20.333999190872728, 49.621992003114265 ], [ 20.353100214902533, 49.619962468208605 ], [ 20.372198176874175, 49.617879505931683 ], [ 20.391293431643032, 49.615757748200693 ], [ 20.410386390922778, 49.613613007414216 ], [ 20.412820033578445, 49.613339604556295 ], [ 20.429478558154294, 49.611497578432711 ], [ 20.448569588679092, 49.609398659620851 ], [ 20.467659916733954, 49.607330051725029 ], [ 20.486750191972419, 49.605311932922064 ], [ 20.505841132559478, 49.603365687717087 ], [ 20.524933527579297, 49.60151390878552 ], [ 20.540014522744798, 49.600146037341787 ], [ 20.544028444359128, 49.59978688665317 ], [ 20.563127290635123, 49.598224084857371 ], [ 20.582230296933346, 49.596826689272625 ], [ 20.601338535447283, 49.595621526214416 ], [ 20.620453157053813, 49.594636530798773 ], [ 20.639575391764584, 49.593900692790982 ], [ 20.658706548448954, 49.593443983862215 ], [ 20.677848013670122, 49.593297263027324 ], [ 20.697001249460588, 49.593492156889461 ], [ 20.716167789849944, 49.594060911261927 ], [ 20.735349235948853, 49.595036210805837 ], [ 20.75454724938923, 49.596450963543276 ], [ 20.760221431385187, 49.597006086918888 ], [ 20.773764569227811, 49.598366306516297 ], [ 20.793002671556085, 49.600806260901699 ], [ 20.812262917579062, 49.603790667952019 ], [ 20.831547107624299, 49.607350184045387 ], [ 20.832068795719429, 49.607462191515062 ], [ 20.850859639091528, 49.611582669577771 ], [ 20.87020002211726, 49.616454128918491 ], [ 20.876739615958318, 49.618317693704725 ], [ 20.889571921497645, 49.62203928739391 ], [ 20.908976138713157, 49.62833642747443 ], [ 20.911704370611066, 49.629316747418017 ], [ 20.928415849172595, 49.635403888390677 ], [ 20.940916824622317, 49.64040189211596 ], [ 20.947891115880775, 49.64321950903075 ], [ 20.96681315699632, 49.651536098660266 ], [ 20.96740343211464, 49.651797368046054 ], [ 20.986953860035385, 49.661140253920649 ], [ 20.990015710583464, 49.66271088726635 ], [ 21.006541595818348, 49.671205358177836 ], [ 21.011478144141694, 49.673911303899295 ], [ 21.02616568579429, 49.681947846214221 ], [ 21.031652430789254, 49.685130381104386 ], [ 21.04582430889905, 49.693303888342115 ], [ 21.050855740879747, 49.696363171156001 ], [ 21.065514728230397, 49.705190481359431 ], [ 21.069338672035826, 49.707605676281226 ], [ 21.085233383252024, 49.717508575181412 ], [ 21.08730316410778, 49.718854599678437 ], [ 21.104912556189298, 49.730107212567752 ], [ 21.104976025116784, 49.73014702039449 ], [ 21.122207445341783, 49.741362932453654 ], [ 21.124737196852269, 49.742971293908688 ], [ 21.13942113520714, 49.752617590013543 ], [ 21.144512368385023, 49.755873054103994 ], [ 21.156665686324391, 49.763869135078302 ], [ 21.164296656140568, 49.76874016767583 ], [ 21.174042896130945, 49.775115643804021 ], [ 21.184085424420232, 49.781470277696819 ], [ 21.191648309396676, 49.78635524971746 ], [ 21.203874455954058, 49.793974108723518 ], [ 21.209574553851073, 49.797586083298334 ], [ 21.223660074855815, 49.806177541765244 ], [ 21.227914214245786, 49.808806216736706 ], [ 21.243439218148396, 49.818022457918488 ], [ 21.246762404533548, 49.820013611162352 ], [ 21.263209458092334, 49.829466479660127 ], [ 21.266219162321775, 49.831206064039542 ], [ 21.282968982150674, 49.840481826740181 ], [ 21.286391766969313, 49.842381154616199 ], [ 21.30271654016525, 49.851053545068808 ], [ 21.307397069396828, 49.853536185339408 ], [ 21.322451369250391, 49.861177367312578 ], [ 21.329363915993287, 49.864668117011448 ], [ 21.342173106382127, 49.870857434177303 ], [ 21.352435750001387, 49.875773495151414 ], [ 21.361881697166378, 49.880104058348429 ], [ 21.37677348124673, 49.886848364524191 ], [ 21.381577307298837, 49.888931660246421 ], [ 21.401259735796462, 49.897346776770078 ], [ 21.402541925610041, 49.897888516404933 ], [ 21.420927708506785, 49.905334285770834 ], [ 21.429895790040622, 49.908889759142653 ], [ 21.4405838074609, 49.912955923942107 ], [ 21.459146404480606, 49.919844371932172 ], [ 21.460228520203273, 49.920230244691531 ], [ 21.479859441696977, 49.927118843144967 ], [ 21.490502845274051, 49.930746434517154 ], [ 21.499479739370578, 49.93369221952296 ], [ 21.519088909343097, 49.939948237312343 ], [ 21.524354695577419, 49.94158576315926 ], [ 21.538686534110521, 49.945886464835468 ], [ 21.558274575349508, 49.951551360914287 ], [ 21.561111786126425, 49.952351127809401 ], [ 21.577851240468725, 49.956915719651604 ], [ 21.597418962316816, 49.96203165181381 ], [ 21.601341165624767, 49.963027053372926 ], [ 21.616976162231921, 49.966875729483647 ], [ 21.636524434076819, 49.971483261688711 ], [ 21.645822838968698, 49.973592139284072 ], [ 21.656063317887703, 49.975851205258223 ], [ 21.675592980581222, 49.97998789944095 ], [ 21.695114242251023, 49.983913114935916 ], [ 21.695645197301928, 49.984016204970885 ], [ 21.71462607806189, 49.987613283763899 ], [ 21.734129542763661, 49.991111881971896 ], [ 21.75263826969276, 49.994248949058537 ], [ 21.753624600284624, 49.994412617436012 ], [ 21.773110870396255, 49.997513109780577 ], [ 21.792588787425, 50.000425093821754 ], [ 21.812058306076047, 50.003151755582678 ], [ 21.820007136491864, 50.004201907188438 ], [ 21.831519444346998, 50.005697265581318 ], [ 21.850972201426046, 50.008065358013788 ], [ 21.870416499877905, 50.010258376004124 ], [ 21.889852287537945, 50.01227901675805 ], [ 21.904565597491739, 50.013686522923486 ], [ 21.909279629120043, 50.01413183561116 ], [ 21.928698740844897, 50.015823753026019 ], [ 21.948109224328249, 50.017351466657864 ], [ 21.967511020926189, 50.018717269239453 ], [ 21.986904072046528, 50.019923391075984 ], [ 22.006288319374015, 50.020972005715173 ], [ 22.02566370511656, 50.021865235729265 ], [ 22.03023594192663, 50.022042457566023 ], [ 22.045030620458309, 50.022612242148455 ], [ 22.064388682340706, 50.023209790908517 ], [ 22.083737696554984, 50.023657673646028 ], [ 22.103077602722671, 50.023957759461581 ], [ 22.122408341630514, 50.024111885705828 ], [ 22.141729855307094, 50.024121860165017 ], [ 22.161042087054426, 50.023989462480131 ], [ 22.180344981428536, 50.023716444743471 ], [ 22.199638484164154, 50.023304531232434 ], [ 22.218922542039312, 50.022755417255915 ], [ 22.238197102676867, 50.022070767103806 ], [ 22.257462114280688, 50.021252211103509 ], [ 22.27671752530523, 50.020301341802032 ], [ 22.295963284058296, 50.019219709303506 ], [ 22.315199338237438, 50.01800881580418 ], [ 22.334425634401509, 50.016670109376825 ], [ 22.353642117379596, 50.015204977066048 ], [ 22.372848729620372, 50.013614737363376 ], [ 22.390049238166402, 50.012078789653444 ], [ 22.392045543239234, 50.01190251594052 ], [ 22.411233710714196, 50.010086610702487 ], [ 22.430412090818891, 50.008152723734241 ], [ 22.449580634032344, 50.006102104876092 ], [ 22.468739285754694, 50.003935903154307 ], [ 22.487887985402104, 50.001655157053847 ], [ 22.507026665476282, 49.999260784747541 ], [ 22.526155250615663, 49.996753574377358 ], [ 22.529060614791423, 49.996356059889933 ], [ 22.545276100851979, 49.994167376710777 ], [ 22.564387519554739, 49.991480509920486 ], [ 22.58348901656991, 49.988687962233513 ], [ 22.602580509318845, 49.985790273647993 ], [ 22.621661903807539, 49.982787818363562 ], [ 22.628231244558915, 49.981719847898027 ], [ 22.640735732481467, 49.979715717613928 ], [ 22.65980109383451, 49.976563160266217 ], [ 22.678856570799844, 49.973312800016735 ], [ 22.697902052790727, 49.969964666332437 ], [ 22.711484140507622, 49.967509059018255 ], [ 22.716938840079099, 49.966537081146257 ], [ 22.735969365963719, 49.963062618135389 ], [ 22.754990138883166, 49.959497133518163 ], [ 22.774001026020578, 49.955840263259013 ], [ 22.785723433252972, 49.953532771181834 ], [ 22.793004183765813, 49.952120751782012 ], [ 22.81200138401941, 49.948361917590063 ], [ 22.830988960180154, 49.944518153917521 ], [ 22.849966754097061, 49.940588690744612 ], [ 22.854184700389411, 49.939700791470166 ], [ 22.868940144515228, 49.936641815927842 ], [ 22.887905705094187, 49.932635239650445 ], [ 22.906861762118744, 49.928549119823757 ], [ 22.918658968073796, 49.925962835894076 ], [ 22.925811105474732, 49.924418861961712 ], [ 22.944756076787158, 49.92027372320014 ], [ 22.963691851780016, 49.916055136358047 ], [ 22.980331297650824, 49.912284872223424 ], [ 22.98261928490918, 49.911774463046086 ], [ 23.001545227509595, 49.907515224910881 ], [ 23.020462315035015, 49.90318864282461 ], [ 23.039370358768185, 49.898793362345074 ], [ 23.039365985016438, 49.89866567148205 ], [ 23.03897006087519, 49.887104804122643 ], [ 23.038366043769365, 49.886779389772727 ], [ 23.019520862304411, 49.876207105745195 ], [ 23.018156838278301, 49.875471658018341 ], [ 23.000046431083945, 49.865307081708622 ], [ 22.999592782451359, 49.853748138052268 ], [ 22.996980117125538, 49.852337946590076 ], [ 22.980069854950383, 49.842846534667245 ], [ 22.97679977702343, 49.841080112919428 ], [ 22.960518332145895, 49.831942685586931 ], [ 22.960002761931722, 49.820385767941943 ], [ 22.959468453608935, 49.808829479441123 ], [ 22.954704605461988, 49.806252681216499 ], [ 22.939846515980648, 49.79792468655225 ], [ 22.934559657224817, 49.795062737984374 ], [ 22.920197618871399, 49.787017547130482 ], [ 22.914425693090056, 49.783890558180687 ], [ 22.900522995637935, 49.776108005188512 ], [ 22.899912915945301, 49.76455409138827 ], [ 22.899287084828455, 49.753000695610581 ], [ 22.89242122341048, 49.749276042460195 ], [ 22.879555027047719, 49.742089658750459 ], [ 22.872321449725579, 49.738162440842423 ], [ 22.859802804396633, 49.731175994388003 ], [ 22.859132517361097, 49.719623923090559 ], [ 22.851305853933631, 49.715370180764914 ], [ 22.839349142483307, 49.708707903722818 ], [ 22.831233050031884, 49.704293396821917 ], [ 22.819550453269713, 49.697789070321782 ], [ 22.811170476170979, 49.693227455709746 ], [ 22.799738199797076, 49.686867356791915 ], [ 22.791118026959207, 49.682171313149198 ], [ 22.779914070221757, 49.675942700244825 ], [ 22.779190525850098, 49.664392027462981 ], [ 22.778458168946891, 49.65284162813434 ], [ 22.769273358213717, 49.647831265414908 ], [ 22.758609844769953, 49.641914235709386 ], [ 22.749252231317215, 49.63680561202095 ], [ 22.738754769146706, 49.630983715649407 ], [ 22.738003255334149, 49.619433732191986 ], [ 22.728352406889464, 49.614159429944507 ], [ 22.718138634239011, 49.608500071677554 ], [ 22.717377141969237, 49.596950295481619 ], [ 22.707474132505297, 49.591532445421805 ], [ 22.697506364247324, 49.586013377631019 ], [ 22.696737186616556, 49.574463731072797 ], [ 22.686617083440673, 49.568921245816405 ], [ 22.676863241498978, 49.563523454465958 ], [ 22.676088408217595, 49.551973869525568 ], [ 22.665780971430507, 49.546322813118337 ], [ 22.656213917499496, 49.5410301467981 ], [ 22.645829131882792, 49.535332244651897 ], [ 22.636340748242052, 49.530083021886242 ], [ 22.645012179931776, 49.524361026704234 ], [ 22.654653445465389, 49.517931062817595 ], [ 22.653868879346327, 49.506381633921592 ], [ 22.662371849349011, 49.500763725228325 ], [ 22.681442090311293, 49.500165704035673 ], [ 22.691243947621594, 49.493619253052991 ], [ 22.699643403169635, 49.488061925519354 ], [ 22.709522137441425, 49.481459400388964 ], [ 22.70871965335342, 49.46991077035797 ], [ 22.707915155738146, 49.458362189141475 ], [ 22.707108868652309, 49.446813649503611 ], [ 22.706301004245422, 49.435265144594929 ], [ 22.714351251590188, 49.429927834824653 ], [ 22.724546245398397, 49.423103674468855 ], [ 22.723731906514125, 49.411555440937185 ], [ 22.731644784293568, 49.406303622162653 ], [ 22.741961681492302, 49.399391569746165 ], [ 22.74114141619949, 49.38784359195413 ], [ 22.740320380605546, 49.37629562324733 ], [ 22.739498732255026, 49.364747658495759 ], [ 22.738676620009496, 49.353199692853693 ], [ 22.737854184464624, 49.341651721746217 ], [ 22.745418002911244, 49.336622205881881 ], [ 22.756050915845691, 49.32948635355816 ], [ 22.755224016094953, 49.317938593029965 ], [ 22.754397134262575, 49.306390816006896 ], [ 22.753570383585476, 49.29484301879085 ], [ 22.752743870633985, 49.283295197902845 ], [ 22.751917695594553, 49.27174735007371 ], [ 22.75109195253248, 49.260199472235364 ], [ 22.750266729636056, 49.248651561512773 ], [ 22.738249059471677, 49.242031840641232 ], [ 22.719281060046637, 49.242655982047303 ], [ 22.711471365988043, 49.238331484313612 ], [ 22.710656311800207, 49.226783017411989 ], [ 22.71773393941492, 49.222072654814482 ], [ 22.736695756688494, 49.221470977536264 ], [ 22.747794980322958, 49.21400760602959 ], [ 22.735626152787297, 49.207299077429084 ], [ 22.728001149397436, 49.203074296520263 ], [ 22.727184152971311, 49.191525941172124 ], [ 22.734090008689158, 49.186926099071293 ], [ 22.753038011641067, 49.186321669621023 ], [ 22.764292020927741, 49.178745901259042 ], [ 22.751949112855126, 49.171939155059022 ], [ 22.744511005540559, 49.167815061473817 ], [ 22.743692481622926, 49.156266805075326 ], [ 22.750424290040414, 49.151779463167053 ], [ 22.769358500463621, 49.151172240657822 ], [ 22.776684275868636, 49.155190949653232 ], [ 22.789171470706805, 49.16207519022889 ], [ 22.800546825357905, 49.154406893129831 ], [ 22.799715800849768, 49.142859325580531 ], [ 22.806341752177101, 49.138434972587653 ], [ 22.817826368659141, 49.13068604478039 ], [ 22.824382634770082, 49.126305595488638 ], [ 22.835928086484127, 49.118510118150503 ], [ 22.842414711686814, 49.114173629310322 ], [ 22.854020992414739, 49.106331548302308 ], [ 22.860437990533157, 49.1020390952757 ], [ 22.879350764556378, 49.101413015649314 ], [ 22.891028463535072, 49.093513067759076 ], [ 22.890180505724118, 49.081966489796031 ], [ 22.877279582686235, 49.074860950619417 ], [ 22.870419438765939, 49.071056618952241 ], [ 22.869578420347931, 49.059509674901079 ], [ 22.868738644944067, 49.047962673548611 ], [ 22.874865361200072, 49.043861693812886 ], [ 22.886800795597932, 49.035779613979983 ], [ 22.885958993781344, 49.024232750835466 ], [ 22.885118468233198, 49.01268582914755 ], [ 22.871874109328342, 49.005379067268883 ], [ 22.852998877042094, 49.006019964487791 ], [ 22.840964523960064, 49.014166262719364 ], [ 22.835013847223667, 49.018240140024581 ] ] ], [ [ [ 18.970723615231485, 49.413687910182617 ], [ 18.973985597746047, 49.41566799730343 ], [ 18.989992959812241, 49.425261922454624 ], [ 18.990179348637163, 49.436832654355072 ], [ 18.990365713838784, 49.448403362678327 ], [ 18.973962959751372, 49.458449743072109 ], [ 18.971451043372344, 49.459970910008316 ], [ 18.971632974480066, 49.471541601076531 ], [ 18.97181500990461, 49.483112268610505 ], [ 18.971997197183498, 49.494682912622849 ], [ 18.972179589937976, 49.506253533127278 ], [ 18.954816660799239, 49.516864355753356 ], [ 18.953239262615472, 49.517817981964257 ], [ 18.935686051318442, 49.528536462951493 ], [ 18.916566224941821, 49.528520226657264 ], [ 18.899065953776649, 49.517783405773137 ], [ 18.897470853138536, 49.516815277636894 ], [ 18.878355621042733, 49.516792977525448 ], [ 18.876749845565108, 49.517761786034029 ], [ 18.859206862668721, 49.528453790929149 ], [ 18.857785718645243, 49.529310566157122 ], [ 18.857943712154626, 49.540881272465811 ], [ 18.858102466540711, 49.552451956221397 ], [ 18.83997264733323, 49.563486860167743 ], [ 18.839124443010601, 49.563997597407258 ], [ 18.839281007419956, 49.575568259057938 ], [ 18.83943872312495, 49.58713889882889 ], [ 18.839597718125543, 49.598709516893983 ], [ 18.83975812740163, 49.610280113435955 ], [ 18.839807782959639, 49.613859681104238 ], [ 18.858961170390423, 49.613800954592456 ], [ 18.87811460218089, 49.613704976590462 ], [ 18.897268029716461, 49.613574202731598 ], [ 18.916421407633944, 49.613411438649791 ], [ 18.935574694532782, 49.613219820898962 ], [ 18.954727853642439, 49.613002796566654 ], [ 18.973880853442559, 49.61276410141604 ], [ 18.993033668231753, 49.612507736412994 ], [ 19.012186278640662, 49.61223794251876 ], [ 19.031338672084416, 49.611959173655208 ], [ 19.050490843149493, 49.611676067776919 ], [ 19.069642793909761, 49.611393416013932 ], [ 19.088794534166379, 49.611116129881189 ], [ 19.107946081606478, 49.61084920658309 ], [ 19.127097461875472, 49.61059769247796 ], [ 19.146248708558449, 49.6103666448033 ], [ 19.153508385626477, 49.610289238199854 ], [ 19.165399869653548, 49.6101630386271 ], [ 19.184550991610074, 49.609990543919082 ], [ 19.203702126191931, 49.609852726154571 ], [ 19.222853335359794, 49.609754162036602 ], [ 19.242004687254436, 49.609699227920231 ], [ 19.261156255574768, 49.609692056678618 ], [ 19.280308118855491, 49.609736494705842 ], [ 19.299460359647245, 49.609836059452405 ], [ 19.314832341073355, 49.609962905697429 ], [ 19.318613068878207, 49.609994707208948 ], [ 19.337766361494896, 49.610218971946942 ], [ 19.356920308612864, 49.610507980942081 ], [ 19.37607500115222, 49.610863612127083 ], [ 19.395230528714066, 49.611287214704745 ], [ 19.414386978282625, 49.611779578032056 ], [ 19.433544432887889, 49.612340904335724 ], [ 19.433562769875408, 49.609579112695364 ], [ 19.433641176849594, 49.598008397776702 ], [ 19.433416164869936, 49.597873987401705 ], [ 19.41426977643679, 49.597949609207646 ], [ 19.395419802549732, 49.586574838589819 ], [ 19.395508970475582, 49.575004075541528 ], [ 19.394934679472478, 49.574660508565835 ], [ 19.375797264920326, 49.574727853324099 ], [ 19.357322252406259, 49.563557796287114 ], [ 19.357422002939309, 49.551986991774974 ], [ 19.357522108696198, 49.540416162871082 ], [ 19.356404649207285, 49.539746483141606 ], [ 19.33728077546715, 49.539805471427904 ], [ 19.318156837155719, 49.539860698984107 ], [ 19.299032838443452, 49.539912182425041 ], [ 19.279908783498033, 49.539959942415948 ], [ 19.262021168819, 49.529101291614047 ], [ 19.260722523086628, 49.528320860790934 ], [ 19.243032871435719, 49.517572185619628 ], [ 19.241545365505122, 49.516677589163805 ], [ 19.224054956920746, 49.506039925236394 ], [ 19.224189568905231, 49.494469073998786 ], [ 19.224324431060165, 49.482898198855523 ], [ 19.222271464899777, 49.481662017306789 ], [ 19.205366458031371, 49.471362773868329 ], [ 19.222179031201758, 49.461229177858087 ], [ 19.224594985342048, 49.459756376688148 ], [ 19.222165756929723, 49.458292932692636 ], [ 19.203073360836253, 49.458325365307715 ], [ 19.186563221535014, 49.448253294315357 ], [ 19.186708238304799, 49.436682357962098 ], [ 19.186853516462428, 49.425111397726155 ], [ 19.186999057043099, 49.413540413603293 ], [ 19.183806181918083, 49.411613138699764 ], [ 19.16473185410068, 49.411638542116762 ], [ 19.145657499216, 49.411660511862287 ], [ 19.126583121020317, 49.411679081649432 ], [ 19.107508723219141, 49.411694285861209 ], [ 19.104302635362139, 49.413644575915882 ], [ 19.088455308315417, 49.423391637897041 ], [ 19.072587368107598, 49.41366883373437 ], [ 19.069359883358242, 49.41171473676058 ], [ 19.05028544844269, 49.411720053076657 ], [ 19.034633115960073, 49.402115667121834 ], [ 19.031203601933786, 49.400036654059903 ], [ 19.012133686141226, 49.400035607311736 ], [ 18.993063771808309, 49.400031401051301 ], [ 18.973993862268252, 49.400024066339085 ], [ 18.970541694127824, 49.402117101295687 ], [ 18.970723615231485, 49.413687910182617 ] ] ], [ [ [ 16.63178022533361, 50.116456086794294 ], [ 16.628351398111544, 50.118379027253404 ], [ 16.627965734525159, 50.129942227493792 ], [ 16.6112845017092, 50.139348284278555 ], [ 16.591941914639726, 50.138897828032263 ], [ 16.588715283508218, 50.140704540814959 ], [ 16.588316197559763, 50.152267354023849 ], [ 16.571417586320695, 50.161779499828398 ], [ 16.568476518063793, 50.163424581963071 ], [ 16.568070243648982, 50.174987169637895 ], [ 16.567663362507144, 50.186549725434915 ], [ 16.56725589996773, 50.198112249887174 ], [ 16.566847884500703, 50.209674743593787 ], [ 16.566439347674446, 50.221237207218991 ], [ 16.548482871785062, 50.231315749248722 ], [ 16.546558362861283, 50.232389927072177 ], [ 16.528500829163089, 50.24251721002792 ], [ 16.52666856626939, 50.24353909548212 ], [ 16.508509420264858, 50.253715488412617 ], [ 16.506770208153828, 50.254684714176314 ], [ 16.50634330407782, 50.266246595733826 ], [ 16.48789470782577, 50.276573710483795 ], [ 16.486431093646491, 50.2773884881695 ], [ 16.467879399361291, 50.287765727499917 ], [ 16.466511107653794, 50.288526839593111 ], [ 16.466073256399714, 50.30008834687775 ], [ 16.447230058463894, 50.310617744215676 ], [ 16.446140817598714, 50.311222991830846 ], [ 16.445698090923742, 50.322784313643872 ], [ 16.426560524222825, 50.333467684458334 ], [ 16.407141911917684, 50.332990094601904 ], [ 16.387723733258152, 50.332510700751328 ], [ 16.386760285339005, 50.333044927640898 ], [ 16.386303966076337, 50.344605783814799 ], [ 16.36701577754544, 50.35535564154722 ], [ 16.366346504285477, 50.355726355414326 ], [ 16.366973114612598, 50.356126430970107 ], [ 16.385392912466127, 50.367727476139912 ], [ 16.365723732635448, 50.378684037872034 ], [ 16.365427998252454, 50.378847757213997 ], [ 16.345635895424845, 50.389866408652409 ], [ 16.326195209170148, 50.389381918190331 ], [ 16.306754963228819, 50.38889564227631 ], [ 16.2885087057854, 50.377078895283951 ], [ 16.287981002722177, 50.376741400721166 ], [ 16.287416241879285, 50.377053405320567 ], [ 16.267875812168104, 50.387917511299648 ], [ 16.267442316126115, 50.388156808197891 ], [ 16.266965632626992, 50.399716843469541 ], [ 16.247084565459566, 50.410762313328995 ], [ 16.246985998616083, 50.410816665739119 ], [ 16.246748471343814, 50.416557307826395 ], [ 16.266386804772139, 50.413793249897196 ], [ 16.280847100737287, 50.411613562949952 ], [ 16.286034162417828, 50.410830118064681 ], [ 16.30568954700604, 50.407681081539671 ], [ 16.325354580227938, 50.404313201793308 ], [ 16.34114274244186, 50.401437026535383 ], [ 16.345028832351634, 50.400729240070838 ], [ 16.364710617631669, 50.396954677057707 ], [ 16.38440206599763, 50.392946467717834 ], [ 16.393269429997655, 50.391046472099106 ], [ 16.404101409572245, 50.388731576043241 ], [ 16.423808781824597, 50.384302730964905 ], [ 16.4398362413909, 50.380510351854021 ], [ 16.443524904936876, 50.379641483826269 ], [ 16.463247188555133, 50.374790875398084 ], [ 16.482302389566168, 50.369866941757721 ], [ 16.482978439401428, 50.369693368815803 ], [ 16.502714385994299, 50.364424360914988 ], [ 16.521615490867219, 50.359140929090167 ], [ 16.522458806846249, 50.358907151462752 ], [ 16.542206976696267, 50.353227129158078 ], [ 16.558467463725311, 50.348350036752208 ], [ 16.561962374676305, 50.347312377536582 ], [ 16.58172119374499, 50.341231982560807 ], [ 16.593375675049192, 50.337507309373493 ], [ 16.601485229082623, 50.334946165318364 ], [ 16.62125305284896, 50.328478312740032 ], [ 16.626735221161621, 50.326622558615234 ], [ 16.641023334139831, 50.321850662222182 ], [ 16.658804545587454, 50.31570231774851 ], [ 16.660797845042762, 50.315023023153579 ], [ 16.680572689067336, 50.308070270581013 ], [ 16.689714107145178, 50.304750242377679 ], [ 16.700349835855878, 50.300948332574364 ], [ 16.719792537275495, 50.293773701703579 ], [ 16.72012934655562, 50.293651479608599 ], [ 16.739907115401991, 50.286261716831071 ], [ 16.748966615680907, 50.282771918045469 ], [ 16.759686007376907, 50.27871558895967 ], [ 16.777548169706343, 50.271751533324284 ], [ 16.779465613734153, 50.271017669834372 ], [ 16.799242856825082, 50.26323059879897 ], [ 16.805459185069086, 50.260711507579067 ], [ 16.819019140190377, 50.255321250906 ], [ 16.832869584960772, 50.249655490411548 ], [ 16.83879478838314, 50.247279099656737 ], [ 16.858568847750192, 50.239121740174468 ], [ 16.859835071875992, 50.238584859343568 ], [ 16.878339098102241, 50.230895980033296 ], [ 16.886289333843614, 50.227498714617511 ], [ 16.879283830312978, 50.21580045914903 ], [ 16.880007204710086, 50.204243086279476 ], [ 16.879534601077786, 50.203944557843833 ], [ 16.860163716034823, 50.203500977780905 ], [ 16.859513566439293, 50.203867172870702 ], [ 16.840265656873044, 50.214740966757581 ], [ 16.822310172179659, 50.203175500812897 ], [ 16.823039133314584, 50.191618489458065 ], [ 16.821954667062556, 50.190932235615826 ], [ 16.802589379291756, 50.190490212069321 ], [ 16.785288404204962, 50.17933387514671 ], [ 16.786021698212178, 50.167777088941165 ], [ 16.786754896587503, 50.156220278639914 ], [ 16.784845630591732, 50.155010027874695 ], [ 16.768249772770893, 50.144295179079954 ], [ 16.766039322557074, 50.142892971909014 ], [ 16.746693657647, 50.142454637608139 ], [ 16.730504476395957, 50.131992458563396 ], [ 16.731245350368663, 50.12043601361178 ], [ 16.728454600490604, 50.118663062121648 ], [ 16.712747118261976, 50.108501969445811 ], [ 16.709676194066891, 50.106549577507238 ], [ 16.690345571128081, 50.106111034690279 ], [ 16.671015333746197, 50.105670868540436 ], [ 16.667574786479658, 50.107602887094913 ], [ 16.651114318874875, 50.116900830112868 ], [ 16.63178022533361, 50.116456086794294 ] ] ] ] } }
]
}
