{
"type": "FeatureCollection",
"name": "martwe_drewno_cykl4_perc95",
"crs": { "type": "name", "properties": { "name": "urn:ogc:def:crs:OGC:1.3:CRS84" } },
"features": [
{ "type": "Feature", "properties": { "cykl": 4, "typ_martwego_drewna": "wszystkie", "percentyl": 95, "prog_zasobnosci_m3ha": 20.978854068089575, "srednia_krajowa_m3ha": 11.626651389547984, "max_zasobnosci_m3ha": 48.493505938284692, "n_traktow": 10472, "wiarygodne": true }, "geometry": { "type": "MultiPolygon", "coordinates": [ [ [ [ 23.243191880376671, 52.392942989068679 ], [ 23.231286837161583, 52.403371217660315 ], [ 23.224435693522796, 52.409574754295718 ], [ 23.217943231099245, 52.415421698139326 ], [ 23.205723201581115, 52.426808488824186 ], [ 23.205024856170564, 52.427455401734797 ], [ 23.192394400815111, 52.43947735014045 ], [ 23.187062251503463, 52.444733994673335 ], [ 23.180167890749299, 52.451483532237418 ], [ 23.16845510017199, 52.463383328033224 ], [ 23.168365828996638, 52.463473355337847 ], [ 23.156817656395678, 52.475452955704554 ], [ 23.149914363913176, 52.482898880379814 ], [ 23.145690425751102, 52.487416548204919 ], [ 23.134905800592811, 52.499366999436667 ], [ 23.131444798583317, 52.50334142623867 ], [ 23.124444084951925, 52.511305095394754 ], [ 23.11437884044566, 52.523228364735644 ], [ 23.113058227761968, 52.524848096728604 ], [ 23.104577742402004, 52.535141510091286 ], [ 23.09519673090562, 52.54703919751136 ], [ 23.094770372991963, 52.547599750319662 ], [ 23.086055442193757, 52.558927767396717 ], [ 23.077331649070242, 52.570801147218553 ], [ 23.076601980432763, 52.571833813212038 ], [ 23.068853202937731, 52.582665359194671 ], [ 23.060766968764387, 52.594515415745825 ], [ 23.058580441866305, 52.59786266639923 ], [ 23.052958064429731, 52.606355339509463 ], [ 23.045496399983094, 52.618182797703696 ], [ 23.040742133455996, 52.626100083843809 ], [ 23.038367289589043, 52.629998361746424 ], [ 23.031523269156668, 52.641803713375779 ], [ 23.025050592331898, 52.653595971333495 ], [ 23.023149976725854, 52.65725355417991 ], [ 23.018859918173625, 52.665378235420405 ], [ 23.012999435891132, 52.677148919282551 ], [ 23.00749791722177, 52.688907101805263 ], [ 23.005911650189613, 52.692526927795761 ], [ 23.002285769067552, 52.700655190394578 ], [ 22.997404569266429, 52.712391822861122 ], [ 22.992878768475862, 52.72411621954646 ], [ 22.989243253411338, 52.734322345207815 ], [ 22.988695855159222, 52.735828846881695 ], [ 22.984810102249433, 52.747531283874856 ], [ 22.981283801769106, 52.759221469450736 ], [ 22.97811637232741, 52.770899459479224 ], [ 22.975308375391894, 52.782565268127108 ], [ 22.973793720055038, 52.78980560676483 ], [ 22.972846895223938, 52.794219358238038 ], [ 22.970732275934324, 52.805861743927863 ], [ 22.968992611836352, 52.817491506928796 ], [ 22.967631826174852, 52.829108536786457 ], [ 22.966654765001753, 52.840712688788258 ], [ 22.966067155327821, 52.852303785279823 ], [ 22.965875564899537, 52.863881616878217 ], [ 22.966087363768615, 52.875445943578207 ], [ 22.966710687907561, 52.886996495744 ], [ 22.967754405211817, 52.898532974976135 ], [ 22.96922808431507, 52.910055054840107 ], [ 22.971141966730737, 52.921562381439884 ], [ 22.97350694291633, 52.933054573816328 ], [ 22.976334532940289, 52.944531224147426 ], [ 22.979636872510589, 52.955991897724196 ], [ 22.98342670520266, 52.967436132672155 ], [ 22.987717381799914, 52.978863439385528 ], [ 22.992108638236079, 52.989303999303495 ], [ 22.992522290347043, 52.99027331905598 ], [ 22.997851458219923, 53.001665377513106 ], [ 23.003728145982681, 53.013038765893384 ], [ 23.010168741496649, 53.02439285580877 ], [ 23.017025592371411, 53.035466173835644 ], [ 23.017190420562986, 53.035726981045599 ], [ 23.024815956671283, 53.04704027356324 ], [ 23.033064109786231, 53.058331987109739 ], [ 23.040727853366914, 53.068076284207578 ], [ 23.041957066585642, 53.069601244345243 ], [ 23.051530783765074, 53.080846681840235 ], [ 23.061796917557263, 53.092067744456074 ], [ 23.063856321565257, 53.094210766623362 ], [ 23.072804794437793, 53.103262570293055 ], [ 23.084566877688051, 53.114430533467967 ], [ 23.086630234190686, 53.116305686251081 ], [ 23.097142647056948, 53.125569368630394 ], [ 23.109157014861498, 53.135561498386849 ], [ 23.110544013242794, 53.136678415037117 ], [ 23.124843822002628, 53.147754875695533 ], [ 23.131498681345352, 53.152675256386317 ], [ 23.140068262866745, 53.158797524836501 ], [ 23.153696352552334, 53.168110368655945 ], [ 23.156264737916079, 53.169804361126261 ], [ 23.173502164119817, 53.180772580027835 ], [ 23.175776939613158, 53.182172824857417 ], [ 23.19183894938848, 53.191699682262815 ], [ 23.197760839704383, 53.195094670127823 ], [ 23.211328109522679, 53.202583294855948 ], [ 23.219662869346354, 53.207045760671335 ], [ 23.232037692876535, 53.213420443596739 ], [ 23.241494814026026, 53.218161375178788 ], [ 23.254037960007661, 53.224207992551733 ], [ 23.263266110205013, 53.228550091597008 ], [ 23.277400280379791, 53.234942674410135 ], [ 23.28498437442552, 53.238299850447788 ], [ 23.302195957544399, 53.245621123982517 ], [ 23.306655801955859, 53.247482506909421 ], [ 23.328285585310962, 53.256158421486106 ], [ 23.328495580233412, 53.256239893478828 ], [ 23.34988120929011, 53.26440918859393 ], [ 23.356378917911762, 53.266795082306864 ], [ 23.371443816092025, 53.272252610190911 ], [ 23.385890188969626, 53.277283964966806 ], [ 23.392976317377691, 53.279723322020693 ], [ 23.414482631001235, 53.286864972074497 ], [ 23.417083252117944, 53.2877033493087 ], [ 23.435968374539005, 53.293736676407534 ], [ 23.449993623008044, 53.298050603240739 ], [ 23.457431314159955, 53.300321088593847 ], [ 23.478876153376842, 53.306667362210092 ], [ 23.484633177157921, 53.308323872961644 ], [ 23.50030606245604, 53.312809111484391 ], [ 23.520995740385178, 53.318521901295931 ], [ 23.521717984071774, 53.318720480638127 ], [ 23.543121573464475, 53.324495553528401 ], [ 23.559021272338416, 53.328645425928727 ], [ 23.564510214561587, 53.3300744479358 ], [ 23.585891110563097, 53.335527011148848 ], [ 23.598648872260764, 53.33869522235004 ], [ 23.607261768350373, 53.340831965200572 ], [ 23.62862572214302, 53.346023973589581 ], [ 23.63976958117971, 53.34867395246075 ], [ 23.649982842245002, 53.351103439194993 ], [ 23.671334749852857, 53.356086734408052 ], [ 23.682241437249804, 53.358585665974417 ], [ 23.692682131632221, 53.360981433220495 ], [ 23.714026208999911, 53.365799800255509 ], [ 23.725895311754492, 53.368435642202606 ], [ 23.735367157879164, 53.370544463901489 ], [ 23.735144110362317, 53.368068296319734 ], [ 23.754554759342362, 53.355951168794 ], [ 23.754941901215702, 53.355705106968919 ], [ 23.753898786417675, 53.344172325311462 ], [ 23.752854795074722, 53.332639572516264 ], [ 23.771454598568482, 53.321021324758327 ], [ 23.772628981536513, 53.320273966982832 ], [ 23.771577818359816, 53.308741571571424 ], [ 23.770525443434344, 53.29720921864434 ], [ 23.788327487122878, 53.286081348181334 ], [ 23.790273624345936, 53.284841307421374 ], [ 23.789213145660725, 53.273309352164993 ], [ 23.806453559379289, 53.262525029131126 ], [ 23.808940330333613, 53.260938869004192 ], [ 23.807871106000349, 53.249407340165973 ], [ 23.824559639189427, 53.238960413116843 ], [ 23.827576208730012, 53.237034340226636 ], [ 23.84393483323473, 53.22678719214349 ], [ 23.847266063342783, 53.22465847478626 ], [ 23.846179709324463, 53.213127798922514 ], [ 23.86200481354911, 53.203206602390274 ], [ 23.86584597814387, 53.2007494991744 ], [ 23.864749475181334, 53.189219316050469 ], [ 23.880054645474679, 53.179615606861638 ], [ 23.900689257185576, 53.178829757276461 ], [ 23.905130033688494, 53.175984471984272 ], [ 23.904016872540545, 53.164455145860288 ], [ 23.902901344163649, 53.15292591176766 ], [ 23.901783392338476, 53.141396771967145 ], [ 23.900662962724411, 53.129867728640733 ], [ 23.894777077379839, 53.127001692308632 ], [ 23.878831896920726, 53.119191211081208 ], [ 23.877712443054108, 53.107662020671569 ], [ 23.876590346478235, 53.096132932761783 ], [ 23.875465558028857, 53.084603949307073 ], [ 23.87433803108684, 53.073075072156875 ], [ 23.887691293179142, 53.064672883211053 ], [ 23.893885578936423, 53.060695605514226 ], [ 23.892746468088394, 53.049167290875651 ], [ 23.905667695349873, 53.041027786125404 ], [ 23.912267870043546, 53.03678556161325 ], [ 23.911117109206138, 53.025257816106766 ], [ 23.923623883029823, 53.017370222817469 ], [ 23.930612355669627, 53.012873838779271 ], [ 23.929449939974564, 53.001346666507793 ], [ 23.928284666177696, 52.989819606853075 ], [ 23.927116516728582, 52.978292660472995 ], [ 23.938943454613348, 52.97082022737667 ], [ 23.946568230560089, 52.965907369795453 ], [ 23.945388514831961, 52.954380997820017 ], [ 23.936574263713663, 52.950075311617915 ], [ 23.923594669057454, 52.94371250629866 ], [ 23.922414880628491, 52.932186017956589 ], [ 23.921232156818061, 52.920659645004605 ], [ 23.9200464901209, 52.909133387679667 ], [ 23.918857874041596, 52.897607246176257 ], [ 23.917666302860127, 52.886081220656187 ], [ 23.916471771382103, 52.87455531125898 ], [ 23.915274274674218, 52.863029518112818 ], [ 23.914073807785407, 52.851503841346108 ], [ 23.924599481966649, 52.844828398623633 ], [ 23.933432965943798, 52.839123528222466 ], [ 23.932221481974128, 52.827598408370648 ], [ 23.931007086744355, 52.816073402859494 ], [ 23.929789774227618, 52.804548511861945 ], [ 23.939854690547509, 52.798152030907573 ], [ 23.949109030148222, 52.792166811631638 ], [ 23.947881060290623, 52.780642467128878 ], [ 23.946650227690391, 52.769118235264102 ], [ 23.945416519987038, 52.757594116474856 ], [ 23.94417992182407, 52.746070111323185 ], [ 23.942940414454089, 52.734546220512151 ], [ 23.9416979753295, 52.723022444902696 ], [ 23.940452577678403, 52.711498785531326 ], [ 23.929425333365341, 52.706078271216185 ], [ 23.918700615413503, 52.700829718941797 ], [ 23.907729728933386, 52.695432140479063 ], [ 23.896949831252748, 52.690156773099751 ], [ 23.886045210792588, 52.684787057017999 ], [ 23.875199518791948, 52.679479976366196 ], [ 23.864371810341943, 52.67414342575421 ], [ 23.853448925320791, 52.668799358494581 ], [ 23.842709561071544, 52.663501678166377 ], [ 23.831697249722826, 52.658114950674673 ], [ 23.821058498628084, 52.652862273510138 ], [ 23.809943640597456, 52.647426785564868 ], [ 23.799418660863076, 52.64222569991388 ], [ 23.788187194695453, 52.636734897309779 ], [ 23.786938338553323, 52.625210453412031 ], [ 23.77653163353196, 52.620061630968593 ], [ 23.765176297383874, 52.614514815530129 ], [ 23.754921020828593, 52.60943644747266 ], [ 23.734566907561309, 52.610338297436321 ], [ 23.71421202826922, 52.611239355392321 ], [ 23.693856394300571, 52.61213972345729 ], [ 23.673500017109426, 52.613039506514021 ], [ 23.653142908247919, 52.613938812199336 ], [ 23.640756981403058, 52.607890702035277 ], [ 23.631567468100776, 52.603323344687624 ], [ 23.611214452301745, 52.604223805284356 ], [ 23.598403945417925, 52.597971714781586 ], [ 23.589655410005037, 52.593617276989342 ], [ 23.569306561776209, 52.594519727304807 ], [ 23.556020172326861, 52.588039002027344 ], [ 23.547764039967326, 52.583923740979046 ], [ 23.534186399395207, 52.577304696434766 ], [ 23.526233230529677, 52.573336968059522 ], [ 23.512338311521216, 52.566567056889177 ], [ 23.504714182802406, 52.562760145549703 ], [ 23.484379456407478, 52.563671726525612 ], [ 23.469872653890331, 52.556607273893952 ], [ 23.468594094218009, 52.545081931938519 ], [ 23.46171156122217, 52.541639289143326 ], [ 23.446695481601239, 52.534334519743147 ], [ 23.440228074447226, 52.531096688746857 ], [ 23.424777630371061, 52.523583918457717 ], [ 23.41875652118539, 52.520566881507456 ], [ 23.402839466236003, 52.512830156210583 ], [ 23.397296932108308, 52.510050490956267 ], [ 23.38088003245943, 52.502073255972967 ], [ 23.379553058717569, 52.490549087282041 ], [ 23.374712771272439, 52.488118717271696 ], [ 23.357560293041743, 52.479789317549567 ], [ 23.356211680446453, 52.468265769581528 ], [ 23.35215593246831, 52.466226902481822 ], [ 23.334184094740909, 52.457503159126389 ], [ 23.332812861980546, 52.445980258032783 ], [ 23.329626440827298, 52.444376505161586 ], [ 23.310749821707958, 52.435214803090112 ], [ 23.309355452048646, 52.423692557444447 ], [ 23.307949898932982, 52.412170704536457 ], [ 23.306014194748052, 52.411194982745123 ], [ 23.285840039156831, 52.401402608452067 ], [ 23.284649199244509, 52.400801823440922 ], [ 23.263708913324859, 52.390631280192395 ], [ 23.262269386380172, 52.379110273483114 ], [ 23.262201035580226, 52.379075749219332 ], [ 23.259166761563229, 52.37922231604248 ], [ 23.245053843617303, 52.39130387593562 ], [ 23.243191880376671, 52.392942989068679 ] ] ], [ [ [ 22.835105983518098, 49.019437600503331 ], [ 22.816225092057284, 49.020078835858499 ], [ 22.806140711232455, 49.026897000799195 ], [ 22.798226574273137, 49.032303313368047 ], [ 22.788222348966297, 49.039062534843659 ], [ 22.780219252713632, 49.044525481352579 ], [ 22.770295739033664, 49.051225460302788 ], [ 22.76220312322156, 49.056745368490652 ], [ 22.75327088970533, 49.051781171458437 ], [ 22.742435404591433, 49.04578757120656 ], [ 22.723542480322664, 49.046413697447171 ], [ 22.704648894788743, 49.047036557534767 ], [ 22.695725418292671, 49.042065966591061 ], [ 22.684897073825351, 49.036065805024556 ], [ 22.675005408358633, 49.042728545232691 ], [ 22.666859756794953, 49.048272522736418 ], [ 22.647964212877103, 49.048885651612018 ], [ 22.638174287442254, 49.055471861161649 ], [ 22.639089515292465, 49.067017723529133 ], [ 22.630758702449082, 49.072679438037582 ], [ 22.621119598635168, 49.079158356606591 ], [ 22.612694957940818, 49.084879714782076 ], [ 22.603141790305937, 49.091296344949264 ], [ 22.594622397307031, 49.097077928203362 ], [ 22.575706916352306, 49.09768118992276 ], [ 22.566321002538427, 49.092441263205615 ], [ 22.555961572644307, 49.086687342795457 ], [ 22.546468777077209, 49.093053660153593 ], [ 22.537874075515084, 49.098878334255261 ], [ 22.528442307447186, 49.093606766006914 ], [ 22.518136193646974, 49.087876796688022 ], [ 22.49922258142692, 49.0884668928731 ], [ 22.480308360365608, 49.089053930664718 ], [ 22.470895820669838, 49.095353545370664 ], [ 22.462201008513283, 49.101235666050663 ], [ 22.443281230923315, 49.101817430073254 ], [ 22.42436085873009, 49.102396216271188 ], [ 22.405439896892908, 49.102972051836581 ], [ 22.396184500303679, 49.109152643333481 ], [ 22.397054103951117, 49.120701286478074 ], [ 22.388099927261237, 49.126745703469261 ], [ 22.379017337232838, 49.132805411918433 ], [ 22.379883675278709, 49.144354222994949 ], [ 22.370743891435659, 49.150518467437756 ], [ 22.351803744039223, 49.151088853186032 ], [ 22.341777569445391, 49.145464619155611 ], [ 22.332084110377014, 49.140054399353758 ], [ 22.313147194103088, 49.140618413692792 ], [ 22.294209718271745, 49.141179697177449 ], [ 22.275271688192142, 49.141738287557608 ], [ 22.266422146340133, 49.147623278064728 ], [ 22.257094558203402, 49.153899610111452 ], [ 22.238151068410708, 49.154453792200187 ], [ 22.229441704582449, 49.160238499258952 ], [ 22.230281209242843, 49.17178890152374 ], [ 22.23112088635294, 49.183339279741048 ], [ 22.221467999814635, 49.189825223023007 ], [ 22.210933229187326, 49.183902902316191 ], [ 22.201760570219566, 49.178769703739206 ], [ 22.182806737468436, 49.179318105749239 ], [ 22.174364050064437, 49.184914865166476 ], [ 22.164593377722248, 49.191473122728482 ], [ 22.145634128801333, 49.192017663269162 ], [ 22.137352485217225, 49.197500957931524 ], [ 22.127407069759172, 49.204170537670549 ], [ 22.108442422698868, 49.204711449791382 ], [ 22.089477274452314, 49.205250170973137 ], [ 22.081410315731393, 49.210582067118139 ], [ 22.071231644660092, 49.217400003453754 ], [ 22.052261126247853, 49.217935445775495 ], [ 22.044379501777254, 49.223138472976565 ], [ 22.04518771378978, 49.234690669092636 ], [ 22.045996277154916, 49.246242836130044 ], [ 22.046805251940821, 49.257794972510027 ], [ 22.036139635529192, 49.264928305636069 ], [ 22.028681343847708, 49.269845382289738 ], [ 22.029488158145014, 49.281397637842048 ], [ 22.018569294633071, 49.288695046328712 ], [ 22.01135730900349, 49.29344538274885 ], [ 22.000276610338926, 49.30084718108133 ], [ 21.993222354111971, 49.305490304456342 ], [ 21.981975104033136, 49.312999570802958 ], [ 21.975083493825945, 49.317532396256105 ], [ 21.975883728673271, 49.329085047240405 ], [ 21.976684903881786, 49.340637653978582 ], [ 21.965061683535616, 49.348391179587232 ], [ 21.946039888859783, 49.348926147609035 ], [ 21.927017632845722, 49.34945947641868 ], [ 21.907994919044846, 49.349991199527743 ], [ 21.901702216887386, 49.354119102287001 ], [ 21.889653226493508, 49.362145249499648 ], [ 21.883548730084161, 49.366146821551972 ], [ 21.8713026994808, 49.374300198750298 ], [ 21.852269780819825, 49.374829318615738 ], [ 21.846449321456511, 49.378640007529931 ], [ 21.847233489611039, 49.390193662523671 ], [ 21.834575127905431, 49.398613239023724 ], [ 21.820783584359056, 49.390842515286351 ], [ 21.814867295618782, 49.387511980315004 ], [ 21.801098458348722, 49.379748571760423 ], [ 21.795168345620421, 49.376407690896947 ], [ 21.781421553543066, 49.368651112214962 ], [ 21.775478265203294, 49.3653002386609 ], [ 21.769928063583169, 49.368927283635465 ], [ 21.770698892962365, 49.380481677220232 ], [ 21.757749899762953, 49.389084498429781 ], [ 21.752535883597844, 49.392488699213402 ], [ 21.739357295708071, 49.401239319711308 ], [ 21.734370477267344, 49.404492843923975 ], [ 21.720955825448542, 49.413395325396266 ], [ 21.71620276680018, 49.41649410846459 ], [ 21.702545481141946, 49.425552560368764 ], [ 21.687685947434915, 49.417160919616229 ], [ 21.682855796733129, 49.414433703938357 ], [ 21.663805104610951, 49.414950260016106 ], [ 21.659403832536135, 49.417815279065223 ], [ 21.660162881359664, 49.429370448996188 ], [ 21.646006628162624, 49.438746703161428 ], [ 21.641988359968213, 49.441359979586807 ], [ 21.627568686724878, 49.450904865502459 ], [ 21.611898650455057, 49.44204391700697 ], [ 21.607885156099851, 49.43977444879539 ], [ 21.588823716036469, 49.440285042245399 ], [ 21.569761799151419, 49.440793250254686 ], [ 21.550699399169186, 49.441298904837232 ], [ 21.53163650932035, 49.4418018233631 ], [ 21.515431947039385, 49.432611279702826 ], [ 21.514987160143175, 49.421048527039524 ], [ 21.511382743540256, 49.419004167049131 ], [ 21.507994864391634, 49.421200484646484 ], [ 21.492918283258138, 49.431148304274579 ], [ 21.476597259381954, 49.421877598872129 ], [ 21.473272258815989, 49.419989821828558 ], [ 21.454216241743673, 49.420477343485217 ], [ 21.43515969722997, 49.420961004673416 ], [ 21.416102616967102, 49.421440551683013 ], [ 21.413357720267211, 49.423215477154308 ], [ 21.397613254212402, 49.43357127691484 ], [ 21.378550622347941, 49.434043015636192 ], [ 21.376205534151389, 49.435557542359263 ], [ 21.360047175605843, 49.446168496899624 ], [ 21.357979330679065, 49.447503006655545 ], [ 21.341534636175133, 49.458291976996897 ], [ 21.322461372531574, 49.458750617145441 ], [ 21.30338752527916, 49.459203561807087 ], [ 21.284313088743318, 49.459650553514003 ], [ 21.26629668255999, 49.449336855263013 ], [ 21.264700245085955, 49.448425921868342 ], [ 21.246764866387057, 49.438146067563657 ], [ 21.245096123506649, 49.437193148709667 ], [ 21.226028834015718, 49.437618436826867 ], [ 21.208098794392942, 49.42731911999789 ], [ 21.207753042291042, 49.41575367581261 ], [ 21.207406768408902, 49.404188221562769 ], [ 21.205391059860712, 49.403035113622181 ], [ 21.186335963488627, 49.403442877767425 ], [ 21.184499710660212, 49.404623470615924 ], [ 21.167794283320774, 49.415512711460529 ], [ 21.16619529038719, 49.416540017308158 ], [ 21.149243432946644, 49.427578077809549 ], [ 21.147879372960901, 49.428453811425179 ], [ 21.130683403387138, 49.439638868836703 ], [ 21.11243672830151, 49.429106960229326 ], [ 21.111111234741553, 49.428347182930708 ], [ 21.092044261424086, 49.428720434784211 ], [ 21.072976714612889, 49.429086107122608 ], [ 21.053908602773188, 49.429444199442329 ], [ 21.035739052088498, 49.418911279901785 ], [ 21.035448103373579, 49.407344537650623 ], [ 21.052535015371284, 49.396526633581836 ], [ 21.054230254653046, 49.395440341880104 ], [ 21.071110058274105, 49.384749470086092 ], [ 21.0901621809438, 49.384424717087462 ], [ 21.092087787291725, 49.383189277391068 ], [ 21.091777931990986, 49.371622895350171 ], [ 21.089565230047388, 49.370352288332164 ], [ 21.070520031413626, 49.370712378759244 ], [ 21.051474279622489, 49.371065037989382 ], [ 21.034281735136005, 49.361077409556302 ], [ 21.031946564413204, 49.359734110498223 ], [ 21.014946838322278, 49.349844231104335 ], [ 21.012427567771486, 49.348393929088068 ], [ 20.995630023613153, 49.338607523820109 ], [ 20.992917299008283, 49.337044668825065 ], [ 20.976330926695699, 49.327367302276585 ], [ 20.992122696793846, 49.317361941498831 ], [ 20.995070216117512, 49.315473242562391 ], [ 20.991974507624811, 49.313688826978947 ], [ 20.972948988983259, 49.314007709313742 ], [ 20.956780859290102, 49.304556161676693 ], [ 20.953460975454984, 49.302640119387114 ], [ 20.934438973295215, 49.302944796898849 ], [ 20.91541652076889, 49.303243093430119 ], [ 20.912196159357649, 49.305302757671946 ], [ 20.912836222128014, 49.316864079464168 ], [ 20.897291148666064, 49.326899362203136 ], [ 20.894411247772588, 49.328739548230793 ], [ 20.878703611597601, 49.338869717490311 ], [ 20.875974628919398, 49.340612206455127 ], [ 20.860106990891097, 49.350835582992538 ], [ 20.843576775207644, 49.341133657131138 ], [ 20.840628907770135, 49.339428507206087 ], [ 20.82159096951715, 49.339699539376049 ], [ 20.818723719357241, 49.341527510382853 ], [ 20.80297972529111, 49.351650578848933 ], [ 20.80025171457909, 49.353388517354567 ], [ 20.784359417326119, 49.363597627431098 ], [ 20.78176905372786, 49.365246676099972 ], [ 20.765730045348832, 49.375540807364231 ], [ 20.763275937324099, 49.377101978904896 ], [ 20.763889895876648, 49.388664253621734 ], [ 20.764504604693244, 49.400226493728546 ], [ 20.74792125852629, 49.410855010939002 ], [ 20.745994717457652, 49.412079151396355 ], [ 20.729265286533415, 49.422792039494318 ], [ 20.710193750872822, 49.423036826946998 ], [ 20.691121908362735, 49.423277367476018 ], [ 20.673928198329815, 49.4131451621517 ], [ 20.671652602492784, 49.411824933935442 ], [ 20.654743675870961, 49.401849865340417 ], [ 20.652192323366354, 49.400368531770276 ], [ 20.649742791253839, 49.401921344533655 ], [ 20.633516534012603, 49.412286286304855 ], [ 20.631196365469545, 49.41375602044959 ], [ 20.614831698491404, 49.424201214493593 ], [ 20.597936554384159, 49.414220535754744 ], [ 20.597763907716804, 49.402651475501024 ], [ 20.597590959310072, 49.391082397985713 ], [ 20.59462204388112, 49.389355586101559 ], [ 20.5784328466485, 49.379774122868227 ], [ 20.575188373769052, 49.377885612737622 ], [ 20.556132776319995, 49.378101633192252 ], [ 20.552943028202606, 49.380119402478797 ], [ 20.537441702251318, 49.390004012331453 ], [ 20.534381004574779, 49.39193873512847 ], [ 20.518741611172832, 49.401904130632275 ], [ 20.515811217884124, 49.40375513407848 ], [ 20.500032499463014, 49.413802083875936 ], [ 20.480962465977548, 49.414008048993786 ], [ 20.461892230046271, 49.414211730791429 ], [ 20.442821796774648, 49.414413223888424 ], [ 20.426777671312294, 49.40488826819233 ], [ 20.423413093886861, 49.402922945193886 ], [ 20.407641235188674, 49.393551550706839 ], [ 20.40401348343087, 49.391430903266887 ], [ 20.384951537900424, 49.391626312528764 ], [ 20.381390350505853, 49.393868223708807 ], [ 20.366213685327867, 49.403509208308833 ], [ 20.347146855999647, 49.403700846400817 ], [ 20.32807985183123, 49.403890664857265 ], [ 20.31259344148944, 49.394669847328849 ], [ 20.312485131299066, 49.383099816312999 ], [ 20.312376436294798, 49.371529767654913 ], [ 20.312267348163974, 49.359959701446648 ], [ 20.312157855243854, 49.348389617818349 ], [ 20.307461279033991, 49.345634510111147 ], [ 20.30291350783353, 49.348494203170304 ], [ 20.288721875964352, 49.357509061560904 ], [ 20.274156122656652, 49.348814818236946 ], [ 20.269371610571156, 49.346005302766784 ], [ 20.26473434051281, 49.348918304506 ], [ 20.250622846913771, 49.35787630903674 ], [ 20.236144475975255, 49.349227624399454 ], [ 20.231281277388074, 49.346369030634733 ], [ 20.212235865885166, 49.346548246744149 ], [ 20.193190293185605, 49.34672568827996 ], [ 20.179028841821619, 49.338253127444034 ], [ 20.173866480418184, 49.335213350655813 ], [ 20.159940549837778, 49.326875016391384 ], [ 20.173469090889327, 49.318497457995392 ], [ 20.178867872440691, 49.315112186140226 ], [ 20.173310887521406, 49.311838419610311 ], [ 20.154278516751045, 49.312012199426619 ], [ 20.140785455003538, 49.303923111373422 ], [ 20.134977477893244, 49.300497192080407 ], [ 20.12171259522303, 49.292538523698205 ], [ 20.12164300548287, 49.280967864948266 ], [ 20.121572706524898, 49.269397190719239 ], [ 20.115158351197881, 49.265608885614149 ], [ 20.102512943863321, 49.258009284304173 ], [ 20.102445451017477, 49.246438538286633 ], [ 20.102377131421935, 49.23486777775868 ], [ 20.102307948591019, 49.223297003066783 ], [ 20.095109390420276, 49.219039223482469 ], [ 20.083264372598443, 49.211905731504565 ], [ 20.083197652560553, 49.200334888498524 ], [ 20.083129946886103, 49.188764032298963 ], [ 20.075352049653809, 49.184157887309304 ], [ 20.056368242379971, 49.184321855369973 ], [ 20.048773011209214, 49.189081163232935 ], [ 20.037628586855899, 49.196165579125172 ], [ 20.030195577481798, 49.20081984461487 ], [ 20.018880009153914, 49.20800785154514 ], [ 20.011611897403469, 49.21255554881995 ], [ 20.000122501559222, 49.219848654187544 ], [ 19.993021943218274, 49.224288273571325 ], [ 19.981356056267956, 49.231687963215208 ], [ 19.962353603607959, 49.231841306339426 ], [ 19.943351005856126, 49.231992396393132 ], [ 19.924348264483058, 49.232141189623604 ], [ 19.905345381002949, 49.232287640989419 ], [ 19.893453820129452, 49.225101357676458 ], [ 19.893432094527821, 49.213530178886884 ], [ 19.885924527689458, 49.209063987492634 ], [ 19.874422371375939, 49.202104299385098 ], [ 19.866726097389595, 49.197522436045809 ], [ 19.847736224507745, 49.197661312365774 ], [ 19.828746216288483, 49.197797646286475 ], [ 19.821202608257458, 49.202494969729855 ], [ 19.809946878358932, 49.209614672385939 ], [ 19.798463512027141, 49.20265441181224 ], [ 19.790765801246206, 49.198062494877583 ], [ 19.783216179772523, 49.202758815301145 ], [ 19.771957256233797, 49.209874389044728 ], [ 19.764588346576812, 49.214454947056609 ], [ 19.764954102854119, 49.226023815640787 ], [ 19.765321104026427, 49.237592652228827 ], [ 19.772455542480856, 49.241848005785968 ], [ 19.78469907055398, 49.249033897863555 ], [ 19.785072827748895, 49.260602588521074 ], [ 19.791829039708723, 49.264628347662466 ], [ 19.804466823081441, 49.272040387844555 ], [ 19.811032571982562, 49.27594973084198 ], [ 19.823871365146019, 49.283474849925746 ], [ 19.811286251751781, 49.29141416182312 ], [ 19.805228680871078, 49.295177443653813 ], [ 19.805611194394597, 49.306745924871088 ], [ 19.805994720578521, 49.318314375260492 ], [ 19.806379227726456, 49.32988279503742 ], [ 19.806764685245046, 49.341451184409934 ], [ 19.807151063823472, 49.353019543577446 ], [ 19.807538335620368, 49.36458787272948 ], [ 19.807926474458064, 49.376156172044226 ], [ 19.793762708438987, 49.385060642578381 ], [ 19.789252468850044, 49.387856152147656 ], [ 19.789637869299863, 49.399424478211984 ], [ 19.79002406824867, 49.410992775033201 ], [ 19.775252380439301, 49.420264956704948 ], [ 19.76018873625592, 49.411192777189299 ], [ 19.755996724569574, 49.408700533505865 ], [ 19.74114046307017, 49.399745526438046 ], [ 19.736750117528317, 49.397133413539272 ], [ 19.722100154643325, 49.388295080026452 ], [ 19.717512552819237, 49.385563562575371 ], [ 19.713005330178127, 49.388351527095494 ], [ 19.698615487003281, 49.397373526322518 ], [ 19.694307574374392, 49.400036245838599 ], [ 19.679709361878547, 49.409180942980967 ], [ 19.66063721655091, 49.40929348461124 ], [ 19.641564954182144, 49.409402881843157 ], [ 19.637461948328163, 49.411934504962559 ], [ 19.637813426479202, 49.423503418722071 ], [ 19.641779627145375, 49.425868126760662 ], [ 19.657244578645198, 49.434965446298953 ], [ 19.642022533783503, 49.444480657116692 ], [ 19.63851859498169, 49.446641162607207 ], [ 19.623084749992735, 49.456280211799907 ], [ 19.603994120254697, 49.456383277909254 ], [ 19.584903380882235, 49.45648299328105 ], [ 19.581606702504686, 49.458512135486075 ], [ 19.581947565824667, 49.470081161878326 ], [ 19.566081955530677, 49.47996679613113 ], [ 19.563190618008715, 49.481744722859695 ], [ 19.563528368225903, 49.493313766913886 ], [ 19.563866842389341, 49.504882783626179 ], [ 19.547373074809752, 49.515143173566869 ], [ 19.545093235968785, 49.516543398487819 ], [ 19.545428649020401, 49.528112431902969 ], [ 19.545764844269669, 49.539681437812966 ], [ 19.546101852224297, 49.551250416070282 ], [ 19.528763812178372, 49.562015190449948 ], [ 19.527307862815217, 49.562908120256402 ], [ 19.527642043806466, 49.574477113592643 ], [ 19.509875302456166, 49.585494600640544 ], [ 19.490733908825863, 49.585576618500411 ], [ 19.489692465425094, 49.586214385153539 ], [ 19.471705215716536, 49.597352446363026 ], [ 19.470870986091157, 49.597862938410799 ], [ 19.471194433851764, 49.609432053247311 ], [ 19.452775719857005, 49.620823630335906 ], [ 19.434154853078596, 49.60957689364227 ], [ 19.434263953629575, 49.598006063027569 ], [ 19.433412829519163, 49.597497648248108 ], [ 19.414266514185332, 49.597564506264895 ], [ 19.396099846527612, 49.586572513383729 ], [ 19.396215970342659, 49.575001657380113 ], [ 19.394931230458813, 49.57423307137887 ], [ 19.375793920259138, 49.574292240266587 ], [ 19.358081130497151, 49.563555450752482 ], [ 19.358204411449172, 49.551984572598755 ], [ 19.358326927636814, 49.540413673464293 ], [ 19.356401107917801, 49.539259559860149 ], [ 19.337277372635736, 49.539311057056651 ], [ 19.318153577514622, 49.539358621713433 ], [ 19.299029726728133, 49.539402238013444 ], [ 19.279905824489617, 49.539441892761651 ], [ 19.262910423031197, 49.529099274501156 ], [ 19.260719661240628, 49.527782728082187 ], [ 19.243953876674272, 49.51757024737411 ], [ 19.24154261997883, 49.516120110109597 ], [ 19.225006657323604, 49.506038078250064 ], [ 19.225156876884054, 49.494467195409044 ], [ 19.225306436606431, 49.482896290390435 ], [ 19.222268772547302, 49.481067191353326 ], [ 19.206375918191164, 49.471360977246455 ], [ 19.222181794930886, 49.461840449282846 ], [ 19.225603662129412, 49.459754413658992 ], [ 19.222162993745897, 49.45768166089033 ], [ 19.203070801495411, 49.457705957272587 ], [ 19.187611076234411, 49.448251599303376 ], [ 19.187766774238341, 49.436680644185486 ], [ 19.187921868920164, 49.425109666557788 ], [ 19.188076363836259, 49.413538666415612 ], [ 19.183803742018281, 49.410959657127663 ], [ 19.164729638297832, 49.410976363722632 ], [ 19.145655512561486, 49.410989065985262 ], [ 19.12658136913528, 49.410997761268327 ], [ 19.107507212353138, 49.411002448657719 ], [ 19.103162093983105, 49.413645599057013 ], [ 19.088454053892075, 49.422693787891895 ], [ 19.07376598432975, 49.413668087878321 ], [ 19.069358876075054, 49.410999804058882 ], [ 19.050284705255638, 49.410992477843372 ], [ 19.035861858827349, 49.402115292557298 ], [ 19.03120312958908, 49.399291138812352 ], [ 19.012133498979079, 49.399275932561096 ], [ 18.993063880910082, 49.39925674107252 ], [ 18.973994279686703, 49.39923357203925 ], [ 18.969238817675404, 49.40211676202388 ], [ 18.969427656410691, 49.413687574811384 ], [ 18.973985182262183, 49.416454107452807 ], [ 18.988730932528753, 49.425261806359842 ], [ 18.98892581553838, 49.4368325411154 ], [ 18.989121406259354, 49.448403252333932 ], [ 18.973963364581437, 49.457685582826826 ], [ 18.970190075304306, 49.459970591897196 ], [ 18.97038251775211, 49.471541287661154 ], [ 18.970575738222685, 49.483111960028786 ], [ 18.970769765815763, 49.494682609005103 ], [ 18.970964634286624, 49.506253234596031 ], [ 18.954817347083324, 49.516119402278726 ], [ 18.952008526527973, 49.517817478022089 ], [ 18.935687041910693, 49.527781347130322 ], [ 18.916567542994194, 49.527745738200409 ], [ 18.900392092756231, 49.517784555040627 ], [ 18.897472531155056, 49.516012577168148 ], [ 18.878357664213233, 49.515969185466297 ], [ 18.875388862089309, 49.517760328265084 ], [ 18.859209269723838, 49.527615625098726 ], [ 18.856400659345621, 49.529308855550333 ], [ 18.856571410698006, 49.540879579676357 ], [ 18.856743304798922, 49.552450281692636 ], [ 18.839975384026424, 49.56264949011846 ], [ 18.837739710249711, 49.56399566426262 ], [ 18.837909723080131, 49.57556634674944 ], [ 18.838081111680335, 49.587137007643697 ], [ 18.838253957450238, 49.598707647054113 ], [ 18.838428347450151, 49.610278265096781 ], [ 18.820628042978733, 49.621085394075173 ], [ 18.819405117208845, 49.621820504445566 ], [ 18.819578656558171, 49.633391104931626 ], [ 18.819754061686869, 49.644961684802212 ], [ 18.819931442652248, 49.656532244220948 ], [ 18.820110915141637, 49.66810278335933 ], [ 18.80123408577397, 49.679544382492757 ], [ 18.80107160968328, 49.679641881401487 ], [ 18.801199907621747, 49.687927220857404 ], [ 18.820389925066657, 49.685835135844094 ], [ 18.839578211039935, 49.6837676775787 ], [ 18.858764790271522, 49.681726572973105 ], [ 18.877623942304172, 49.679748074719996 ], [ 18.877949688721486, 49.679714137972034 ], [ 18.897132881379108, 49.677758573076204 ], [ 18.916314479011721, 49.675834807209021 ], [ 18.935494516931957, 49.673944969669655 ], [ 18.954673033718279, 49.672091261510985 ], [ 18.973850071362047, 49.670275941768239 ], [ 18.993025675382249, 49.668501312438416 ], [ 18.995905566539594, 49.668242431592702 ], [ 19.012199900171101, 49.666790761787766 ], [ 19.031372811806154, 49.665128709346185 ], [ 19.050544466545841, 49.663513760853348 ], [ 19.069714923673757, 49.661948187637819 ], [ 19.08888424593237, 49.660434211822775 ], [ 19.108052499381323, 49.658973986240511 ], [ 19.12721975320764, 49.657569573957481 ], [ 19.141232302955672, 49.656586124523926 ], [ 19.146386095753158, 49.656228350397285 ], [ 19.165551636614367, 49.654960548427866 ], [ 19.18471641346375, 49.653753156693014 ], [ 19.203880504001351, 49.652607641707597 ], [ 19.223043987344283, 49.651525279921678 ], [ 19.242206943562437, 49.650507139140061 ], [ 19.261369453175313, 49.649554060814488 ], [ 19.280531596613308, 49.648666643368216 ], [ 19.29969345364707, 49.64784522670071 ], [ 19.318855102789129, 49.64708987800492 ], [ 19.338016620672072, 49.646400379013492 ], [ 19.357178081407902, 49.645776214772553 ], [ 19.376339555933406, 49.645216564022256 ], [ 19.395501111346242, 49.644720291244866 ], [ 19.410828807743854, 49.644373134394172 ], [ 19.414662820560654, 49.644287155961656 ], [ 19.433824765650836, 49.643917991245068 ], [ 19.452986958009344, 49.643605871045914 ], [ 19.472149441856356, 49.643348388063416 ], [ 19.491312254396185, 49.643142813164339 ], [ 19.510475425211279, 49.642986097774298 ], [ 19.52963897567864, 49.642874877837237 ], [ 19.548802918412246, 49.6428054792853 ], [ 19.567967256734967, 49.642773924956387 ], [ 19.587131984183181, 49.642775942894531 ], [ 19.606297084047021, 49.642806975967936 ], [ 19.625462528949281, 49.642862192742683 ], [ 19.644628280465518, 49.642936499554288 ], [ 19.663794288788164, 49.643024553726285 ], [ 19.679910659986998, 49.643105682408795 ], [ 19.682960500470145, 49.643121352152065 ], [ 19.702126879641515, 49.643223660315321 ], [ 19.721293298154215, 49.643322341418767 ], [ 19.740459656607801, 49.643411100365249 ], [ 19.759625843067351, 49.643483471928974 ], [ 19.778791733051026, 49.643532840897429 ], [ 19.797957189583713, 49.643552463321093 ], [ 19.817122063320273, 49.643535488894265 ], [ 19.836286192742055, 49.643474984496017 ], [ 19.855449404430548, 49.643363958922173 ], [ 19.874611513422067, 49.643195388840603 ], [ 19.893772323647447, 49.642962245998646 ], [ 19.91293162846063, 49.64265752570644 ], [ 19.93208921126006, 49.642274276611381 ], [ 19.951244846206464, 49.641805631767525 ], [ 19.970398299040344, 49.641244840989373 ], [ 19.978468578000413, 49.640967423536274 ], [ 19.989549426578812, 49.6405901683327 ], [ 20.008697993532113, 49.63983554910034 ], [ 20.027843679356927, 49.638971317765005 ], [ 20.046986229850571, 49.637991606073456 ], [ 20.066125387922106, 49.63689083108725 ], [ 20.085260895005568, 49.635663732999703 ], [ 20.10439249257837, 49.634305413666148 ], [ 20.123519923783032, 49.632811375692484 ], [ 20.14264293514946, 49.631177561912516 ], [ 20.161761278414172, 49.629400395072842 ], [ 20.180519114474968, 49.627512709187364 ], [ 20.180874725373098, 49.627477352834212 ], [ 20.199983777510884, 49.625435771303984 ], [ 20.219087540531913, 49.62324534114277 ], [ 20.238185807376979, 49.62090472632152 ], [ 20.257278385998742, 49.61841324812481 ], [ 20.276365101611887, 49.615770922002774 ], [ 20.282635933732088, 49.614855459415793 ], [ 20.29544654967625, 49.613006812107209 ], [ 20.314522285672364, 49.610109632526132 ], [ 20.333591834160732, 49.607067599546056 ], [ 20.352655109826042, 49.603883681380566 ], [ 20.361263828014366, 49.602386561796315 ], [ 20.371712830168107, 49.600589288963214 ], [ 20.390764896660908, 49.597185429775159 ], [ 20.409810678997914, 49.593654606490482 ], [ 20.428850215114458, 49.590003113803199 ], [ 20.428862049832492, 49.590000784449302 ], [ 20.447885254822697, 49.586294744618307 ], [ 20.466914293059602, 49.582481461341047 ], [ 20.485937479916171, 49.578572157595666 ], [ 20.490323739436917, 49.577654564179547 ], [ 20.504956432497462, 49.574622976941846 ], [ 20.523970430675426, 49.570612230335861 ], [ 20.542979333560833, 49.566537659043234 ], [ 20.548621738672185, 49.565317940290441 ], [ 20.561984861565044, 49.562455444903918 ], [ 20.580986610278721, 49.558353295450019 ], [ 20.599984429218019, 49.554227266420163 ], [ 20.60579910550052, 49.552967359600942 ], [ 20.618980218015466, 49.550135611846123 ], [ 20.637973718021723, 49.546069375407384 ], [ 20.65696490619969, 49.542026973222924 ], [ 20.663886587993137, 49.540575290231459 ], [ 20.675955720787488, 49.538064228118053 ], [ 20.694946285291525, 49.534182027667093 ], [ 20.713936639295923, 49.530378822165574 ], [ 20.72566028746936, 49.528098969101258 ], [ 20.73292834496689, 49.526696193858236 ], [ 20.751922656669809, 49.523165330447384 ], [ 20.770919350274699, 49.519775167029806 ], [ 20.789919432569995, 49.516548820913044 ], [ 20.796864011003347, 49.515443378007376 ], [ 20.808924952645771, 49.51353670082181 ], [ 20.827936472303907, 49.510747235920476 ], [ 20.846954582358855, 49.508189277863885 ], [ 20.865980484894251, 49.505887382605117 ], [ 20.885015420725296, 49.503866123234673 ], [ 20.903967781879953, 49.502158297780028 ], [ 20.904060665136335, 49.502149975693349 ], [ 20.923118104701544, 49.5007780328366 ], [ 20.942188233967983, 49.499752684351897 ], [ 20.961272346322442, 49.499096190944286 ], [ 20.980371721851807, 49.498829607097584 ], [ 20.999487613049787, 49.498972482462015 ], [ 21.01862122963383, 49.499542558545286 ], [ 21.028174113185774, 49.500046698131293 ], [ 21.03777408023338, 49.50056407313523 ], [ 21.056947459575131, 49.502055221223785 ], [ 21.07614198561064, 49.504017493903774 ], [ 21.095358526940004, 49.50645815139108 ], [ 21.114597828716974, 49.509381280313022 ], [ 21.118132327722428, 49.510005757788583 ], [ 21.133861868959052, 49.512819098739236 ], [ 21.153150184070039, 49.516747013564853 ], [ 21.170106590562767, 49.520613955007512 ], [ 21.172462967553621, 49.521156091741865 ], [ 21.191801842020634, 49.526069621902863 ], [ 21.211072042619278, 49.531409865389172 ], [ 21.211165080689817, 49.531435790219447 ], [ 21.230554338439344, 49.53727883474825 ], [ 21.246142236071947, 49.542305969050673 ], [ 21.249967609646387, 49.543542410168556 ], [ 21.269405328724201, 49.550224744469261 ], [ 21.277765740347487, 49.553259421640554 ], [ 21.288866100369077, 49.557284952797268 ], [ 21.307184835705769, 49.564248270061292 ], [ 21.308348804516189, 49.564689363849141 ], [ 21.327852592563449, 49.572411138081087 ], [ 21.334800185977755, 49.575266105009831 ], [ 21.347375592487019, 49.580403002674338 ], [ 21.361354741040955, 49.586299051134461 ], [ 21.366916269299114, 49.588626233757985 ], [ 21.386472967409759, 49.59704092973621 ], [ 21.387153332394515, 49.597341547261884 ], [ 21.406043669194261, 49.605601165178555 ], [ 21.412298209634368, 49.608391965974306 ], [ 21.425626573726181, 49.614266904495537 ], [ 21.437174401592628, 49.619442622679429 ], [ 21.445219857130386, 49.622998977553465 ], [ 21.461943686450496, 49.630490248757305 ], [ 21.464821708768575, 49.63175976557477 ], [ 21.484430076380619, 49.640508135617438 ], [ 21.486705526443089, 49.641532776138654 ], [ 21.504043043974569, 49.649206949081091 ], [ 21.511598942706939, 49.652567193352596 ], [ 21.523659349137713, 49.657832899574373 ], [ 21.53681846229571, 49.663589152884825 ], [ 21.543277552831405, 49.666360044891675 ], [ 21.562491024556415, 49.674595633110577 ], [ 21.562896351779933, 49.674765853290531 ], [ 21.582513387692693, 49.683008603050702 ], [ 21.588676108134074, 49.685585004842409 ], [ 21.602128525530723, 49.691089499693483 ], [ 21.615583299036309, 49.696552186976234 ], [ 21.621740973006148, 49.698997506372564 ], [ 21.641349577634688, 49.706715290296287 ], [ 21.643342820763152, 49.707493705688861 ], [ 21.660952644318531, 49.714216126471698 ], [ 21.672085481163833, 49.718405932350272 ], [ 21.680550954060699, 49.72151904510649 ], [ 21.700143728394469, 49.728614411569076 ], [ 21.702014174681079, 49.729283403493405 ], [ 21.71972906630862, 49.735472807957549 ], [ 21.733307266415153, 49.740120993328944 ], [ 21.739308556915013, 49.74212762926679 ], [ 21.75888059864813, 49.748555076825411 ], [ 21.766204011319935, 49.750911884879145 ], [ 21.778445174208631, 49.754759752477547 ], [ 21.798002900079268, 49.760757128647988 ], [ 21.800967999241042, 49.761648341099885 ], [ 21.817551810326542, 49.766517714072059 ], [ 21.837094176905211, 49.772085393859015 ], [ 21.837936855217649, 49.772320412402564 ], [ 21.856627035587447, 49.777413817325005 ], [ 21.876153286140774, 49.78255689974786 ], [ 21.877547000145757, 49.78291515001699 ], [ 21.895669956959097, 49.787468648678782 ], [ 21.915179553329519, 49.792195502733222 ], [ 21.920366548902763, 49.793415525722409 ], [ 21.934680049871567, 49.796707727627286 ], [ 21.954172616794331, 49.801028865729435 ], [ 21.967145995472475, 49.803798761462652 ], [ 21.973657015530613, 49.805158846557532 ], [ 21.993132296426406, 49.809086078258701 ], [ 22.012599967951122, 49.812838836199845 ], [ 22.019026040665487, 49.814030335990068 ], [ 22.032058482420648, 49.81639578504371 ], [ 22.05150845162748, 49.819770446761339 ], [ 22.070950437946635, 49.822975211039356 ], [ 22.077811604485532, 49.824055449194105 ], [ 22.090383212520244, 49.8259940576608 ], [ 22.109807192502011, 49.828837019769949 ], [ 22.12922285679765, 49.831514830197698 ], [ 22.14666968720465, 49.833777585778833 ], [ 22.148629955199521, 49.834026731319554 ], [ 22.168027386994943, 49.836358976741039 ], [ 22.187416208872069, 49.838530941992751 ], [ 22.206796312559575, 49.840543929328369 ], [ 22.226167592567926, 49.842399248387153 ], [ 22.23272882088424, 49.842980009239582 ], [ 22.245529418845301, 49.844090347429407 ], [ 22.26488201322141, 49.845623463762138 ], [ 22.284225560779468, 49.847004141248682 ], [ 22.303559976663664, 49.848233833421851 ], [ 22.322885181390038, 49.849314035098935 ], [ 22.34220110139799, 49.850246289164538 ], [ 22.359397538540492, 49.850947630122029 ], [ 22.361507636046777, 49.851031709882029 ], [ 22.380804532235761, 49.851669199921126 ], [ 22.400092025867728, 49.852164646020221 ], [ 22.419370070961087, 49.852519807938037 ], [ 22.438638628737714, 49.852736504312439 ], [ 22.457897667785076, 49.852816613322645 ], [ 22.47714716413428, 49.852762072168979 ], [ 22.496387101247919, 49.852574875330497 ], [ 22.515617469912979, 49.852257071581327 ], [ 22.534838268035418, 49.851810759767375 ], [ 22.554049500334688, 49.851238083365395 ], [ 22.57325117793788, 49.850541223865193 ], [ 22.592443317874746, 49.849722393034988 ], [ 22.611625942476287, 49.848783824145805 ], [ 22.630799078680944, 49.847727762246919 ], [ 22.64996275725392, 49.84655645359738 ], [ 22.669117011926154, 49.845272134370148 ], [ 22.688261878460768, 49.843877018754718 ], [ 22.707397393655466, 49.842373286590863 ], [ 22.726523594290441, 49.840763070670896 ], [ 22.744807841951268, 49.839122898867082 ], [ 22.745640535104847, 49.839048690397455 ], [ 22.76474876371757, 49.837238755393237 ], [ 22.783847972629761, 49.83533075781196 ], [ 22.802938215062287, 49.833326830939122 ], [ 22.822019539807901, 49.831229007756491 ], [ 22.841091990018661, 49.829039208206851 ], [ 22.860155602008618, 49.826759227014328 ], [ 22.879210404082386, 49.824390722173028 ], [ 22.892499817387957, 49.822675937317634 ], [ 22.898256839675266, 49.821940476462359 ], [ 22.917295732849123, 49.81941984817486 ], [ 22.936326227365242, 49.816819296354595 ], [ 22.955348344113805, 49.814140204060756 ], [ 22.955149782810643, 49.80897717274209 ], [ 22.954916640208225, 49.80885106114556 ], [ 22.935590008521174, 49.798069540533128 ], [ 22.934767536406145, 49.797624298627106 ], [ 22.916000836446941, 49.787159664094752 ], [ 22.914629568502516, 49.786416750124808 ], [ 22.896383467482689, 49.776247487396432 ], [ 22.895862022662197, 49.764690576592301 ], [ 22.895322372311483, 49.753134266337781 ], [ 22.892612638398237, 49.751664232056562 ], [ 22.87564038022651, 49.742220882361245 ], [ 22.872509436884645, 49.740521007406024 ], [ 22.855935767285025, 49.731304968898939 ], [ 22.855344328209338, 49.719750255768901 ], [ 22.851486715726331, 49.717653621394703 ], [ 22.835603879707417, 49.708832171027176 ], [ 22.831410897806446, 49.706551473533878 ], [ 22.815845991098502, 49.697911356359874 ], [ 22.811345433330544, 49.695461438701493 ], [ 22.796072577883223, 49.686987739236514 ], [ 22.791290207453574, 49.684382373717661 ], [ 22.776285497030482, 49.676061250329049 ], [ 22.775629463296223, 49.664508358456999 ], [ 22.774962300490326, 49.652955815890373 ], [ 22.769436531743725, 49.649941418298226 ], [ 22.755145543402573, 49.642026803606399 ], [ 22.749413043378141, 49.63889718311043 ], [ 22.73532077906383, 49.631094714727205 ], [ 22.734628652031223, 49.619542797851899 ], [ 22.728508126448393, 49.61619779251766 ], [ 22.714791618486448, 49.60860767618172 ], [ 22.71408590344716, 49.59705609289167 ], [ 22.707625101036847, 49.593521376123455 ], [ 22.694240392974748, 49.58611780675308 ], [ 22.69352367383437, 49.574566468944177 ], [ 22.68676360539024, 49.570864106934238 ], [ 22.673673044801326, 49.563624903517479 ], [ 22.67294762363354, 49.552073733412406 ], [ 22.665923317390181, 49.54822258369898 ], [ 22.653094828524988, 49.541128789432008 ], [ 22.645969699898053, 49.537219317367011 ], [ 22.633243076758934, 49.530180459384908 ], [ 22.644875776354489, 49.522528545065299 ], [ 22.651626020309727, 49.518026779314617 ], [ 22.65088498365014, 49.506475960584623 ], [ 22.662239801637352, 49.498996718244712 ], [ 22.681310462907781, 49.498413434200053 ], [ 22.688350486951162, 49.493711667271903 ], [ 22.699514066464001, 49.486347910886529 ], [ 22.706692553595271, 49.481550230389622 ], [ 22.705927820588457, 49.470000375362801 ], [ 22.705159740230091, 49.458450612229392 ], [ 22.704388580296666, 49.446900932340732 ], [ 22.70361459518174, 49.435351327481953 ], [ 22.714230590957104, 49.428331867721241 ], [ 22.721914694422402, 49.42318852072907 ], [ 22.721131364717621, 49.411639274726639 ], [ 22.731527403065975, 49.404756954642927 ], [ 22.739412658587892, 49.399474152411941 ], [ 22.738620687943737, 49.387925245484723 ], [ 22.737826889656663, 49.376376382123929 ], [ 22.737031456687244, 49.364827556042087 ], [ 22.736234572358029, 49.353278761267276 ], [ 22.735436410847754, 49.341729992127021 ], [ 22.745308332102574, 49.335178908600696 ], [ 22.753675654557323, 49.329563628778594 ], [ 22.752870727486268, 49.318015141516909 ], [ 22.752064960314428, 49.306466665865258 ], [ 22.751258497143713, 49.294918197112047 ], [ 22.750451474844365, 49.283369730783491 ], [ 22.749644023390342, 49.27182126263272 ], [ 22.748836266169914, 49.260272788629344 ], [ 22.748028320272823, 49.248724304950152 ], [ 22.738352046257745, 49.243394231361052 ], [ 22.719384243254147, 49.244027921640232 ], [ 22.709219603211665, 49.238403906193348 ], [ 22.708421478125004, 49.226854883551816 ], [ 22.717633066964495, 49.220729799973334 ], [ 22.736595024113154, 49.220136780777885 ], [ 22.745604432366601, 49.214078760552098 ], [ 22.735726813743888, 49.208633278639837 ], [ 22.72581157267048, 49.203145046777863 ], [ 22.725009220578567, 49.191596207201023 ], [ 22.733991350131646, 49.185616858874667 ], [ 22.752939465267769, 49.185020511917273 ], [ 22.762157249758769, 49.178815563667641 ], [ 22.752047587875396, 49.173240317198797 ], [ 22.742376042381014, 49.167884366856356 ], [ 22.741570125156922, 49.156335690382399 ], [ 22.750327541004388, 49.150499580723007 ], [ 22.769261834706054, 49.149899874878024 ], [ 22.778768197514378, 49.155122675332187 ], [ 22.789074381856871, 49.160804447547768 ], [ 22.7984629862476, 49.15447555974751 ], [ 22.797642645840966, 49.142927629353579 ], [ 22.806245841360468, 49.137184282644547 ], [ 22.815776400733739, 49.130753912068798 ], [ 22.82428733628889, 49.125068239579363 ], [ 22.833900475036842, 49.118577569057017 ], [ 22.842319997890151, 49.112949128264894 ], [ 22.852014941415376, 49.106398602176611 ], [ 22.8603438348479, 49.100826990166794 ], [ 22.879256800594074, 49.10020926755211 ], [ 22.889056923889196, 49.093579607655833 ], [ 22.888215321709659, 49.082032804669915 ], [ 22.877373134152325, 49.076061103364786 ], [ 22.868447557409095, 49.071122824334068 ], [ 22.86761279458916, 49.059575659806953 ], [ 22.86677902207213, 49.048028446533785 ], [ 22.874772966800812, 49.042674264002272 ], [ 22.884858254348131, 49.035845123244691 ], [ 22.884021545904105, 49.024298077995482 ], [ 22.883185937022962, 49.012750980222286 ], [ 22.871965880723014, 49.006560934308411 ], [ 22.853090689603025, 49.007208144614381 ], [ 22.842907486841344, 49.014101474522519 ], [ 22.835105983518098, 49.019437600503331 ] ] ], [ [ [ 18.72445332486835, 49.690988765913417 ], [ 18.724342877171662, 49.691054892148365 ], [ 18.724421687103984, 49.696584420436032 ], [ 18.743619023544017, 49.694378869921088 ], [ 18.762814522825266, 49.69219276935096 ], [ 18.772018321781115, 49.691158551493565 ], [ 18.762819706287424, 49.69112755882751 ], [ 18.743990734910632, 49.679529765831667 ], [ 18.743698039655257, 49.679351978770747 ], [ 18.743403482294877, 49.679528466163106 ], [ 18.72445332486835, 49.690988765913417 ] ] ], [ [ [ 16.631728667766591, 50.117500696340812 ], [ 16.630098867819402, 50.118414724030941 ], [ 16.629635572025585, 50.129976342003673 ], [ 16.611237136274944, 50.140298940913638 ], [ 16.591894242283409, 50.139846965505207 ], [ 16.59030378828637, 50.140737529805044 ], [ 16.589828154101383, 50.152298756672238 ], [ 16.571374209713671, 50.162635108605841 ], [ 16.569909174904211, 50.163454581072394 ], [ 16.569425440960568, 50.175015549857669 ], [ 16.568939587182534, 50.186576454733114 ], [ 16.568451646883656, 50.198137296386555 ], [ 16.567961654964549, 50.209698075539372 ], [ 16.567469647781579, 50.221258792943701 ], [ 16.548453660093017, 50.231885149445162 ], [ 16.547513169922262, 50.232410093642926 ], [ 16.528473698666467, 50.243041553725426 ], [ 16.527548026484187, 50.243557820362362 ], [ 16.508484402334197, 50.254194927962942 ], [ 16.507574541634387, 50.254701976476554 ], [ 16.507065324558983, 50.266262093194662 ], [ 16.48787437721052, 50.276959808329728 ], [ 16.487079142722088, 50.277402508310296 ], [ 16.467861232793322, 50.288107861403297 ], [ 16.467085500246025, 50.288539364101283 ], [ 16.466565654165031, 50.300099084713956 ], [ 16.447216664854352, 50.31086774217475 ], [ 16.446560728926379, 50.311232220519528 ], [ 16.446035398555562, 50.322791727727953 ], [ 16.426551971086095, 50.333625920274748 ], [ 16.407132970881282, 50.333154268959859 ], [ 16.387714483106784, 50.332679289596051 ], [ 16.387043587865069, 50.333051298201582 ], [ 16.38650828571965, 50.344610378822253 ], [ 16.367011398871725, 50.355434752413096 ], [ 16.366479508793404, 50.355729369282557 ], [ 16.366977493457359, 50.356047320116105 ], [ 16.385434741754846, 50.367728417063162 ], [ 16.365724668223518, 50.378667156609275 ], [ 16.36539960285123, 50.378847113632901 ], [ 16.345639169714286, 50.38980780012141 ], [ 16.326198158032856, 50.389329518109449 ], [ 16.306757660030456, 50.388848066806744 ], [ 16.288507626358175, 50.377078870103247 ], [ 16.287980966106591, 50.376742042471761 ], [ 16.287417321304954, 50.377053430511403 ], [ 16.267878216399307, 50.387875700211367 ], [ 16.267371973239083, 50.388155154584517 ], [ 16.26682022290484, 50.3997134248159 ], [ 16.24709203657514, 50.410633473369906 ], [ 16.246769134281482, 50.41081153014315 ], [ 16.226964788590607, 50.421768556475577 ], [ 16.226715056553449, 50.421906155837995 ], [ 16.206827893602615, 50.432903955307118 ], [ 16.206658328457042, 50.432997309396264 ], [ 16.206100311651266, 50.444555186795149 ], [ 16.206140099992556, 50.444580655167215 ], [ 16.206182772918154, 50.444557168056733 ], [ 16.226276715852254, 50.433539598670691 ], [ 16.245276927077175, 50.441907515665278 ], [ 16.264977352631963, 50.438251531618654 ], [ 16.282326860773257, 50.434790500371932 ], [ 16.284691131821624, 50.434307892863082 ], [ 16.304416516409372, 50.430100953984706 ], [ 16.324156790421974, 50.425566559474682 ], [ 16.329379993640412, 50.424309611688713 ], [ 16.343909880857701, 50.42073431333926 ], [ 16.363678046116814, 50.415556730429223 ], [ 16.370526073585165, 50.413676356972033 ], [ 16.383459987452376, 50.410049389709968 ], [ 16.403257519137242, 50.404171417651582 ], [ 16.407273040701131, 50.402930622547203 ], [ 16.423068454230684, 50.397954391098082 ], [ 16.440649192411609, 50.392099203954096 ], [ 16.442895625676904, 50.391337614888343 ], [ 16.46273548648961, 50.384377923884792 ], [ 16.471399457515382, 50.381201195685748 ], [ 16.482589761952834, 50.37703443786377 ], [ 16.500046150071789, 50.370249904137331 ], [ 16.502458350030995, 50.369299712859586 ], [ 16.522337969773794, 50.361227075394261 ], [ 16.527032257516257, 50.359256300533247 ], [ 16.54222854097247, 50.352809673890995 ], [ 16.552675444159298, 50.348228222880365 ], [ 16.562129581351758, 50.344048270146011 ], [ 16.577228720062639, 50.33717182810431 ], [ 16.582039358418029, 50.334968266252481 ], [ 16.600911821224177, 50.326092337916137 ], [ 16.601955955153919, 50.325599606038779 ], [ 16.621875948287549, 50.316003456211583 ], [ 16.623926027945419, 50.314994395548659 ], [ 16.641798044366986, 50.306200096325099 ], [ 16.64641512059945, 50.303881307067918 ], [ 16.661720710524897, 50.296215413153874 ], [ 16.668503877562838, 50.292755878160548 ], [ 16.681641764656952, 50.286089584032766 ], [ 16.690308785293034, 50.281620650358171 ], [ 16.701559090289184, 50.27586288296321 ], [ 16.711932851479236, 50.270477810159022 ], [ 16.721470686658382, 50.265574634613806 ], [ 16.733468305407133, 50.259329256373292 ], [ 16.741374711192396, 50.255262270234219 ], [ 16.7549986853485, 50.248176651519117 ], [ 16.761269512667432, 50.244960529165944 ], [ 16.776600451770577, 50.237021461051938 ], [ 16.781153654223033, 50.234700833511525 ], [ 16.798344228046702, 50.225864983184771 ], [ 16.801025926258269, 50.224510847300941 ], [ 16.8202957438262, 50.214708371336279 ], [ 16.820885349931128, 50.214414216985325 ], [ 16.821481802530549, 50.203159964257829 ], [ 16.822096253172401, 50.191600809318906 ], [ 16.821929056357121, 50.191495005827385 ], [ 16.802562123554516, 50.191083855810625 ], [ 16.784140389930389, 50.179311972146465 ], [ 16.784768929333389, 50.167753192886543 ], [ 16.785399344249157, 50.156194428066911 ], [ 16.784808202585381, 50.155819709529929 ], [ 16.766762489288332, 50.144266576017209 ], [ 16.765997915735124, 50.143781560251114 ], [ 16.74665114671755, 50.143359093380603 ], [ 16.728877245373969, 50.131960630904324 ], [ 16.729528949575503, 50.120402449658854 ], [ 16.728406027476105, 50.119689052285601 ], [ 16.710932411505421, 50.108466190091647 ], [ 16.709624423327615, 50.107634602479372 ], [ 16.690293152012803, 50.107200460653296 ], [ 16.670962365695626, 50.106762573300188 ], [ 16.669400626075848, 50.107639568942922 ], [ 16.651063162518671, 50.117945835336656 ], [ 16.631728667766591, 50.117500696340812 ] ] ] ] } }
]
}
