{
"type": "FeatureCollection",
"name": "martwe_drewno_cykl3_perc95",
"crs": { "type": "name", "properties": { "name": "urn:ogc:def:crs:OGC:1.3:CRS84" } },
"features": [
{ "type": "Feature", "properties": { "cykl": 3, "typ_martwego_drewna": "wszystkie", "percentyl": 95, "prog_zasobnosci_m3ha": 15.402203883075671, "srednia_krajowa_m3ha": 7.8190962520201808, "max_zasobnosci_m3ha": 39.639053388957592, "n_traktow": 10380, "wiarygodne": true }, "geometry": { "type": "MultiPolygon", "coordinates": [ [ [ [ 23.28156152830185, 52.424704045817734 ], [ 23.269301496595734, 52.436721127106217 ], [ 23.267907414156369, 52.438130560825222 ], [ 23.257308647385756, 52.448727187797623 ], [ 23.249356262477438, 52.456982869308021 ], [ 23.245716735315867, 52.460717503765387 ], [ 23.234439209682684, 52.472695302130354 ], [ 23.230865936893565, 52.47662785835896 ], [ 23.223474050503071, 52.484660749550514 ], [ 23.212907395864598, 52.496610865137391 ], [ 23.21244395957104, 52.497153148608426 ], [ 23.202569021120805, 52.508551816958416 ], [ 23.19410687709405, 52.518742161677729 ], [ 23.192645783441559, 52.520477037414558 ], [ 23.182972695884974, 52.532392477244073 ], [ 23.175866574825282, 52.541531815207676 ], [ 23.173686845555387, 52.544293359818305 ], [ 23.164667809721823, 52.556184024824084 ], [ 23.15774199571965, 52.565735319055122 ], [ 23.156028745653668, 52.568060558412526 ], [ 23.147648002676281, 52.579927316862289 ], [ 23.139759478993486, 52.591646985010506 ], [ 23.139668866860468, 52.591779341796787 ], [ 23.131917172677944, 52.603622805557393 ], [ 23.124558751501073, 52.615451972375084 ], [ 23.121970288426365, 52.619829700138069 ], [ 23.117488944089025, 52.627270564089358 ], [ 23.110749947443747, 52.639077169722356 ], [ 23.104421313403705, 52.650806546047555 ], [ 23.104386235459508, 52.650870307038844 ], [ 23.0982726293919, 52.662654377184246 ], [ 23.09253454615811, 52.674425084611279 ], [ 23.087244000815883, 52.686010381127012 ], [ 23.087163593300104, 52.686182778421426 ], [ 23.082064467119043, 52.697930799977506 ], [ 23.077338734134045, 52.70966568943129 ], [ 23.072983058063294, 52.721387610832707 ], [ 23.070687210060459, 52.728147355738699 ], [ 23.068965245100092, 52.733097715866137 ], [ 23.065283643359365, 52.744796099719842 ], [ 23.061981152782955, 52.75648132642538 ], [ 23.05905879163981, 52.768153397355725 ], [ 23.056518761029068, 52.779812269823552 ], [ 23.055502495404678, 52.78534373331712 ], [ 23.054344438992008, 52.791458541817249 ], [ 23.052549639080762, 52.803091765367192 ], [ 23.051157831312882, 52.81471115986389 ], [ 23.050174615631875, 52.826316552905546 ], [ 23.049606517766435, 52.837907736534589 ], [ 23.049460935276066, 52.849484468912046 ], [ 23.049746084425546, 52.861046475910236 ], [ 23.050470948133299, 52.872593452617792 ], [ 23.051645225340497, 52.884125064746954 ], [ 23.053279282248933, 52.89564094992992 ], [ 23.055384105974621, 52.90714071888759 ], [ 23.057971261258604, 52.91862395645029 ], [ 23.061052850966426, 52.930090222406861 ], [ 23.064641481190794, 52.941539052155342 ], [ 23.068750231848099, 52.952969957125362 ], [ 23.071930408467427, 52.960824672249878 ], [ 23.073387808988297, 52.964382590542371 ], [ 23.078561964399935, 52.975776630211243 ], [ 23.084298658607764, 52.987151118980073 ], [ 23.090612920612447, 52.998505464 ], [ 23.097125622090058, 53.00920303607559 ], [ 23.097519364959897, 53.00983907548455 ], [ 23.105021466396565, 53.021151736885308 ], [ 23.113150263459438, 53.032442267221185 ], [ 23.120936094323149, 53.042466547664453 ], [ 23.121921479538813, 53.043709999427755 ], [ 23.131345857300886, 53.054954425037188 ], [ 23.141450606488327, 53.066174447607885 ], [ 23.144138529221468, 53.069008638492498 ], [ 23.152251767581838, 53.077369340859015 ], [ 23.163771304103502, 53.088538153319803 ], [ 23.166979350499098, 53.091507061681696 ], [ 23.176031833519954, 53.099679889609703 ], [ 23.189053583605606, 53.110793616033469 ], [ 23.189573881024408, 53.111221887268456 ], [ 23.202864800649571, 53.121878092444739 ], [ 23.211984821822, 53.128843693385271 ], [ 23.217485431788802, 53.132932345122192 ], [ 23.232941312198598, 53.143955164938447 ], [ 23.234256992284923, 53.144864363611099 ], [ 23.249262849190249, 53.154945149086537 ], [ 23.256416638038708, 53.159576456507018 ], [ 23.266471900839658, 53.165901166842147 ], [ 23.278484529104912, 53.173210623657873 ], [ 23.28459570700257, 53.176821861724328 ], [ 23.300475331352839, 53.185931236739137 ], [ 23.303661836087333, 53.187705828496647 ], [ 23.322400693985184, 53.197868960515422 ], [ 23.32369756599795, 53.198551633277241 ], [ 23.344269948496379, 53.209128634669092 ], [ 23.344729320396805, 53.209357832168202 ], [ 23.36609062733762, 53.219795105110521 ], [ 23.366782168339927, 53.220122988147992 ], [ 23.387868854164925, 53.229937597936605 ], [ 23.389879393151737, 53.23084568603187 ], [ 23.409609641155647, 53.239613040944946 ], [ 23.414042133886497, 53.241524545380344 ], [ 23.431317118071487, 53.248868613796169 ], [ 23.439289100010477, 53.252158231317971 ], [ 23.452994710483569, 53.257743724924261 ], [ 23.465636357174905, 53.262745463311518 ], [ 23.474645279610307, 53.266271556696282 ], [ 23.493097179279168, 53.273285022043979 ], [ 23.49627123277067, 53.274480281115125 ], [ 23.517876931164182, 53.282415974001452 ], [ 23.521673950000519, 53.283776058896173 ], [ 23.539464490527003, 53.290102632325087 ], [ 23.551366839469576, 53.294217776341895 ], [ 23.561033461872302, 53.297539742379918 ], [ 23.582183170605404, 53.304609070014415 ], [ 23.582585107773305, 53.304742748765435 ], [ 23.604126603470895, 53.31178162041742 ], [ 23.614083747302356, 53.314950599435079 ], [ 23.625653755587777, 53.318620030919568 ], [ 23.647085220726165, 53.325240855522487 ], [ 23.647167132561652, 53.325266093112631 ], [ 23.668674919106007, 53.331797362066006 ], [ 23.681116066184423, 53.335481747427472 ], [ 23.69017094351911, 53.3381593280305 ], [ 23.711658373684699, 53.344383059602769 ], [ 23.716181286490997, 53.345672206310297 ], [ 23.733140921860773, 53.350503933582075 ], [ 23.752221772072943, 53.355813689188047 ], [ 23.754530171322205, 53.355730739039927 ], [ 23.754545604031215, 53.355720930267445 ], [ 23.753511696886921, 53.344187779463262 ], [ 23.752476465602005, 53.332654675454243 ], [ 23.771433337300397, 53.320831154842253 ], [ 23.772287372332841, 53.320287662888042 ], [ 23.771243686479597, 53.308754966367466 ], [ 23.770198354240605, 53.29722232980594 ], [ 23.788309112583033, 53.285917371153481 ], [ 23.789979312193918, 53.28485315538309 ], [ 23.788924628434589, 53.273320965672248 ], [ 23.806437344714706, 53.26238075139652 ], [ 23.808681520864766, 53.260949331206483 ], [ 23.807616906451777, 53.249417614963889 ], [ 23.824545338385853, 53.238833535614788 ], [ 23.82734874019787, 53.237043573633244 ], [ 23.843922029333815, 53.226674001531364 ], [ 23.847063191970761, 53.224666744581739 ], [ 23.845979649520011, 53.213135953252753 ], [ 23.861993527982786, 53.203107121365548 ], [ 23.86566777853302, 53.200756793068066 ], [ 23.864573175740151, 53.189226531399136 ], [ 23.880044669188106, 53.179527918396431 ], [ 23.900680304892674, 53.178751400107863 ], [ 23.904989754641523, 53.175990261843161 ], [ 23.903877363228645, 53.164460903323331 ], [ 23.9027624447709, 53.152931643432431 ], [ 23.901644966270062, 53.141402483470969 ], [ 23.900524895573721, 53.129873424703639 ], [ 23.894785870762252, 53.127078897473723 ], [ 23.878679050742051, 53.119197489316043 ], [ 23.877560093973031, 53.10766827778631 ], [ 23.876438429735241, 53.096139171415665 ], [ 23.875314026100778, 53.084610171450649 ], [ 23.874186852475631, 53.073081279082075 ], [ 23.887682572319903, 53.064596028437286 ], [ 23.893748360154106, 53.0607012627191 ], [ 23.892609330481555, 53.049172944075842 ], [ 23.905659741275251, 53.040957886761767 ], [ 23.912143139284641, 53.036790724641463 ], [ 23.910992286825373, 53.025262982316349 ], [ 23.92361660203311, 53.017306417907626 ], [ 23.93049856352728, 53.012878567852113 ], [ 23.929335972205298, 53.001351402310313 ], [ 23.928170602670843, 52.989824346060452 ], [ 23.927002444221888, 52.978297399477064 ], [ 23.938936756927845, 52.970761617823705 ], [ 23.946463818267716, 52.965911725236275 ], [ 23.945284130764904, 52.954385351545149 ], [ 23.936580953144645, 52.950133921220562 ], [ 23.923481143201879, 52.943717220846807 ], [ 23.922301741219069, 52.932190715868664 ], [ 23.921119510291213, 52.920664321861842 ], [ 23.919934444302601, 52.909138039007317 ], [ 23.918746537414304, 52.897611867474055 ], [ 23.917555783876988, 52.886085807426895 ], [ 23.91636217782634, 52.874559859034953 ], [ 23.915165713061246, 52.863034022480839 ], [ 23.913966382805, 52.851508297970547 ], [ 23.92459324086548, 52.844773372927214 ], [ 23.933335226235648, 52.83912759960198 ], [ 23.932125038006756, 52.827602425243192 ], [ 23.930912044852224, 52.816077360807988 ], [ 23.929696237090017, 52.804552406623394 ], [ 23.939849291604261, 52.798104497368428 ], [ 23.949024690093985, 52.792170337703702 ], [ 23.94779841188711, 52.780645922007537 ], [ 23.946569370234386, 52.769121614815646 ], [ 23.945337547790899, 52.757597416775738 ], [ 23.944102923911782, 52.746073328672651 ], [ 23.942865474266451, 52.7345493514444 ], [ 23.94162517043479, 52.723025486198914 ], [ 23.940381979484698, 52.711501734231533 ], [ 23.929429836389104, 52.706118134215345 ], [ 23.918624459465828, 52.700832886027776 ], [ 23.90773456428543, 52.695475152201993 ], [ 23.896867217720665, 52.69016019382169 ], [ 23.886050432128833, 52.684833727343062 ], [ 23.875109444098538, 52.679483689762918 ], [ 23.864377477064966, 52.674194323557678 ], [ 23.853350269404476, 52.668803407841068 ], [ 23.842715739009165, 52.663557438579723 ], [ 23.831588761622385, 52.658119383986396 ], [ 23.821065260798257, 52.652923606134088 ], [ 23.809823922131191, 52.64743165616656 ], [ 23.79942608833646, 52.642293398120238 ], [ 23.788054681981524, 52.636740264476707 ], [ 23.786806908709291, 52.625215775916267 ], [ 23.776539746139875, 52.620135989624167 ], [ 23.765029883181754, 52.614520718371807 ], [ 23.754930016019053, 52.6095193040982 ], [ 23.734576913238683, 52.610430856862628 ], [ 23.714223112156443, 52.611342330344947 ], [ 23.693868626488726, 52.612253858007101 ], [ 23.673513470145274, 52.613165577442395 ], [ 23.653157657219985, 52.614077630379512 ], [ 23.640485363285695, 52.607901365938311 ], [ 23.631583719430029, 52.603477077958466 ], [ 23.61123219196892, 52.604392356187248 ], [ 23.598074299885873, 52.59798453938874 ], [ 23.589674951520266, 52.593803895533128 ], [ 23.569327807684182, 52.594723523215407 ], [ 23.55562181414102, 52.588054357735793 ], [ 23.547787435447084, 52.584149310224284 ], [ 23.53374516989944, 52.577321624528658 ], [ 23.526259017080022, 52.57358687442634 ], [ 23.511849176880517, 52.566585733911019 ], [ 23.504742628669021, 52.563037252757738 ], [ 23.484410186666445, 52.563972440217825 ], [ 23.469284550216312, 52.556629519585918 ], [ 23.467991656473945, 52.545104715754299 ], [ 23.46174625098848, 52.54198075299157 ], [ 23.446026296177362, 52.534359705765944 ], [ 23.440266416200359, 52.531476078471201 ], [ 23.424033958623681, 52.523611771996556 ], [ 23.418798918111055, 52.520988604110194 ], [ 23.402012730535958, 52.512860969540057 ], [ 23.397343828410023, 52.510519432555384 ], [ 23.379960750462196, 52.502107350141557 ], [ 23.378603408456787, 52.490584300749063 ], [ 23.374766346851587, 52.488657652357524 ], [ 23.356502708208776, 52.479828339044623 ], [ 23.355116174896295, 52.46830618188585 ], [ 23.352217399311055, 52.46684892747367 ], [ 23.332962762752128, 52.457547988231035 ], [ 23.331544625635726, 52.44602679876985 ], [ 23.329697209572462, 52.445096971538746 ], [ 23.309335140328038, 52.435266456891725 ], [ 23.307883302320448, 52.423746297558118 ], [ 23.306416330128844, 52.412226674026734 ], [ 23.306099264336506, 52.412066850625841 ], [ 23.294184042367061, 52.412672389353759 ], [ 23.286514518106877, 52.420011782196966 ], [ 23.28156152830185, 52.424704045817734 ] ] ], [ [ [ 22.816184977007371, 49.019554910265605 ], [ 22.805283745140283, 49.026925304325545 ], [ 22.798186358238965, 49.031775800599469 ], [ 22.787359303335993, 49.039090902791628 ], [ 22.780178943732878, 49.043994452924494 ], [ 22.769426727916418, 49.051253886975971 ], [ 22.762162729053927, 49.056210893109245 ], [ 22.754156719378042, 49.051752319176416 ], [ 22.742394724979778, 49.045246257815506 ], [ 22.723501636790591, 49.045867449319772 ], [ 22.704607901297184, 49.046485511919123 ], [ 22.696637662813544, 49.042036709188125 ], [ 22.684855833160732, 49.035508240577315 ], [ 22.674093128972675, 49.042757631939693 ], [ 22.666818504311085, 49.047712289364611 ], [ 22.647922850862468, 49.048321025381384 ], [ 22.637250215679579, 49.055501025799195 ], [ 22.638168171051788, 49.067046807717922 ], [ 22.630717448367893, 49.072114085332316 ], [ 22.620193894381622, 49.079187431902248 ], [ 22.612653713365301, 49.084311903699962 ], [ 22.60221183225427, 49.091325406607908 ], [ 22.594581168606368, 49.096507720524919 ], [ 22.575665628198994, 49.097107143488252 ], [ 22.567269881748171, 49.092411906523367 ], [ 22.555920148855325, 49.086107978830832 ], [ 22.545519864200703, 49.093082846129612 ], [ 22.537832703901742, 49.098296984904863 ], [ 22.529402809345456, 49.093577366254259 ], [ 22.518094708875772, 49.087290350128697 ], [ 22.49918108280681, 49.087877083952073 ], [ 22.480266858573778, 49.088460875292363 ], [ 22.469924438304943, 49.095382783677181 ], [ 22.462159603277659, 49.100641144627176 ], [ 22.443239843212073, 49.10121989922483 ], [ 22.424319498260822, 49.101795783688566 ], [ 22.405398573046568, 49.102368822088415 ], [ 22.395196177042141, 49.109181747467971 ], [ 22.396068220354064, 49.120730324500023 ], [ 22.388058814539704, 49.126142984139129 ], [ 22.378029376660059, 49.132834354405027 ], [ 22.378897885352615, 49.144383107591032 ], [ 22.370702976071101, 49.149916052689647 ], [ 22.3517628944739, 49.150484012926228 ], [ 22.342775404550743, 49.145435703625559 ], [ 22.33204326523914, 49.139445799656457 ], [ 22.313106429554509, 49.140007547395321 ], [ 22.294169041667676, 49.140566648938801 ], [ 22.275231106530391, 49.141123138085803 ], [ 22.265413507903954, 49.147651837095175 ], [ 22.257054151889268, 49.1532839579952 ], [ 22.23811077111149, 49.153836213511376 ], [ 22.228428823882759, 49.160266851090206 ], [ 22.229270463069504, 49.171817199278628 ], [ 22.230112093639065, 49.183367528461226 ], [ 22.22142800498272, 49.189209869716258 ], [ 22.211947814872502, 49.183874660452581 ], [ 22.201720643744384, 49.178151371049211 ], [ 22.182766939736016, 49.178698100879366 ], [ 22.173346680700764, 49.184942852241704 ], [ 22.164553773744785, 49.19085284498486 ], [ 22.145594664923916, 49.191395858851088 ], [ 22.136331902103308, 49.197528703502933 ], [ 22.127367806238489, 49.203548544932644 ], [ 22.108403309611258, 49.204088064280867 ], [ 22.089438315559018, 49.204625435768122 ], [ 22.080384649733816, 49.210609450711679 ], [ 22.071192897423593, 49.216775232673932 ], [ 22.052222542072226, 49.217309441901797 ], [ 22.043351490564717, 49.22316558685435 ], [ 22.044161397671374, 49.234717743810883 ], [ 22.044971412378356, 49.246269878098836 ], [ 22.045781577750081, 49.257821988592589 ], [ 22.036101361549548, 49.26430506890388 ], [ 22.027656903011501, 49.269872255714631 ], [ 22.02846441392067, 49.281424498500058 ], [ 22.018531214845179, 49.28807188039454 ], [ 22.010332491659643, 49.293472108576253 ], [ 22.000238711328301, 49.300223453608019 ], [ 21.992196361313948, 49.305516897749285 ], [ 21.98193738230859, 49.312375212710393 ], [ 21.974056211352512, 49.317558859569871 ], [ 21.974856054904063, 49.32911152610788 ], [ 21.975656460517769, 49.340664158154659 ], [ 21.965024040310574, 49.347765345383536 ], [ 21.946002458902161, 49.34829984578986 ], [ 21.92698041868514, 49.348832743366238 ], [ 21.907957923124307, 49.349364070870152 ], [ 21.900669604870892, 49.354145040339461 ], [ 21.889616397128442, 49.361517245129022 ], [ 21.882514421953008, 49.366172637658266 ], [ 21.871266031939562, 49.373671221944427 ], [ 21.852233347168355, 49.374200188309921 ], [ 21.845412894361008, 49.378665541324665 ], [ 21.846195301444727, 49.39021924513019 ], [ 21.834538769255708, 49.3979820103091 ], [ 21.821821834005299, 49.390817160005611 ], [ 21.814831269677072, 49.38688189384289 ], [ 21.802135219656702, 49.379723428240943 ], [ 21.795132629423378, 49.375778364787536 ], [ 21.782457447237626, 49.368626164946576 ], [ 21.775442836577973, 49.364671296429798 ], [ 21.768892152566899, 49.368952118743579 ], [ 21.769662158235207, 49.380506537424701 ], [ 21.757714622701553, 49.388454745552572 ], [ 21.751498137410437, 49.392513418623267 ], [ 21.739322210192629, 49.400609045932704 ], [ 21.733331617568734, 49.404517424632793 ], [ 21.720920928865109, 49.41276447142306 ], [ 21.715162695306731, 49.416518552429629 ], [ 21.702510771137121, 49.424921070490768 ], [ 21.688724048392857, 49.41713676927445 ], [ 21.682821453586957, 49.41380404800902 ], [ 21.663771045243571, 49.414321346059914 ], [ 21.658366931779931, 49.417839137916758 ], [ 21.659124081295214, 49.429394356842153 ], [ 21.645972699065997, 49.438116506087539 ], [ 21.640948842391335, 49.44138373863872 ], [ 21.627534964324351, 49.450274377880881 ], [ 21.612934089741533, 49.442020511907451 ], [ 21.607851846696061, 49.439146728121592 ], [ 21.588790726237324, 49.4396587720572 ], [ 21.56972913601312, 49.440168586797981 ], [ 21.550667070160028, 49.440676015793329 ], [ 21.531604522312215, 49.441180888028263 ], [ 21.516451758892448, 49.432589079088274 ], [ 21.516006554359166, 49.421026338021989 ], [ 21.51135117503182, 49.418385907722815 ], [ 21.506975460309235, 49.421222603095352 ], [ 21.492887040644145, 49.430532154947706 ], [ 21.477609444067863, 49.421855903578624 ], [ 21.473241389288457, 49.419375945670872 ], [ 21.454185735217944, 49.419865980333668 ], [ 21.435129563100702, 49.420352383322708 ], [ 21.416072864859885, 49.420834911033886 ], [ 21.412359081520336, 49.42323632612883 ], [ 21.397583909474168, 49.432969575628356 ], [ 21.378521686366096, 49.433444945134447 ], [ 21.375219128537822, 49.435577817140427 ], [ 21.360018674070783, 49.445575037113812 ], [ 21.357000289941624, 49.447522974199551 ], [ 21.341506579699352, 49.457703413373125 ], [ 21.322433769532143, 49.458166815272477 ], [ 21.303360385249839, 49.458624802640706 ], [ 21.284286420860219, 49.459077118213621 ], [ 21.267235511903756, 49.449318445658967 ], [ 21.264674018309066, 49.44785685617331 ], [ 21.247696791835828, 49.438127949861084 ], [ 21.245070319534388, 49.436628138075704 ], [ 21.226003512895211, 49.437059253403774 ], [ 21.209014480475304, 49.427301623628523 ], [ 21.208672492745464, 49.415736109127131 ], [ 21.208330318189617, 49.4041705781815 ], [ 21.205365953417921, 49.402474791067732 ], [ 21.18631133808206, 49.402888504347594 ], [ 21.183585955133189, 49.404640738286119 ], [ 21.167770256487536, 49.414967415787849 ], [ 21.165296278100051, 49.416556862793286 ], [ 21.149220012227104, 49.427042175130254 ], [ 21.146995630982914, 49.428470229575701 ], [ 21.130660595912289, 49.439112673094058 ], [ 21.113297198772621, 49.429091232056265 ], [ 21.111088835342507, 49.427825397753111 ], [ 21.092022378332182, 49.428206033531154 ], [ 21.072955350567085, 49.428579290237742 ], [ 21.053887759745489, 49.428945154603184 ], [ 21.03655449535038, 49.418896915635074 ], [ 21.036269281627796, 49.407330073482498 ], [ 21.052556259097319, 49.39703619282475 ], [ 21.055069984255343, 49.395425413328212 ], [ 21.07113195382659, 49.385270167018923 ], [ 21.090184583669181, 49.384952620608111 ], [ 21.092957529103554, 49.38317352896653 ], [ 21.092653531226617, 49.371607042185829 ], [ 21.08954268944909, 49.369820703368063 ], [ 21.070497996053369, 49.370187931546148 ], [ 21.051452752948634, 49.370547943536714 ], [ 21.035127333531022, 49.361062519916096 ], [ 21.031925400275991, 49.359220628581475 ], [ 21.01578620920564, 49.34982959080925 ], [ 21.012406765050081, 49.347884111630641 ], [ 20.996463019173518, 49.338593133236699 ], [ 20.992896858122155, 49.336538607343847 ], [ 20.97715733942368, 49.327353162724485 ], [ 20.992143449406825, 49.317876269481651 ], [ 20.995916419134684, 49.315458626030143 ], [ 20.991953759833635, 49.313174498568827 ], [ 20.972928759296639, 49.313501390507547 ], [ 20.957607025685064, 49.304542164519965 ], [ 20.953441114227925, 49.302137857407288 ], [ 20.934419632809384, 49.302450896018279 ], [ 20.915397700514227, 49.3027577062823 ], [ 20.911397734394679, 49.305315970772682 ], [ 20.912044354076226, 49.316877187648245 ], [ 20.89727313850041, 49.326430820047413 ], [ 20.893640162760217, 49.328752188574434 ], [ 20.878686260421059, 49.338414043341452 ], [ 20.875224539063712, 49.340624382130294 ], [ 20.860090293985845, 49.350392892081537 ], [ 20.844297559618532, 49.341122154830444 ], [ 20.840612572414877, 49.338990638874719 ], [ 20.82157513717798, 49.339270720179499 ], [ 20.818017822516516, 49.34153861878999 ], [ 20.802964532277638, 49.351235001349636 ], [ 20.799567449615903, 49.353399175264535 ], [ 20.784344857640399, 49.363195385282943 ], [ 20.78110658538305, 49.36525688788727 ], [ 20.765716112838422, 49.375151993300697 ], [ 20.762635428941437, 49.377111749050592 ], [ 20.763256126938295, 49.388673923738232 ], [ 20.763877617160091, 49.400236063118697 ], [ 20.747908229349626, 49.410488158826759 ], [ 20.745389955042068, 49.412088284132224 ], [ 20.729252871717989, 49.422438861584467 ], [ 20.710181802631773, 49.422693132456509 ], [ 20.691110421492958, 49.422943218799404 ], [ 20.674470271977377, 49.413137311594816 ], [ 20.671641433599117, 49.411496115467564 ], [ 20.655276687364371, 49.401842234074813 ], [ 20.652181471000358, 49.400045135482685 ], [ 20.649209777417539, 49.401928950298341 ], [ 20.633506264237624, 49.411976881031052 ], [ 20.630686287674198, 49.413763216628794 ], [ 20.614822005050598, 49.423905916744772 ], [ 20.598414155894204, 49.414213933207009 ], [ 20.598248423799536, 49.402644777644511 ], [ 20.598082323354433, 49.391075605751823 ], [ 20.594612389892934, 49.389057392953916 ], [ 20.578914615506278, 49.379767542770999 ], [ 20.575179025348142, 49.377593174881333 ], [ 20.556123857188027, 49.377819208302995 ], [ 20.552477750063826, 49.380125652764555 ], [ 20.537433333298374, 49.389735898811409 ], [ 20.533939196721054, 49.391944598806354 ], [ 20.518733786810667, 49.40165048317845 ], [ 20.515393146657015, 49.403760615215653 ], [ 20.500025214166406, 49.413563065537353 ], [ 20.480955586530509, 49.413779439977709 ], [ 20.461885751289238, 49.413993628899881 ], [ 20.442815713503755, 49.414205729296775 ], [ 20.42710939266485, 49.40488417368995 ], [ 20.423407275342871, 49.402721691007926 ], [ 20.407962549678068, 49.39354763763756 ], [ 20.404007925243512, 49.391235917603844 ], [ 20.384946359078995, 49.39144213512315 ], [ 20.381086843858149, 49.393871850132527 ], [ 20.366209005015101, 49.403340547007048 ], [ 20.347142543600494, 49.403543244148381 ], [ 20.328075901340323, 49.403744216504954 ], [ 20.312824227010324, 49.394667226681911 ], [ 20.312723842226422, 49.383097105713283 ], [ 20.31262306454909, 49.371526967198328 ], [ 20.312521880883235, 49.359956811283546 ], [ 20.31242027445753, 49.348386638157244 ], [ 20.307457054861757, 49.345475117042533 ], [ 20.302651087052755, 49.348497161253938 ], [ 20.288718122923175, 49.357365446484906 ], [ 20.274382753743421, 49.348812319519666 ], [ 20.269368068777538, 49.345867648557231 ], [ 20.264507708092516, 49.34892078431065 ], [ 20.250619764270159, 49.357754754484155 ], [ 20.236335046922743, 49.349225585994027 ], [ 20.231278388525233, 49.346253280093634 ], [ 20.212233291865605, 49.346443491139802 ], [ 20.193188025919653, 49.346631944066139 ], [ 20.179174439855167, 49.338251641994908 ], [ 20.173864376605, 49.3351248962895 ], [ 20.160077956045772, 49.326873637139066 ], [ 20.173471465406447, 49.318597386499384 ], [ 20.179032279623804, 49.315110508797645 ], [ 20.173308513894735, 49.311738490983089 ], [ 20.154276427670542, 49.311922800082456 ], [ 20.140925241674378, 49.303921731229813 ], [ 20.13497552601579, 49.300412208678672 ], [ 20.121845757672588, 49.292537230866976 ], [ 20.121786408715955, 49.280966472685961 ], [ 20.121726327093405, 49.269395699253799 ], [ 20.115156244740334, 49.265515426066742 ], [ 20.102661238742908, 49.258007868933156 ], [ 20.102604206025362, 49.246437023073035 ], [ 20.102546296328978, 49.234866163182396 ], [ 20.102487463600024, 49.223295289699351 ], [ 20.095106974877567, 49.218929907662996 ], [ 20.083440139058073, 49.211904082805169 ], [ 20.083383949139613, 49.200333141018447 ], [ 20.083326685848828, 49.188762186862391 ], [ 20.075349451503168, 49.184037998741907 ], [ 20.056365860566125, 49.184209974518232 ], [ 20.048589410915202, 49.189082830486342 ], [ 20.03762655269383, 49.19606834328161 ], [ 20.030035972069619, 49.200821268221027 ], [ 20.018878317847999, 49.207925551258995 ], [ 20.011476775358489, 49.212556732239548 ], [ 20.000121147654621, 49.219781564384348 ], [ 19.992911767716919, 49.224289220721388 ], [ 19.981355033612697, 49.231636340158822 ], [ 19.962352754326499, 49.231797588648888 ], [ 19.943350319329063, 49.231956344856812 ], [ 19.924347729968094, 49.232112543697788 ], [ 19.9053449876555, 49.232266118134646 ], [ 19.893492100564739, 49.225101061570527 ], [ 19.893484423892584, 49.21352977409186 ], [ 19.885923958162874, 49.209032115159189 ], [ 19.874479019132078, 49.202103870482986 ], [ 19.866725494332567, 49.197487925481617 ], [ 19.847735729187708, 49.197632332261321 ], [ 19.82874581838723, 49.197773832536583 ], [ 19.821163518443523, 49.20249524766205 ], [ 19.809946719488671, 49.209604947609421 ], [ 19.798487573933414, 49.202654245461439 ], [ 19.790765567540276, 49.198047836211927 ], [ 19.783192117726877, 49.202758978470825 ], [ 19.771957240153078, 49.209873356273114 ], [ 19.764586650889775, 49.214454958281351 ], [ 19.764968401497672, 49.226023720949172 ], [ 19.765351488288758, 49.237592450925199 ], [ 19.772455253961493, 49.241829508751053 ], [ 19.784737914637802, 49.249033634009209 ], [ 19.78512758132474, 49.260602216441136 ], [ 19.79182850656457, 49.264595030931666 ], [ 19.80452844473669, 49.272039958771153 ], [ 19.811031957306081, 49.275912243727369 ], [ 19.823938510633813, 49.283474371138979 ], [ 19.811287179165706, 49.291470672979948 ], [ 19.805321618128357, 49.295176795983991 ], [ 19.805719785526204, 49.30674516779149 ], [ 19.806118940814237, 49.318313508850842 ], [ 19.806519035392146, 49.329881819495355 ], [ 19.806920021560671, 49.341450100052576 ], [ 19.80732185272743, 49.353018350842923 ], [ 19.80772448362141, 49.364586572178133 ], [ 19.808127870516014, 49.37615476435969 ], [ 19.793764945631221, 49.385199512040366 ], [ 19.789481284057306, 49.387854589853042 ], [ 19.789881968508745, 49.39942281083826 ], [ 19.790283283409476, 49.410991003636966 ], [ 19.775255117879144, 49.420438718643489 ], [ 19.759906282641577, 49.411194633835187 ], [ 19.755999355744283, 49.408871874894537 ], [ 19.740863789970078, 49.399747299622049 ], [ 19.736752628791862, 49.397301287729896 ], [ 19.721830998267276, 49.38829676082149 ], [ 19.717514931640441, 49.38572691421718 ], [ 19.713274487373305, 49.388349866844941 ], [ 19.698618013099065, 49.397551609158185 ], [ 19.694601074596097, 49.400034482986463 ], [ 19.679712017640988, 49.409373294527668 ], [ 19.660639845962407, 49.409489425280647 ], [ 19.641567545145566, 49.409601696819578 ], [ 19.637789697250177, 49.411932697626057 ], [ 19.638158216859647, 49.423501516460668 ], [ 19.641776899639755, 49.425659024048343 ], [ 19.657600993070467, 49.434963420121363 ], [ 19.642025526929586, 49.444709884103133 ], [ 19.638896747408715, 49.446639074190358 ], [ 19.623087813852564, 49.456521885354341 ], [ 19.603997112973321, 49.456626800896238 ], [ 19.584906291456075, 49.456727561901467 ], [ 19.582010262050112, 49.458510105449008 ], [ 19.582367660245477, 49.470079047534213 ], [ 19.566085006877685, 49.480231498410774 ], [ 19.563627608201248, 49.481742594454325 ], [ 19.56398136334019, 49.49331155934459 ], [ 19.564335464152023, 49.504880498650273 ], [ 19.547376341440856, 49.515435872379577 ], [ 19.545576790571662, 49.516541119292654 ], [ 19.545927136934726, 49.528110080997742 ], [ 19.546277816193168, 49.539679017236679 ], [ 19.546628836322942, 49.55124792797163 ], [ 19.528767333544682, 49.562341276575317 ], [ 19.52784708934049, 49.562905662071181 ], [ 19.528194381697251, 49.574474594177026 ], [ 19.509878844765172, 49.585834495267889 ], [ 19.49073729330847, 49.585914036048187 ], [ 19.490250697950472, 49.586212022046631 ], [ 19.471708508340772, 49.597693806081772 ], [ 19.47143587629251, 49.597860639120512 ], [ 19.471771001358352, 49.609429704943139 ], [ 19.471847283169673, 49.612075233048955 ], [ 19.49099507368101, 49.611594876557938 ], [ 19.510143810059571, 49.611240370889838 ], [ 19.529293610405926, 49.611008935134691 ], [ 19.548444580306604, 49.610897059699873 ], [ 19.567596811575129, 49.610900520562772 ], [ 19.586750381094948, 49.611014399325249 ], [ 19.605905349775892, 49.611233108731604 ], [ 19.625061761634065, 49.611550423250492 ], [ 19.64421964300313, 49.611959514273259 ], [ 19.663379001883179, 49.612452989444698 ], [ 19.682539827431544, 49.613022935619796 ], [ 19.701702089598268, 49.613660964929544 ], [ 19.72086573890731, 49.614358263440792 ], [ 19.740030706383262, 49.615105641907427 ], [ 19.759196903622072, 49.615893588132089 ], [ 19.77836422300328, 49.616712320487579 ], [ 19.797532538040432, 49.617551842182195 ], [ 19.81670170386576, 49.618401995893713 ], [ 19.829872031800733, 49.618986900361307 ], [ 19.835871668985927, 49.619259015579523 ], [ 19.85504239310308, 49.620120113033146 ], [ 19.874213436351951, 49.620960412780072 ], [ 19.893384582963801, 49.621769433494784 ], [ 19.912555602844513, 49.62253680913701 ], [ 19.931726252809373, 49.62325234181548 ], [ 19.950896277920155, 49.623906053421457 ], [ 19.970065412919158, 49.624488235930258 ], [ 19.989233383754843, 49.624989500286979 ], [ 20.00839990919366, 49.62540082380476 ], [ 20.027564702512521, 49.625713596013057 ], [ 20.046727473266309, 49.625919662897083 ], [ 20.065887929124479, 49.626011369472835 ], [ 20.085045777770805, 49.62598160064141 ], [ 20.104200728859819, 49.62582382026676 ], [ 20.123352496023539, 49.625532108419911 ], [ 20.142500798921684, 49.625101196734718 ], [ 20.161645365328578, 49.62452650182248 ], [ 20.180785933249794, 49.623804156698853 ], [ 20.199922253061718, 49.622931040184923 ], [ 20.219054089667328, 49.621904804256623 ], [ 20.238181224661847, 49.620723899331601 ], [ 20.257303458502285, 49.619387597500882 ], [ 20.276420612675523, 49.617896013732576 ], [ 20.295532531860292, 49.616250125096848 ], [ 20.314101269384022, 49.61450250356657 ], [ 20.314639106547233, 49.614452548911963 ], [ 20.333740989359836, 49.612533672570066 ], [ 20.352837401848749, 49.610470469987398 ], [ 20.371928299999251, 49.608267350999839 ], [ 20.391013672980989, 49.605929644884334 ], [ 20.410093545223717, 49.603463610744001 ], [ 20.423572703023865, 49.601636921949066 ], [ 20.429168311555689, 49.600887840606795 ], [ 20.448238594862541, 49.598227647868598 ], [ 20.467303732669908, 49.595464200801253 ], [ 20.486363904505822, 49.592607326016342 ], [ 20.505419334671419, 49.589667806981829 ], [ 20.5098312386102, 49.588972725009924 ], [ 20.524471358875651, 49.586691548073084 ], [ 20.543519578808066, 49.583667248939157 ], [ 20.562564036359799, 49.580597936734343 ], [ 20.581605144753112, 49.577497979814893 ], [ 20.58866467695437, 49.576346204576808 ], [ 20.6006443065199, 49.57441131113832 ], [ 20.619681651859473, 49.571341373065039 ], [ 20.638717198399501, 49.568288087620388 ], [ 20.657751570084521, 49.565269282997569 ], [ 20.668126398197785, 49.563656719227687 ], [ 20.676786111046642, 49.562323010417366 ], [ 20.695821644196933, 49.559470580667899 ], [ 20.714858165257304, 49.556708749502846 ], [ 20.733896518245121, 49.554058370340258 ], [ 20.752937604221291, 49.551540991372867 ], [ 20.759483098202331, 49.550732151520918 ], [ 20.771983139132875, 49.549199762438079 ], [ 20.791033663023292, 49.547043853423233 ], [ 20.810089826220533, 49.545085032049315 ], [ 20.829152721662542, 49.543346427382076 ], [ 20.848223483661297, 49.541851310695272 ], [ 20.867303281837323, 49.540622926127128 ], [ 20.886393313877729, 49.539684300527867 ], [ 20.905494797074699, 49.539058032879325 ], [ 20.924608958630863, 49.538766064410147 ], [ 20.94373702475373, 49.538829431382332 ], [ 20.962880208604467, 49.539268003468152 ], [ 20.982039697214333, 49.540100211639697 ], [ 21.001216637534991, 49.541342770513452 ], [ 21.020412121843741, 49.543010401078142 ], [ 21.039627172779326, 49.545115560620836 ], [ 21.046395384365873, 49.546012432534368 ], [ 21.058863683620746, 49.547690908942187 ], [ 21.078122254225217, 49.550737366298264 ], [ 21.097403076144474, 49.554246242590644 ], [ 21.108230067004097, 49.556473654235305 ], [ 21.116707591867911, 49.558238052161158 ], [ 21.136036638158988, 49.56271862795294 ], [ 21.153636679554069, 49.567208924596713 ], [ 21.155389571544269, 49.567659931989375 ], [ 21.174768339929095, 49.573093189753351 ], [ 21.191235711457463, 49.578074592362263 ], [ 21.194171251084107, 49.5789672984681 ], [ 21.213599585195144, 49.585298604659194 ], [ 21.224325776742869, 49.589014878977373 ], [ 21.233051964561032, 49.592044629843215 ], [ 21.252527992662685, 49.599185646689271 ], [ 21.254638542712339, 49.599999910028835 ], [ 21.272027238919925, 49.606701848363549 ], [ 21.282757734819267, 49.611020346903452 ], [ 21.291547993129008, 49.614546804677808 ], [ 21.309575188477872, 49.622059985932154 ], [ 21.311089110225339, 49.622687612416151 ], [ 21.330649258944216, 49.631088579612431 ], [ 21.335230179762465, 49.633116918834908 ], [ 21.350226519042948, 49.639702989119549 ], [ 21.360167548973255, 49.644182844502673 ], [ 21.369819103493597, 49.648488447251303 ], [ 21.384653301782183, 49.65525274471532 ], [ 21.389425164852121, 49.657402755493017 ], [ 21.408864813106401, 49.666323214000592 ], [ 21.409042788286797, 49.666403767987163 ], [ 21.428669642677391, 49.675442393246215 ], [ 21.432853661446924, 49.677393340443842 ], [ 21.44830401096225, 49.684483394321759 ], [ 21.45688522971556, 49.688457629913408 ], [ 21.467944076566216, 49.693490736070004 ], [ 21.481095158980583, 49.699513149638584 ], [ 21.487588106505306, 49.702431204735177 ], [ 21.505609990745455, 49.710557050395003 ], [ 21.507234489289214, 49.711275030685336 ], [ 21.526881124270727, 49.719983990684838 ], [ 21.530500147862845, 49.721587601208988 ], [ 21.546526852765663, 49.728539086049977 ], [ 21.555930678658044, 49.732600918595587 ], [ 21.566170775792866, 49.736926847872027 ], [ 21.58205870249828, 49.743593145430175 ], [ 21.585811889488298, 49.74513226369185 ], [ 21.605448638137478, 49.753130499751435 ], [ 21.608990992567318, 49.754561407112412 ], [ 21.625080075653095, 49.760908779445394 ], [ 21.636881411547353, 49.765501642506415 ], [ 21.644706348854633, 49.768474794014729 ], [ 21.664326673613381, 49.775819032680793 ], [ 21.665920830910196, 49.776408769522703 ], [ 21.683939284525561, 49.7829145235225 ], [ 21.696272156181756, 49.787278135992068 ], [ 21.703545455781985, 49.789789673431073 ], [ 21.723144062557584, 49.796429293886014 ], [ 21.728178318950164, 49.79810299339038 ], [ 21.742734407371554, 49.802826202915597 ], [ 21.761891178335844, 49.808876057116564 ], [ 21.762317736864755, 49.809007562597593 ], [ 21.78189149831972, 49.814933518567443 ], [ 21.797751004654156, 49.819587537513243 ], [ 21.801458022378494, 49.820649870842793 ], [ 21.821015188571295, 49.826124630203559 ], [ 21.836162684156417, 49.830225534932026 ], [ 21.840564580635814, 49.831389906325057 ], [ 21.860104512686185, 49.836421514962318 ], [ 21.877664717462611, 49.840774142440743 ], [ 21.87963663065786, 49.841251992986294 ], [ 21.899158887371513, 49.845851276666579 ], [ 21.918673225992297, 49.850256331102493 ], [ 21.923042594316691, 49.851210229425618 ], [ 21.938177950058133, 49.854443135094861 ], [ 21.957674020711583, 49.858431812468169 ], [ 21.973376509387052, 49.861501530455541 ], [ 21.977161423666445, 49.862226086000568 ], [ 21.99663906175542, 49.865812087801274 ], [ 22.016108101624472, 49.869212633147335 ], [ 22.030465855369389, 49.871594538204988 ], [ 22.0355680963957, 49.872424218917352 ], [ 22.055018378083385, 49.875439928637675 ], [ 22.074459727059942, 49.87827580900899 ], [ 22.093892027909583, 49.880933488943576 ], [ 22.09746392840373, 49.881395005953102 ], [ 22.113314525384972, 49.883404613679168 ], [ 22.13272765582688, 49.885699429599498 ], [ 22.152131464462144, 49.887821923780074 ], [ 22.171525853707614, 49.889773803997592 ], [ 22.181437027556843, 49.890691900823633 ], [ 22.190910540343086, 49.891553920094758 ], [ 22.210285472836329, 49.893164635657726 ], [ 22.229650778120796, 49.894610924703009 ], [ 22.249006381667343, 49.895894640786985 ], [ 22.268352214813749, 49.897017676581982 ], [ 22.287688215209478, 49.897981969271761 ], [ 22.306414887443115, 49.898764896668531 ], [ 22.307014326767288, 49.898789498558486 ], [ 22.32633050888457, 49.899442419429796 ], [ 22.345636752906046, 49.899943294914735 ], [ 22.364933022886344, 49.900294233638931 ], [ 22.384219289648094, 49.900497389244649 ], [ 22.403495530772709, 49.90055495904096 ], [ 22.422761730501136, 49.900469181437757 ], [ 22.442017879540035, 49.90024233214632 ], [ 22.461263974770297, 49.899876719152097 ], [ 22.480500018856642, 49.89937467648695 ], [ 22.499726019758327, 49.898738556849288 ], [ 22.518941990142917, 49.897970723138805 ], [ 22.538147946706243, 49.897073538989638 ], [ 22.557343909403063, 49.896049358400511 ], [ 22.57652990059443, 49.894900514573045 ], [ 22.595705944118603, 49.893629308079042 ], [ 22.614872064293401, 49.892237994485384 ], [ 22.634028284858761, 49.89072877157033 ], [ 22.653174627868761, 49.889103766267127 ], [ 22.665944061023129, 49.887942650836877 ], [ 22.672311357737321, 49.887368248899193 ], [ 22.691438905705699, 49.885529563524791 ], [ 22.710556858484992, 49.883583898984163 ], [ 22.729665249014797, 49.881533303251388 ], [ 22.748764103949579, 49.879379699527256 ], [ 22.76785344240864, 49.877124873410608 ], [ 22.786933274742132, 49.874770460647284 ], [ 22.806003601322864, 49.87231793555614 ], [ 22.810643821796862, 49.87169679394875 ], [ 22.825065913542034, 49.869787592892408 ], [ 22.844119539273631, 49.867172108157682 ], [ 22.86316402975325, 49.864467094046439 ], [ 22.882199371665148, 49.86167367189492 ], [ 22.901225537249125, 49.858792760425814 ], [ 22.915023880660033, 49.856639480595049 ], [ 22.920243297704324, 49.855835119410429 ], [ 22.939254313516731, 49.852822226299196 ], [ 22.958256540337604, 49.849729859260442 ], [ 22.977249924143411, 49.846558467702316 ], [ 22.977120212548964, 49.842947932333786 ], [ 22.976945481754022, 49.842853545116874 ], [ 22.957609430881199, 49.832042196841975 ], [ 22.957161247822196, 49.820482968865413 ], [ 22.956692719490153, 49.808924424759901 ], [ 22.95484088296304, 49.807922737517423 ], [ 22.937106707998023, 49.798017943484744 ], [ 22.934693460660732, 49.796711553442165 ], [ 22.917491741204103, 49.787109194619603 ], [ 22.914557138755942, 49.785519324256938 ], [ 22.897849123736048, 49.776198118825519 ], [ 22.897298138307217, 49.764642206387393 ], [ 22.896729509149075, 49.75308687566843 ], [ 22.892544699543297, 49.750816629423483 ], [ 22.877024319749886, 49.742174506261527 ], [ 22.872442975377769, 49.739687188869631 ], [ 22.857297332949187, 49.731259572379543 ], [ 22.856679170104432, 49.719705754210906 ], [ 22.851422983080287, 49.716849008813504 ], [ 22.836918066753071, 49.708788580345406 ], [ 22.83134848982716, 49.705759131826909 ], [ 22.817140406798142, 49.697868640626275 ], [ 22.811284297335494, 49.694680840724125 ], [ 22.797348100011053, 49.686945863128855 ], [ 22.791230291730365, 49.683612995415196 ], [ 22.777542990411217, 49.676020179365558 ], [ 22.776864598835939, 49.664468022140099 ], [ 22.776175883087056, 49.652916187897524 ], [ 22.76937988437329, 49.649208885292964 ], [ 22.756343741491218, 49.641987881526589 ], [ 22.749357421294082, 49.638173772927516 ], [ 22.736504392165642, 49.631056467597269 ], [ 22.735793277735873, 49.619505168844626 ], [ 22.728454383423227, 49.615494324852193 ], [ 22.715943284648606, 49.608570661794765 ], [ 22.715220200446581, 49.597019641345909 ], [ 22.707573069243399, 49.592835909734362 ], [ 22.695363274757938, 49.586081913160207 ], [ 22.694630744292727, 49.574531085381388 ], [ 22.686713126184337, 49.570194783392033 ], [ 22.674770160073741, 49.563590024946521 ], [ 22.674030420109919, 49.552039314662117 ], [ 22.66587424151043, 49.547567632441776 ], [ 22.654169046864805, 49.541094826315771 ], [ 22.64592128650828, 49.536569408318769 ], [ 22.634309298505197, 49.530146930699949 ], [ 22.644923042512897, 49.523163552373568 ], [ 22.652675111394966, 49.517993619769108 ], [ 22.651922484367397, 49.506443171966644 ], [ 22.662286017358994, 49.499615177469316 ], [ 22.681356669170341, 49.499028567615937 ], [ 22.689366236363099, 49.493679233542146 ], [ 22.699559751028918, 49.486953357260035 ], [ 22.707692057216509, 49.481518154141355 ], [ 22.706917405550438, 49.469968621978978 ], [ 22.706139993138585, 49.458419162830623 ], [ 22.705360072845217, 49.446869768531037 ], [ 22.704577884322482, 49.435320431343321 ], [ 22.714274118380558, 49.428907617354874 ], [ 22.722864035164239, 49.423157919098188 ], [ 22.722073519723462, 49.411608909220192 ], [ 22.73157017550762, 49.405320558919492 ], [ 22.740341521516154, 49.399444065861424 ], [ 22.739543329527329, 49.387895364917547 ], [ 22.738743797733186, 49.37634669170135 ], [ 22.737943105370711, 49.364798040375 ], [ 22.737141422219008, 49.353249405410246 ], [ 22.736338909081983, 49.341700781572719 ], [ 22.745349490484301, 49.335720577571443 ], [ 22.754567090387358, 49.329534633130237 ], [ 22.753758621058772, 49.317986265501929 ], [ 22.7529497205262, 49.30643789616267 ], [ 22.752140520071539, 49.294889520822601 ], [ 22.751331143853491, 49.283341135426042 ], [ 22.750521709227979, 49.271792736140924 ], [ 22.749712327043966, 49.260244319349013 ], [ 22.748903101916227, 49.248695881636912 ], [ 22.738311797627176, 49.242861802923258 ], [ 22.719343858336735, 49.243490970130495 ], [ 22.710108172199785, 49.238375333035115 ], [ 22.709309496507455, 49.226826332510697 ], [ 22.717673347805036, 49.221266046846644 ], [ 22.73663516330717, 49.220668433807219 ], [ 22.746477326644644, 49.214050411747678 ], [ 22.735686701304541, 49.208101623947222 ], [ 22.726692034484902, 49.203116602046549 ], [ 22.725889978820604, 49.191567757305556 ], [ 22.734031476285889, 49.18614936117924 ], [ 22.752979431540684, 49.185548218225158 ], [ 22.763023042880089, 49.178787315661417 ], [ 22.752007648829867, 49.172712609198186 ], [ 22.743250509462392, 49.167855984616551 ], [ 22.742445633249208, 49.156307278773113 ], [ 22.750367598325607, 49.151029505705267 ], [ 22.76930171498546, 49.150424811097096 ], [ 22.777917153342841, 49.155150562166689 ], [ 22.789114030791435, 49.161323401544927 ], [ 22.79931399862085, 49.154447521773541 ], [ 22.798494857859858, 49.142899556243833 ], [ 22.80628537354659, 49.137699798201602 ], [ 22.816621367487421, 49.130725942598389 ], [ 22.824326706016382, 49.125579426615566 ], [ 22.834738140023951, 49.118549707474003 ], [ 22.842359198942212, 49.113455946576934 ], [ 22.852845242372247, 49.106370852946895 ], [ 22.860382860718598, 49.101329396260006 ], [ 22.879295557876432, 49.100705786860978 ], [ 22.889870140932224, 49.093552165503404 ], [ 22.889030686850408, 49.082005294363931 ], [ 22.877334318447346, 49.075563154285227 ], [ 22.869274925355462, 49.071095049803162 ], [ 22.868442663908926, 49.059547805684325 ], [ 22.867611544775038, 49.048000507742024 ], [ 22.87481223566877, 49.043178947278776 ], [ 22.885683877054301, 49.035817284384535 ], [ 22.884850089534751, 49.024270145038258 ], [ 22.884017520123489, 49.012722949199883 ], [ 22.87192639008974, 49.006052368362987 ], [ 22.853050933726323, 49.006693658803968 ], [ 22.842066178452601, 49.014129532030665 ], [ 22.835066104103561, 49.018919312642502 ], [ 22.816184977007371, 49.019554910265605 ] ] ], [ [ [ 18.97398513077918, 49.41655151271106 ], [ 18.988607350542939, 49.425261794251071 ], [ 18.988817303145321, 49.43683253067379 ], [ 18.989027805926643, 49.448403243492145 ], [ 18.973963397205122, 49.457624000687773 ], [ 18.970088456429131, 49.459970565662701 ], [ 18.970295208579589, 49.471541265273046 ], [ 18.970502528157883, 49.483111941383982 ], [ 18.970710425507864, 49.494682593996657 ], [ 18.970918915938988, 49.506253223113319 ], [ 18.954817378265549, 49.516085553595026 ], [ 18.951952605192584, 49.517817454813382 ], [ 18.935687094689179, 49.52774111387086 ], [ 18.916567635207674, 49.527691552243866 ], [ 18.900516504415002, 49.517784662079237 ], [ 18.897472688574236, 49.515937271862668 ], [ 18.878357883920689, 49.515880598700271 ], [ 18.875242508275353, 49.517760170550069 ], [ 18.859209540798808, 49.527521231042485 ], [ 18.856244674285001, 49.529308661863467 ], [ 18.856426960246914, 49.540879400544178 ], [ 18.856610111054032, 49.552450116735045 ], [ 18.83997566857802, 49.562562421117221 ], [ 18.83759572697528, 49.563995462305023 ], [ 18.837776193015419, 49.575566159668611 ], [ 18.837957720957309, 49.587136834968071 ], [ 18.838140379505312, 49.598707488295695 ], [ 18.838324243585863, 49.610278119751982 ], [ 18.820628302749608, 49.621014628109585 ], [ 18.819287954131322, 49.621820321620412 ], [ 18.819470075997717, 49.63339093567707 ], [ 18.819653698734534, 49.644961528523346 ], [ 18.81983892286194, 49.656532100309533 ], [ 18.820025855146444, 49.6681026511949 ], [ 18.801234332908209, 49.67948375381296 ], [ 18.800971110316386, 49.679641708729257 ], [ 18.782003310439311, 49.691121350864705 ], [ 18.76282011056982, 49.691044475416795 ], [ 18.7441555219349, 49.67953012999233 ], [ 18.743698562173346, 49.679252566775425 ], [ 18.743238695285918, 49.679528100932373 ], [ 18.7244539363539, 49.690880597444441 ], [ 18.724163532522585, 49.691054465152092 ], [ 18.724335290756642, 49.702625077463338 ], [ 18.724373108906967, 49.705172853953691 ], [ 18.739755095304485, 49.702660750146883 ], [ 18.743578711495108, 49.702040345326189 ], [ 18.762781742198783, 49.698927773781911 ], [ 18.781982397531344, 49.695796712582123 ], [ 18.801180652648746, 49.692648134572053 ], [ 18.809843729754508, 49.691226831984018 ], [ 18.820376380163431, 49.68951126045004 ], [ 18.839569604889412, 49.68638306273845 ], [ 18.858760397131583, 49.683243159573138 ], [ 18.877948737220841, 49.680094283963733 ], [ 18.880054500392259, 49.679750617562064 ], [ 18.897134510536493, 49.676986228615448 ], [ 18.916317829858475, 49.673881938806623 ], [ 18.935498702833705, 49.670779740711716 ], [ 18.951302950248262, 49.668232265027761 ], [ 18.954677120011102, 49.667693524919422 ], [ 18.97385308014443, 49.664662626053818 ], [ 18.993026654962243, 49.661648333459325 ], [ 19.012197866362545, 49.658656139704767 ], [ 19.025074804531936, 49.656669538339315 ], [ 19.031366756398139, 49.65570949354224 ], [ 19.050533404433526, 49.652832331135535 ], [ 19.069697851147602, 49.649995200528814 ], [ 19.088860156317999, 49.647204566888576 ], [ 19.103923263138217, 49.645055341847829 ], [ 19.108020414692259, 49.644478129977081 ], [ 19.127178794322145, 49.641851087033608 ], [ 19.146335312194918, 49.639289820446805 ], [ 19.165490069108262, 49.63680101824702 ], [ 19.18464317613369, 49.634391324289858 ], [ 19.193078197389205, 49.633370689636017 ], [ 19.20379486079694, 49.632092808951967 ], [ 19.222945250881022, 49.629904688637311 ], [ 19.242094407784641, 49.627813043373969 ], [ 19.261242476126473, 49.625823603726438 ], [ 19.280389607531188, 49.623941764890475 ], [ 19.299535959625175, 49.622172529868905 ], [ 19.306708873759405, 49.621555084477784 ], [ 19.318681830761907, 49.620541284786121 ], [ 19.33782733663169, 49.619041249065795 ], [ 19.356972566000636, 49.617663414468581 ], [ 19.376117684514686, 49.616410598665347 ], [ 19.395262857191597, 49.615284999025278 ], [ 19.414408246921532, 49.614288158326673 ], [ 19.433554012935318, 49.613420935875538 ], [ 19.433593712467083, 49.609578996801432 ], [ 19.433714615936054, 49.598008122632677 ], [ 19.433415771555065, 49.597829608738046 ], [ 19.414269275220835, 49.59789044210121 ], [ 19.395584336721306, 49.586574276381057 ], [ 19.395713495384662, 49.575003376446148 ], [ 19.394933681713955, 49.574536857134831 ], [ 19.375796193275949, 49.574588282110568 ], [ 19.357619176632859, 49.563556879148578 ], [ 19.357756569352631, 49.551985957956234 ], [ 19.35789368324642, 49.540415014239606 ], [ 19.35640301422762, 49.539521676940751 ], [ 19.337279112795311, 49.539563895238764 ], [ 19.318155154248267, 49.5396014852166 ], [ 19.299031143814798, 49.539634470385963 ], [ 19.279907086715923, 49.539662879401824 ], [ 19.262579549311159, 49.529100025826921 ], [ 19.260720726066346, 49.527982956521143 ], [ 19.243658514585789, 49.517570869758998 ], [ 19.241543500447069, 49.516298891057097 ], [ 19.224747775898123, 49.506038581442205 ], [ 19.224913826410745, 49.494467668193394 ], [ 19.225079550977192, 49.482896732068696 ], [ 19.222269394588935, 49.481204621810967 ], [ 19.20618671892159, 49.471361314651276 ], [ 19.222181264344314, 49.461723097716387 ], [ 19.225410016890784, 49.45975479120257 ], [ 19.222163524213212, 49.457799012539361 ], [ 19.203071233604966, 49.457810537315126 ], [ 19.187476869013555, 49.44825181692736 ], [ 19.187649534797078, 49.436680834474039 ], [ 19.187821806214274, 49.425109829119258 ], [ 19.187993664011373, 49.413538800894742 ], [ 19.183803929314895, 49.4110098218692 ], [ 19.164729762685074, 49.411013536695904 ], [ 19.145655583468244, 49.411013031354244 ], [ 19.12658139635797, 49.411008348563151 ], [ 19.107507205984323, 49.410999532272172 ], [ 19.103157286120403, 49.413645603346168 ], [ 19.088454042087839, 49.422687220933661 ], [ 19.073815647712877, 49.413668056186395 ], [ 19.069358833632009, 49.410969678917994 ], [ 19.050284660572736, 49.410948732632441 ], [ 19.035972173611924, 49.402115258290657 ], [ 19.031203087183602, 49.399224207509739 ], [ 19.012133479200905, 49.399195652797026 ], [ 18.993063894078919, 49.399163235564892 ], [ 18.973994335961208, 49.399126998438696 ], [ 18.969063165273724, 49.402116715160588 ], [ 18.969267076863289, 49.413687532244907 ], [ 18.97398513077918, 49.41655151271106 ] ] ], [ [ [ 18.666741975750618, 49.714492385163396 ], [ 18.669465633577222, 49.714051680822443 ], [ 18.666745083139762, 49.714038271051294 ], [ 18.64755315283098, 49.713941517994336 ], [ 18.647477246659125, 49.713986848949219 ], [ 18.64752661252065, 49.717608595595145 ], [ 18.666741975750618, 49.714492385163396 ] ] ], [ [ [ 16.631743482040573, 50.117200550159531 ], [ 16.62959676942538, 50.118404470016145 ], [ 16.629181450220482, 50.129967066750481 ], [ 16.611248844341773, 50.140063956759739 ], [ 16.591905664746719, 50.139619553481559 ], [ 16.589923184444704, 50.140729627665905 ], [ 16.589494054377603, 50.152291819270822 ], [ 16.571382590014125, 50.162469809397358 ], [ 16.569632392773755, 50.163448786774708 ], [ 16.569193507150107, 50.175010693878711 ], [ 16.568751687578466, 50.186572520238663 ], [ 16.568306931552272, 50.19813426578866 ], [ 16.567859241555965, 50.20969593056725 ], [ 16.567408625069593, 50.221257514717415 ], [ 16.548454002490491, 50.23187847547063 ], [ 16.547501978563343, 50.232409857314707 ], [ 16.528472588665586, 50.243063006077996 ], [ 16.527584007658614, 50.2435585863075 ], [ 16.50848190385457, 50.254242807705339 ], [ 16.507654867303366, 50.254703700089223 ], [ 16.507182383063338, 50.266264605317076 ], [ 16.487869450227755, 50.277053375178632 ], [ 16.487236190847216, 50.277405905404223 ], [ 16.467855101986022, 50.288223322389747 ], [ 16.467279342391549, 50.288543590146006 ], [ 16.466792426100572, 50.300104029280945 ], [ 16.44720841091754, 50.311021803985859 ], [ 16.446819500357623, 50.31123790696553 ], [ 16.446324625758386, 50.32279808421427 ], [ 16.426541798624616, 50.333814112279384 ], [ 16.407122853408399, 50.333340043077136 ], [ 16.387704476170679, 50.33286166942446 ], [ 16.387350065363492, 50.333058189113565 ], [ 16.386841681944315, 50.344617875900063 ], [ 16.366999848901994, 50.355643427622077 ], [ 16.366830342432213, 50.355737318404486 ], [ 16.366989043690541, 50.355838644925441 ], [ 16.385943670178658, 50.364923644289824 ], [ 16.405732162241524, 50.35885691816587 ], [ 16.412574036222878, 50.356764683030342 ], [ 16.425513740032621, 50.352823000097366 ], [ 16.445290801010067, 50.346778077318874 ], [ 16.447940410056873, 50.345975625621151 ], [ 16.465057892751098, 50.340824325428926 ], [ 16.48370813485165, 50.335184580486221 ], [ 16.484820997454193, 50.334850782290765 ], [ 16.504572426423891, 50.329003745739875 ], [ 16.520102621484863, 50.324395986884284 ], [ 16.524318846007155, 50.323158134516184 ], [ 16.544054356940229, 50.3174284762231 ], [ 16.557229908834184, 50.313611485113029 ], [ 16.563783077181846, 50.311737180278726 ], [ 16.583501499641425, 50.306154438518071 ], [ 16.595288625978281, 50.302834483899751 ], [ 16.603211990377307, 50.30063599775351 ], [ 16.622912507858299, 50.295224502831942 ], [ 16.634480989609138, 50.292068185919092 ], [ 16.642604711898702, 50.289889178746726 ], [ 16.662286872914194, 50.284667340752762 ], [ 16.675006348287468, 50.28131543465738 ], [ 16.681961174175392, 50.279517066267559 ], [ 16.70162489281244, 50.274496816122529 ], [ 16.717049937881114, 50.270578477041354 ], [ 16.721282069598765, 50.26952545191201 ], [ 16.74092761780598, 50.264711809097889 ], [ 16.76056869830078, 50.259907511463908 ], [ 16.760771616383302, 50.259858748127897 ], [ 16.780196780592391, 50.255296361944623 ], [ 16.799820551616403, 50.250695112646717 ], [ 16.806443953123807, 50.249159502624693 ], [ 16.819434717399407, 50.246220050108555 ], [ 16.83904227416679, 50.24180847814597 ], [ 16.853901765749843, 50.23847539056564 ], [ 16.858644284187729, 50.237438512406982 ], [ 16.878237020923368, 50.233195306093322 ], [ 16.897826764746323, 50.22893970797179 ], [ 16.903084711544182, 50.227803135906839 ], [ 16.897881210680282, 50.227701703635333 ], [ 16.879188981753575, 50.215798727227643 ], [ 16.879825206364568, 50.204239763830522 ], [ 16.879529787522568, 50.204053157029691 ], [ 16.860156236988814, 50.203668186894525 ], [ 16.859793785169096, 50.203872337319041 ], [ 16.840257788271668, 50.214915193095642 ], [ 16.821853589600746, 50.20316693807257 ], [ 16.822509335201072, 50.191608556048337 ], [ 16.821940276679662, 50.191248452413205 ], [ 16.802572802241958, 50.190851270970605 ], [ 16.784550666209682, 50.179319801125494 ], [ 16.785222979322167, 50.167761855268395 ], [ 16.785897925959524, 50.15620393793251 ], [ 16.784821969074706, 50.155521902785289 ], [ 16.767286392544218, 50.144276653769921 ], [ 16.766012501744907, 50.143468550292859 ], [ 16.746665321795088, 50.143057511819606 ], [ 16.729410533598298, 50.131971064217296 ], [ 16.730109725143958, 50.120413809480659 ], [ 16.72842246336705, 50.119341889575352 ], [ 16.711544323868107, 50.108478257931935 ], [ 16.709641880592791, 50.107268735881192 ], [ 16.690310287893496, 50.106844333181051 ], [ 16.67097919119529, 50.10641579648393 ], [ 16.668820653028167, 50.107627920169882 ], [ 16.651078274955669, 50.117637129858451 ], [ 16.631743482040573, 50.117200550159531 ] ] ], [ [ [ 16.267715160631294, 50.388163221794933 ], [ 16.267182039747436, 50.399721930969285 ], [ 16.267121384387313, 50.401032587685513 ], [ 16.271208424438495, 50.399816513344099 ], [ 16.286932207316053, 50.395113753288967 ], [ 16.306743354861293, 50.389100429152656 ], [ 16.306824655912116, 50.389075908065948 ], [ 16.306744859379663, 50.389073887603246 ], [ 16.288165282530652, 50.377070883454053 ], [ 16.287969353285821, 50.376945575786301 ], [ 16.287759664794947, 50.377061419359933 ], [ 16.267866486635246, 50.388079687225584 ], [ 16.267715160631294, 50.388163221794933 ] ] ] ] } }
]
}
