{
"type": "FeatureCollection",
"name": "ryzyko_2020-2025_nasil3",
"crs": { "type": "name", "properties": { "name": "urn:ogc:def:crs:OGC:1.3:CRS84" } },
"features": [
{ "type": "Feature", "properties": { "rok_start": 2020, "rok_end": 2025, "gatunek": "Wszystkie", "prog_nasilenia": 3, "percentyl": 95, "prog_ryzyka": 1.2575841009351505, "liczba_traktow": 9371 }, "geometry": { "type": "MultiPolygon", "coordinates": [ [ [ [ 22.438595360539015, 53.031197867018236 ], [ 22.418132299032468, 53.033460047237853 ], [ 22.397716314657217, 53.036346097781966 ], [ 22.377345105106293, 53.039837748088459 ], [ 22.357016383732404, 53.043916433451081 ], [ 22.353426903169822, 53.044747092329722 ], [ 22.336735622662118, 53.048663439180544 ], [ 22.31649537640244, 53.053993866057255 ], [ 22.303776558228137, 53.05770661411043 ], [ 22.296296146905043, 53.059924744925418 ], [ 22.276139707699379, 53.066490201900841 ], [ 22.265245404187691, 53.070340090217385 ], [ 22.256022643310118, 53.073656406523099 ], [ 22.23594454201891, 53.081428684340509 ], [ 22.232640530719955, 53.082799788491982 ], [ 22.215909681686995, 53.089875282265204 ], [ 22.204185202523195, 53.09513855066642 ], [ 22.195912128841368, 53.098928375648953 ], [ 22.178413138413255, 53.107398603922377 ], [ 22.175953091061434, 53.108615302744354 ], [ 22.156035403013576, 53.118986203979325 ], [ 22.154924883647656, 53.119592321668868 ], [ 22.136160234342423, 53.130069520199363 ], [ 22.133304708287969, 53.13173203492078 ], [ 22.116326000551801, 53.141856299685251 ], [ 22.11314057413535, 53.143829566292005 ], [ 22.096533997965452, 53.154377321908569 ], [ 22.094231918423002, 53.155890888565231 ], [ 22.07678554526376, 53.167664358205826 ], [ 22.07641717993765, 53.167920791197211 ], [ 22.059669527901828, 53.179920467583081 ], [ 22.057087259865646, 53.181824329668032 ], [ 22.043806206828929, 53.191895053138104 ], [ 22.037438684939655, 53.196866647663143 ], [ 22.028716127536381, 53.203847737264795 ], [ 22.017840538868747, 53.212817573278699 ], [ 22.014324441099319, 53.215780717296965 ], [ 22.000643859060844, 53.227693933779918 ], [ 21.998300757154006, 53.229807124440484 ], [ 21.987655868075912, 53.239588103789828 ], [ 21.978827352030851, 53.247969404696832 ], [ 21.975199566364012, 53.251467480089239 ], [ 21.96334505047664, 53.263330491561355 ], [ 21.95942579414988, 53.267404771738377 ], [ 21.95204236959183, 53.275178561660887 ], [ 21.941198637899792, 53.287014145693085 ], [ 21.940104759104923, 53.288262416447544 ], [ 21.930931687981243, 53.298834475978204 ], [ 21.921050290521958, 53.310644393772044 ], [ 21.920883764750457, 53.31085351041429 ], [ 21.91172282435344, 53.322439886416895 ], [ 21.902758240564669, 53.334225740854869 ], [ 21.901787395283144, 53.335570692160992 ], [ 21.894293127616084, 53.345998727348622 ], [ 21.886202996823194, 53.357761969946054 ], [ 21.882846300648605, 53.362904850453511 ], [ 21.878539911548764, 53.369514292140821 ], [ 21.871285183426021, 53.381256230172539 ], [ 21.864382578245017, 53.392989212571024 ], [ 21.86410080088169, 53.393500989333695 ], [ 21.857923514395889, 53.404711114226942 ], [ 21.851817551604526, 53.416424172652121 ], [ 21.8460581801309, 53.428128600588643 ], [ 21.845657449863001, 53.429007819481775 ], [ 21.840711482623217, 53.439822878816926 ], [ 21.835713766655228, 53.451508579524145 ], [ 21.831057769399099, 53.463185921964332 ], [ 21.827701991508857, 53.472295911625864 ], [ 21.826753833324076, 53.474854704420054 ], [ 21.822829996015408, 53.486514305472333 ], [ 21.819245024756082, 53.49816573927054 ], [ 21.815998443942451, 53.509809050606094 ], [ 21.813090452737669, 53.521444265432642 ], [ 21.810790916168493, 53.531878546803327 ], [ 21.810525723859481, 53.533071301612061 ], [ 21.808332415961836, 53.544689522606213 ], [ 21.806483114708151, 53.556299595921068 ], [ 21.804981633815633, 53.567901451105783 ], [ 21.80383320109485, 53.579494981760384 ], [ 21.803044678800706, 53.591080040328002 ], [ 21.802624815374095, 53.602656432094079 ], [ 21.802584533481703, 53.614223908261032 ], [ 21.802937260362267, 53.625782157936477 ], [ 21.803699307857524, 53.637330798834334 ], [ 21.804890311213079, 53.648869366440472 ], [ 21.806533737869632, 53.660397301333695 ], [ 21.808657480145374, 53.671913934275722 ], [ 21.811294549092825, 53.683418468584847 ], [ 21.814483891104683, 53.694909959182375 ], [ 21.81827135432232, 53.706387287535577 ], [ 21.822710838943401, 53.717849131508629 ], [ 21.823269774561346, 53.719119509928476 ], [ 21.827966322969214, 53.729291551924682 ], [ 21.834057074326346, 53.74071399267136 ], [ 21.841066479140601, 53.752114355887436 ], [ 21.847052694802521, 53.76065604906978 ], [ 21.849169600685943, 53.763488324788348 ], [ 21.858677576963292, 53.774828263424283 ], [ 21.86959143530159, 53.78613382521003 ], [ 21.869800417223189, 53.786329826220303 ], [ 21.882628141497072, 53.797387393638409 ], [ 21.892061996946829, 53.804532316162842 ], [ 21.897960549038899, 53.808584114942597 ], [ 21.914042493012207, 53.818402712298095 ], [ 21.916427634483281, 53.819702717084802 ], [ 21.93582199086261, 53.829189072703286 ], [ 21.939370970035029, 53.830708889340322 ], [ 21.957453517097836, 53.837714999639921 ], [ 21.96902808753638, 53.841544706199009 ], [ 21.978973353592398, 53.844542422177803 ], [ 22.000401255254811, 53.849985111938345 ], [ 22.010373847918679, 53.852080433072722 ], [ 22.021751919477978, 53.854277184022123 ], [ 22.043036548926334, 53.857597663020115 ], [ 22.064266896740047, 53.860127861941621 ], [ 22.083462150400717, 53.861790037080681 ], [ 22.085447692583834, 53.861948541521642 ], [ 22.106580868898813, 53.863100424179649 ], [ 22.127674273908013, 53.863702282881754 ], [ 22.148730795216427, 53.863803634206228 ], [ 22.169752866649496, 53.863446632191298 ], [ 22.190742525835788, 53.862667078503122 ], [ 22.211701461863939, 53.861495260296159 ], [ 22.232631054826278, 53.859956647864749 ], [ 22.253532408690699, 53.858072477543246 ], [ 22.263311993856366, 53.857029715875981 ], [ 22.274405182035807, 53.85584492769862 ], [ 22.295249866905984, 53.853286696991773 ], [ 22.316068063869224, 53.850424154952776 ], [ 22.336860053617229, 53.84726642345084 ], [ 22.357625931615196, 53.843820070218868 ], [ 22.3639274752557, 53.842680500332641 ], [ 22.378363028179113, 53.840057172737282 ], [ 22.39907249810004, 53.835997630228611 ], [ 22.4197551624044, 53.831656756568314 ], [ 22.430606432840584, 53.82922215645555 ], [ 22.440408331836593, 53.8270066944795 ], [ 22.461031042303794, 53.822041121953283 ], [ 22.481625007802855, 53.816786111204891 ], [ 22.484127751308396, 53.816109423921695 ], [ 22.502184463606962, 53.811177508108209 ], [ 22.522712534930047, 53.805258500972279 ], [ 22.529436135010425, 53.803214544718827 ], [ 22.543204389026457, 53.79897699823097 ], [ 22.563660889498177, 53.792349152208075 ], [ 22.56918759464271, 53.79046783478551 ], [ 22.584077215459036, 53.785324115960478 ], [ 22.604455231484422, 53.777930031628138 ], [ 22.604705171292231, 53.777835085869931 ], [ 22.624786413022505, 53.770073958689466 ], [ 22.63656968583274, 53.765302483693027 ], [ 22.645073296470922, 53.761792439057182 ], [ 22.665312136070831, 53.753049132236988 ], [ 22.665770254700377, 53.752842710336758 ], [ 22.685494752873119, 53.743757807200808 ], [ 22.692362677449516, 53.740456029829794 ], [ 22.705621097407096, 53.733926242432645 ], [ 22.716917687274364, 53.728126490851707 ], [ 22.725685991905056, 53.723504049676265 ], [ 22.739634576570694, 53.715849146407983 ], [ 22.745683402701403, 53.712432145513127 ], [ 22.760691451983224, 53.703619469499891 ], [ 22.765606268784818, 53.700641022114084 ], [ 22.780246237705999, 53.691433368149461 ], [ 22.785446297491799, 53.688048692943575 ], [ 22.798437892907124, 53.679287185917637 ], [ 22.805193720173754, 53.674558241027505 ], [ 22.815387742471948, 53.667177692099067 ], [ 22.824836999018178, 53.660054880365159 ], [ 22.831200846487242, 53.655102064928343 ], [ 22.844362474161731, 53.644402419804607 ], [ 22.845967355293389, 53.643057870382066 ], [ 22.859677742111966, 53.631045817824869 ], [ 22.863741692856888, 53.627305140625005 ], [ 22.872449800704263, 53.61906246810279 ], [ 22.882954762873137, 53.608565288747002 ], [ 22.884378667587097, 53.607105042050634 ], [ 22.895394591519374, 53.595176077458987 ], [ 22.901948453744843, 53.587626568071144 ], [ 22.905641526562615, 53.583271132780922 ], [ 22.91508918609264, 53.571391408763496 ], [ 22.920662971594233, 53.563870074884861 ], [ 22.923808997610859, 53.559534758982522 ], [ 22.931781420366711, 53.54770199584852 ], [ 22.938982439863576, 53.536081840236029 ], [ 22.939099032086514, 53.535890224718848 ], [ 22.945680370756449, 53.524102266961222 ], [ 22.951632226658685, 53.512334718789525 ], [ 22.95662860347219, 53.501321723037542 ], [ 22.95695670444076, 53.500587612803763 ], [ 22.96161488518624, 53.488862333120174 ], [ 22.965672338479056, 53.477156787193138 ], [ 22.969135551390227, 53.465470828234182 ], [ 22.97201133981519, 53.453804288667683 ], [ 22.972719126266504, 53.450217617649244 ], [ 22.974292696680777, 53.442157451949569 ], [ 22.976000600777617, 53.430529660324822 ], [ 22.977148528004527, 53.418920496205111 ], [ 22.977743229572816, 53.4073297575437 ], [ 22.977791379292345, 53.395757236818966 ], [ 22.977299447795289, 53.384202725539446 ], [ 22.976273561120255, 53.372666019258283 ], [ 22.974719344969909, 53.361146923040998 ], [ 22.97264175592181, 53.349645257329584 ], [ 22.970044900768553, 53.338160864148428 ], [ 22.966931844992516, 53.326693613602046 ], [ 22.963304411148233, 53.315243410621235 ], [ 22.959162967635962, 53.303810201922524 ], [ 22.959076055675869, 53.303596623921344 ], [ 22.954505629147757, 53.292394002378231 ], [ 22.949332675060226, 53.280994748038687 ], [ 22.943639192052011, 53.269612540219889 ], [ 22.937417760756212, 53.258247555396117 ], [ 22.933523930120998, 53.251699586114142 ], [ 22.930656269858474, 53.246900116496171 ], [ 22.923342745449482, 53.235570532019914 ], [ 22.915464309615967, 53.22425912978094 ], [ 22.909545242075538, 53.216348119664488 ], [ 22.90699507689018, 53.212966653434599 ], [ 22.897903139936311, 53.201694028270616 ], [ 22.888173200974972, 53.190441617878335 ], [ 22.886276285110018, 53.188380483694942 ], [ 22.877732207228579, 53.179211653559079 ], [ 22.866566551500856, 53.16800439749921 ], [ 22.863457513923265, 53.165068950032321 ], [ 22.854570332324037, 53.156823085062364 ], [ 22.841723172188008, 53.14566813125473 ], [ 22.840957735694175, 53.145041241560037 ], [ 22.827835664824057, 53.134545365927352 ], [ 22.818719401786876, 53.127715128080972 ], [ 22.812864421679194, 53.123455825771018 ], [ 22.796678880288162, 53.112422445922093 ], [ 22.796651077706809, 53.112404169050293 ], [ 22.778862495265265, 53.101400489668507 ], [ 22.774823339456159, 53.099056274727729 ], [ 22.759286632349038, 53.090450801100694 ], [ 22.75311706709725, 53.087243516505005 ], [ 22.737492718400738, 53.079567783290948 ], [ 22.731543601616242, 53.076823441542395 ], [ 22.712850991848416, 53.068769912206427 ], [ 22.710088265592677, 53.067651601966865 ], [ 22.688743350991739, 53.05966110246824 ], [ 22.684150906338207, 53.058092978122254 ], [ 22.667498271866002, 53.05274924569688 ], [ 22.64945151676255, 53.047593703997016 ], [ 22.646337932950914, 53.046757205373609 ], [ 22.625266983531123, 53.041757145909592 ], [ 22.60426661288631, 53.037541829325932 ], [ 22.603566487046564, 53.037424297521667 ], [ 22.58334596141253, 53.034235608924121 ], [ 22.562490201223227, 53.031675197854533 ], [ 22.541696999519608, 53.029845596738539 ], [ 22.52096431492475, 53.02873491452052 ], [ 22.512839894359765, 53.028571798853527 ], [ 22.500291551335142, 53.028348705191419 ], [ 22.479674219720959, 53.028644246434197 ], [ 22.459109180629063, 53.029594554821706 ], [ 22.447765949890645, 53.030478040669365 ], [ 22.438595360539015, 53.031197867018236 ] ] ], [ [ [ 19.772019822270842, 49.214405514580875 ], [ 19.771978387879681, 49.225977084704745 ], [ 19.771955939144902, 49.237548505028407 ], [ 19.772392547123921, 49.2378089092091 ], [ 19.791128956791781, 49.248990043998852 ], [ 19.791148002535795, 49.260561146131387 ], [ 19.791769890718886, 49.260931689391846 ], [ 19.81038019701387, 49.271999063073913 ], [ 19.810973591787867, 49.272352364838561 ], [ 19.829646881636211, 49.283433524409503 ], [ 19.811338936883249, 49.294624202555113 ], [ 19.810507853731359, 49.295140535172855 ], [ 19.810592457275302, 49.306711091284654 ], [ 19.81069003162251, 49.318281533593996 ], [ 19.810799984472734, 49.32985186624213 ], [ 19.81092177239973, 49.341422093024619 ], [ 19.811054897190136, 49.352992217417452 ], [ 19.811198902489888, 49.364562242600947 ], [ 19.811353370727851, 49.376132171481594 ], [ 19.793792069147134, 49.386883067307963 ], [ 19.792255276875526, 49.387835613673808 ], [ 19.792422994825131, 49.399405423185122 ], [ 19.79260011573334, 49.41097514530891 ], [ 19.775273156804982, 49.421583716762136 ], [ 19.758004558794255, 49.411207116428812 ], [ 19.7560170717503, 49.410025493825749 ], [ 19.738928390088311, 49.399759684985789 ], [ 19.736770196377982, 49.398475610503191 ], [ 19.719841644406614, 49.388309164263077 ], [ 19.717532514339247, 49.386934257165571 ], [ 19.715263845738928, 49.388337576391201 ], [ 19.69863147728201, 49.39850076736365 ], [ 19.69616539203307, 49.400025074647964 ], [ 19.679721649440165, 49.410070889115346 ], [ 19.660647816619285, 49.410083376229693 ], [ 19.641573990886805, 49.41009629473993 ], [ 19.638605047882407, 49.411928197431244 ], [ 19.638738324925974, 49.423498313595331 ], [ 19.641772310696279, 49.425307209728089 ], [ 19.658122753634267, 49.434960451987493 ], [ 19.642026590511133, 49.444791336685888 ], [ 19.639031118543453, 49.446638331803101 ], [ 19.623085949966857, 49.456374864694148 ], [ 19.603994124346311, 49.456383610853585 ], [ 19.584902306662496, 49.45639272829964 ], [ 19.581457757408852, 49.458512884373043 ], [ 19.581605045856271, 49.470082884659341 ], [ 19.566077233269429, 49.479557135467275 ], [ 19.562514319682151, 49.481748013585076 ], [ 19.562670781347528, 49.493317941311446 ], [ 19.562834914094932, 49.504887808563346 ], [ 19.547363976822066, 49.514327944511884 ], [ 19.543746432356819, 49.516549735882677 ], [ 19.543918933252183, 49.528119538729847 ], [ 19.54409876554227, 49.53968928390109 ], [ 19.544285844085994, 49.551258971771503 ], [ 19.528750042849612, 49.560740063810172 ], [ 19.52519927189995, 49.562917708618329 ], [ 19.525394067107158, 49.574487340241149 ], [ 19.509859380889257, 49.58396680122511 ], [ 19.490717737789968, 49.583964351770902 ], [ 19.487025088099735, 49.586225639511085 ], [ 19.471688117802493, 49.595579731424714 ], [ 19.46793745452689, 49.597874834523523 ], [ 19.46813375355072, 49.609444471018172 ], [ 19.452757172901009, 49.618821935460289 ], [ 19.437469037571205, 49.609564416577307 ], [ 19.437447197165159, 49.597994076921573 ], [ 19.433395782388153, 49.595574037839008 ], [ 19.41424963327259, 49.595571612231176 ], [ 19.399364944320702, 49.586561293716009 ], [ 19.399334378751725, 49.574990939907664 ], [ 19.394916018653902, 49.572347746449033 ], [ 19.375778994178543, 49.572348118649508 ], [ 19.361230591804674, 49.563545663239807 ], [ 19.361190961168639, 49.551975289669542 ], [ 19.361144125915832, 49.540404915421867 ], [ 19.35638871269639, 49.537555126660472 ], [ 19.337265318375451, 49.537559523485498 ], [ 19.318141928167794, 49.537564176455234 ], [ 19.29901854147025, 49.537569090527946 ], [ 19.279895157688614, 49.537574273584617 ], [ 19.265861604825364, 49.529092531300947 ], [ 19.260710164200013, 49.525996817889833 ], [ 19.246751258683251, 49.517564315362719 ], [ 19.241534281474323, 49.514426870529405 ], [ 19.227631719359714, 49.506032943155041 ], [ 19.227570580585194, 49.494462472531346 ], [ 19.22750115823446, 49.482891994953498 ], [ 19.222262755627202, 49.479737791704075 ], [ 19.208358976529748, 49.471357422177412 ], [ 19.222186543172416, 49.462890599166585 ], [ 19.227336545041343, 49.45975102068396 ], [ 19.222158246879939, 49.456631510054137 ], [ 19.203066430842302, 49.45664812851993 ], [ 19.18911299507274, 49.448249153240496 ], [ 19.189010988001979, 49.436678617408106 ], [ 19.188899031255875, 49.425108074512501 ], [ 19.188776723772062, 49.413537525180971 ], [ 19.18380215588051, 49.410534826991544 ], [ 19.164728246167357, 49.410560322001999 ], [ 19.145654322329644, 49.410586781553029 ], [ 19.126580383144351, 49.410614291098021 ], [ 19.107506427275116, 49.410642944837058 ], [ 19.102569427151277, 49.41364612627676 ], [ 19.08845313985373, 49.422185280837311 ], [ 19.074253457512349, 49.413667775882026 ], [ 19.06935845947654, 49.410704109367281 ], [ 19.050284444158411, 49.410736858364452 ], [ 19.035889984645543, 49.402115283830689 ], [ 19.03120311877738, 49.399274074031368 ], [ 19.012133508154548, 49.399313175738008 ], [ 18.993063867163681, 49.399354347070648 ], [ 18.973994192981756, 49.399397774087554 ], [ 18.969509452098645, 49.402116833705676 ], [ 18.969365602365706, 49.413687558388517 ], [ 18.973985162367224, 49.41649174854971 ], [ 18.988249039915363, 49.425261758396665 ], [ 18.988140403993249, 49.436832463240627 ], [ 18.988043623320561, 49.44840314593737 ], [ 18.973963773202868, 49.45691423292017 ], [ 18.968917243512642, 49.459970256851591 ], [ 18.968834199953371, 49.471540880858363 ], [ 18.968761857385719, 49.483111484431006 ], [ 18.968699831223972, 49.494682067486558 ], [ 18.968647774291092, 49.506252629948513 ], [ 18.95481872846393, 49.514619835545005 ], [ 18.949531096033276, 49.517816423903675 ], [ 18.935689127435612, 49.526191473998423 ], [ 18.916570153749468, 49.526211557725254 ], [ 18.902582663887724, 49.517786420157528 ], [ 18.897475302807567, 49.514686643251189 ], [ 18.878360780730898, 49.51471255433389 ], [ 18.873312787548919, 49.517758073715768 ], [ 18.859213097961899, 49.526282505260809 ], [ 18.854197694986947, 49.529306100640447 ], [ 18.854126271516165, 49.540876523166197 ], [ 18.854064763886235, 49.552446934920503 ], [ 18.839980886936839, 49.560965597651062 ], [ 18.834955110805879, 49.563991726687163 ], [ 18.834904801316835, 49.575562099461905 ], [ 18.834863870240891, 49.587132462369631 ], [ 18.83483212083874, 49.598702815138509 ], [ 18.83480937872028, 49.610273157526223 ], [ 18.820636239539667, 49.61885237765906 ], [ 18.815708043579427, 49.621814678248022 ], [ 18.815695650520258, 49.633384988837442 ], [ 18.815691985747378, 49.644955290099617 ], [ 18.815696935517796, 49.656525581853138 ], [ 18.815710398927113, 49.668095863935122 ], [ 18.801245037012009, 49.676857551485561 ], [ 18.796617864399668, 49.679634145525007 ], [ 18.782015127621428, 49.688478919439582 ], [ 18.762832545970547, 49.68848870780252 ], [ 18.748069357723583, 49.679538710205911 ], [ 18.743710971579084, 49.676891445122784 ], [ 18.739324861833172, 49.679519357467463 ], [ 18.724467310735822, 49.68851457806332 ], [ 18.720240645270991, 49.691045055792735 ], [ 18.720245109323702, 49.702615270615652 ], [ 18.705144126309506, 49.71175880957643 ], [ 18.685952303286339, 49.711774721648545 ], [ 18.66676044323291, 49.711793375997296 ], [ 18.647568540752872, 49.711815021988222 ], [ 18.643949817942694, 49.713976059942397 ], [ 18.643943261289149, 49.725546211807952 ], [ 18.628199187471008, 49.735075741787803 ], [ 18.62487954248768, 49.737056200407331 ], [ 18.624883505703334, 49.748626343112065 ], [ 18.624896207868776, 49.76019649097563 ], [ 18.624917480819541, 49.77176664344659 ], [ 18.608623732557064, 49.78162894354503 ], [ 18.605863094297007, 49.783273461924665 ], [ 18.60589397612933, 49.794843608692773 ], [ 18.589207249422561, 49.804941685330782 ], [ 18.586845319538032, 49.806347286785176 ], [ 18.58688508489006, 49.817917428666782 ], [ 18.569771891717782, 49.828270213081254 ], [ 18.567841307907287, 49.829417968638538 ], [ 18.569751403008048, 49.830580011476336 ], [ 18.586987253405912, 49.841057723687939 ], [ 18.58704907296039, 49.852627874720476 ], [ 18.588794186402723, 49.853688498285038 ], [ 18.606240042585089, 49.864264549628153 ], [ 18.588613894304224, 49.87492355093142 ], [ 18.587192529140967, 49.875768177865957 ], [ 18.587273417097183, 49.887338327282677 ], [ 18.58735985957248, 49.898908473276769 ], [ 18.587451400597487, 49.910478614211065 ], [ 18.568941391049677, 49.921657560930647 ], [ 18.568399535211807, 49.921979071475981 ], [ 18.54955745895619, 49.933351343199014 ], [ 18.530647607380374, 49.921832436458978 ], [ 18.530946416957502, 49.910263837877189 ], [ 18.530504697288325, 49.909995280177739 ], [ 18.511234204909982, 49.910010742293785 ], [ 18.491963658951811, 49.910029240243411 ], [ 18.491845712715072, 49.910099097139792 ], [ 18.491883462360601, 49.91766213799874 ], [ 18.49911098658351, 49.92170052174005 ], [ 18.511051096698395, 49.928120328885932 ], [ 18.521698858010961, 49.933365663280576 ], [ 18.530238030905043, 49.937444217195718 ], [ 18.547674850449877, 49.945039630901498 ], [ 18.549441465971718, 49.945790883233798 ], [ 18.568658974483881, 49.953303102571248 ], [ 18.57831892989778, 49.956724806363404 ], [ 18.587888869558384, 49.960062994654855 ], [ 18.607129646786944, 49.966145953393593 ], [ 18.615085863450222, 49.968422323776181 ], [ 18.626379905378535, 49.971629197708857 ], [ 18.645638652101429, 49.976550957757254 ], [ 18.661365626669138, 49.980136303264786 ], [ 18.664904999950561, 49.980942751415924 ], [ 18.684177762408645, 49.98488935168821 ], [ 18.703456572199141, 49.988364142221194 ], [ 18.722740682065439, 49.991399090888073 ], [ 18.726219335386133, 49.991877092278052 ], [ 18.742029165203125, 49.994069156659364 ], [ 18.761321685646188, 49.996354045937387 ], [ 18.780617734493486, 49.998264257646369 ], [ 18.799916788184841, 49.99981778964662 ], [ 18.819218361370098, 50.001030058990899 ], [ 18.838522000876509, 50.001914181122025 ], [ 18.8578272804649, 50.002481204852032 ], [ 18.877133796235434, 50.002740310208893 ], [ 18.896441162568959, 50.002698974905897 ], [ 18.915749008509575, 50.002363114129963 ], [ 18.935056974509905, 50.001737197499537 ], [ 18.954364709473417, 50.000824346363743 ], [ 18.973671868038192, 49.999626414066363 ], [ 18.992978108055024, 49.998144051354501 ], [ 19.012283088219473, 49.996376758751943 ], [ 19.031586465823068, 49.994322927423369 ], [ 19.049166989934001, 49.992189677331041 ], [ 19.050887900560369, 49.991985524420144 ], [ 19.070187135922268, 49.989421712304193 ], [ 19.08948378811629, 49.986570646861928 ], [ 19.108777501828339, 49.983427181342357 ], [ 19.124847517548105, 49.980563321625617 ], [ 19.128067950287306, 49.979999923883696 ], [ 19.147354980311864, 49.97634972672715 ], [ 19.166638053292207, 49.972397597393986 ], [ 19.182405073209328, 49.968917474604886 ], [ 19.185916848913102, 49.968153872433398 ], [ 19.205191295577961, 49.963683433478629 ], [ 19.224460704809001, 49.958896147451277 ], [ 19.230661138229866, 49.957261902934725 ], [ 19.243725035932524, 49.9538586077541 ], [ 19.262983774546793, 49.948530853254631 ], [ 19.27299991491617, 49.945600297715316 ], [ 19.282236625597786, 49.942921273574441 ], [ 19.301483275683154, 49.937033101909726 ], [ 19.311102324981398, 49.933934641195584 ], [ 19.320723312560418, 49.930853827831193 ], [ 19.339956377307683, 49.92438126834535 ], [ 19.34596143309453, 49.92226614980175 ], [ 19.359182191639587, 49.917624482503513 ], [ 19.378251195430469, 49.910595551404334 ], [ 19.378400086786986, 49.910540711027949 ], [ 19.397610159898726, 49.903188527745151 ], [ 19.408272541910723, 49.898923932800521 ], [ 19.416811535490993, 49.895502768106375 ], [ 19.436003876440271, 49.887489367825353 ], [ 19.43655552064094, 49.887251061378564 ], [ 19.455186999764429, 49.879169573976306 ], [ 19.46316044047563, 49.875577968169537 ], [ 19.474360137503428, 49.87050140887888 ], [ 19.488405684496762, 49.863904467600101 ], [ 19.493522842780681, 49.861480801770611 ], [ 19.512410295047964, 49.852230921801301 ], [ 19.51267462558959, 49.85210011271014 ], [ 19.531814991097942, 49.842352254938071 ], [ 19.535234605086714, 49.840557822995926 ], [ 19.550943226193237, 49.832211802274145 ], [ 19.557030507063356, 49.82888513874078 ], [ 19.570058689225878, 49.821662682408807 ], [ 19.577876459155085, 49.817213058216453 ], [ 19.589160679198041, 49.810685883119078 ], [ 19.597838224147271, 49.805541754999737 ], [ 19.608248422651105, 49.799258847378638 ], [ 19.616973608450159, 49.793871378485854 ], [ 19.62732106558791, 49.787355363555726 ], [ 19.635333367464177, 49.782202060055077 ], [ 19.64637766441329, 49.774945396429693 ], [ 19.652961975448413, 49.770533918073838 ], [ 19.665417175631667, 49.76199485095659 ], [ 19.669898283544239, 49.758867061965866 ], [ 19.684438443978074, 49.748465257825679 ], [ 19.686176084868013, 49.747201595536247 ], [ 19.701819341478274, 49.735537651560925 ], [ 19.703439947643222, 49.734296697910693 ], [ 19.716855556704047, 49.723875317296972 ], [ 19.722419989420661, 49.719423414002286 ], [ 19.731314330601332, 49.712214642665231 ], [ 19.74137710595468, 49.703801380212745 ], [ 19.745214422297177, 49.700555723632618 ], [ 19.758569557130389, 49.688898671887365 ], [ 19.760308908977436, 49.687331301987292 ], [ 19.771395367817323, 49.677243572285434 ], [ 19.779212142877771, 49.669868711255795 ], [ 19.783708619785113, 49.665590487707661 ], [ 19.795517352448552, 49.653939526913803 ], [ 19.798084026801568, 49.651311137058478 ], [ 19.806833845150599, 49.642290759198147 ], [ 19.816919812748448, 49.63144724270574 ], [ 19.817662555099446, 49.630644297932477 ], [ 19.828014598675775, 49.619000201014451 ], [ 19.835712175274434, 49.609932840551465 ], [ 19.837889062430545, 49.607358603476044 ], [ 19.847294285934606, 49.595719567056449 ], [ 19.854452834356337, 49.586397547100042 ], [ 19.856225939373491, 49.584083238750637 ], [ 19.864691460075747, 49.572449673229663 ], [ 19.872678915377268, 49.560819063380308 ], [ 19.873126845279028, 49.560126676076415 ], [ 19.880199033425324, 49.549191427234007 ], [ 19.887234103291799, 49.537566992357377 ], [ 19.891704183213498, 49.529632069808599 ], [ 19.893783200777971, 49.525945855049464 ], [ 19.899841530077886, 49.514328135837069 ], [ 19.905391785940502, 49.502714047979381 ], [ 19.910122583194266, 49.491798606838763 ], [ 19.910424672117795, 49.491103738529041 ], [ 19.914933156567024, 49.479497331420731 ], [ 19.918893085339864, 49.467895080674239 ], [ 19.922287418772438, 49.456297179363546 ], [ 19.925096193066114, 49.444703837864722 ], [ 19.927296242905363, 49.433115285518333 ], [ 19.928018169660678, 49.427751300892218 ], [ 19.92886111022494, 49.421531770557081 ], [ 19.929759145841178, 49.409953574262786 ], [ 19.929955782288971, 49.398380991256758 ], [ 19.92941237295306, 49.386814336899114 ], [ 19.928085145230135, 49.375253953317227 ], [ 19.926910728395391, 49.368947619929706 ], [ 19.925922695253078, 49.363700226465276 ], [ 19.922864798014349, 49.352153591581818 ], [ 19.918848195860999, 49.340614481828247 ], [ 19.91379947502012, 49.329083379126615 ], [ 19.907635681322194, 49.317560801216366 ], [ 19.906885704285298, 49.316372764176087 ], [ 19.900222407801206, 49.306047618353546 ], [ 19.891470068484853, 49.294544282931255 ], [ 19.887371853453427, 49.289878562357671 ], [ 19.881203212959466, 49.283051830624146 ], [ 19.869267435542032, 49.271571021412797 ], [ 19.868003831281079, 49.270493817919707 ], [ 19.855375080974081, 49.260103470201045 ], [ 19.848722202563348, 49.25525642278123 ], [ 19.839277191154338, 49.248650282363286 ], [ 19.829494677739589, 49.242536163354984 ], [ 19.820571078220294, 49.237213399486393 ], [ 19.810307889524303, 49.231699344389419 ], [ 19.79871687591837, 49.225795291446069 ], [ 19.791152485864004, 49.222300055417541 ], [ 19.772981122840239, 49.214399085299071 ], [ 19.772027740121793, 49.214400592529799 ], [ 19.772019822270842, 49.214405514580875 ] ] ], [ [ [ 16.651113091486327, 50.116925903524326 ], [ 16.631776264917153, 50.116536331105387 ], [ 16.628485634256755, 50.118381770322721 ], [ 16.627644671635746, 50.129935665473269 ], [ 16.611304290673548, 50.138951091124 ], [ 16.591958840497124, 50.138560828769087 ], [ 16.588151272277546, 50.140692822574557 ], [ 16.587325910122992, 50.152246775515522 ], [ 16.571456905983247, 50.161003879028513 ], [ 16.567177797791345, 50.163397372115661 ], [ 16.566374179730261, 50.174951628748246 ], [ 16.565584809890179, 50.18650616207421 ], [ 16.564808856795157, 50.198060954889719 ], [ 16.56404555392535, 50.209615991331404 ], [ 16.563294194561671, 50.221171256770624 ], [ 16.548586439347552, 50.22929684163838 ], [ 16.54317293773337, 50.232318359827914 ], [ 16.528612307933269, 50.240362527005907 ], [ 16.523054615434535, 50.243462079632195 ], [ 16.508628585258187, 50.251431651333291 ], [ 16.502938732566083, 50.25460240791611 ], [ 16.502205394205479, 50.266157692859743 ], [ 16.488030790806512, 50.273989147099677 ], [ 16.482093026752413, 50.277294543525002 ], [ 16.468022633284207, 50.285067947775161 ], [ 16.461981947276534, 50.288427982566986 ], [ 16.461260324136695, 50.299983280038845 ], [ 16.447389205016069, 50.307646928728978 ], [ 16.441150879036464, 50.311113208054216 ], [ 16.440438254957055, 50.322668574584114 ], [ 16.42673499625344, 50.330239585337068 ], [ 16.407314395896758, 50.32982266317682 ], [ 16.387894018212187, 50.3294068806727 ], [ 16.381544538784819, 50.33292751868256 ], [ 16.380824323746168, 50.344482416206972 ], [ 16.367201142967762, 50.352006261078266 ], [ 16.360715408151655, 50.355598615473085 ], [ 16.366787706053533, 50.359475808440791 ], [ 16.379406794047039, 50.367592666711069 ], [ 16.365925713818932, 50.375039219884272 ], [ 16.359297199555701, 50.378708641584765 ], [ 16.345844119814014, 50.386138883720392 ], [ 16.326401472729291, 50.385716323720096 ], [ 16.306959055766338, 50.385294792746997 ], [ 16.294197699275319, 50.377211467705429 ], [ 16.288173961672825, 50.373359141528596 ], [ 16.281727299244121, 50.376920501535302 ], [ 16.268074885571242, 50.384455164101425 ], [ 16.261617294956753, 50.388019729728263 ], [ 16.260887345956018, 50.399573784571096 ], [ 16.247298475361909, 50.407073048029105 ], [ 16.2407762284247, 50.410669450893884 ], [ 16.227174771687604, 50.418174753197277 ], [ 16.220664544391997, 50.421761674924966 ], [ 16.20704137908233, 50.429278028839221 ], [ 16.200552296011427, 50.432850457320022 ], [ 16.19982733211469, 50.444404296820423 ], [ 16.205920640345067, 50.448304801777233 ], [ 16.212455806635088, 50.444707715774967 ], [ 16.226060769504151, 50.437232228774704 ], [ 16.238626719114801, 50.445332138067577 ], [ 16.225151670424189, 50.452769117289385 ], [ 16.218512594422506, 50.456423995338533 ], [ 16.224705728890669, 50.460385438369002 ], [ 16.244174061979528, 50.460882616721761 ], [ 16.256652652089315, 50.468901118979886 ], [ 16.262975006040314, 50.472940035314203 ], [ 16.282449699427278, 50.473421234671278 ], [ 16.294856419414028, 50.481367031502209 ], [ 16.301266395270929, 50.485456671723803 ], [ 16.313653653749707, 50.493373681956555 ], [ 16.31300238126277, 50.504929635616733 ], [ 16.319438850122982, 50.509032211285799 ], [ 16.326322817743932, 50.505236528814756 ], [ 16.339579748639707, 50.497936797921732 ], [ 16.359066978871581, 50.498387436861584 ], [ 16.37144601065372, 50.506264779349735 ], [ 16.377914945905019, 50.510381443170822 ], [ 16.390321027478148, 50.518260531564984 ], [ 16.396772980387428, 50.52236330221092 ], [ 16.409220880505753, 50.53025368312548 ], [ 16.395933811465017, 50.537600756642298 ], [ 16.389097306055177, 50.541374700292259 ], [ 16.395501505278563, 50.545445332214989 ], [ 16.408020250965095, 50.553368462784817 ], [ 16.407427701901074, 50.564925996552667 ], [ 16.413747216711389, 50.568938901170256 ], [ 16.433266004152276, 50.569356914518394 ], [ 16.445939508214856, 50.577348092548625 ], [ 16.445369747362861, 50.588906217128788 ], [ 16.431793708319191, 50.596416618182772 ], [ 16.425239771605899, 50.600033377031394 ], [ 16.411629088119973, 50.607562186390247 ], [ 16.405109535633272, 50.611157098364572 ], [ 16.391454657512725, 50.618709629280502 ], [ 16.384979181871827, 50.622277385112113 ], [ 16.384412100128742, 50.633835311568525 ], [ 16.370622714002479, 50.641461902538708 ], [ 16.364281230281467, 50.644952077255809 ], [ 16.350423219533994, 50.652615981504603 ], [ 16.344150731461092, 50.656065421536667 ], [ 16.330213845162845, 50.663772326906582 ], [ 16.310658468581661, 50.66332006765316 ], [ 16.291103384139369, 50.662868198493264 ], [ 16.284905930754373, 50.666270080184134 ], [ 16.270875137506113, 50.674026125303008 ], [ 16.251315859617268, 50.673574212825137 ], [ 16.231756873838037, 50.673122655860219 ], [ 16.218601009350106, 50.664705459944152 ], [ 16.219366371957648, 50.653152813165228 ], [ 16.220124860828825, 50.641599982557459 ], [ 16.214259500476803, 50.637861505004075 ], [ 16.194715401252026, 50.637413115595763 ], [ 16.188460023106579, 50.640839721252533 ], [ 16.174475636462386, 50.648562934934098 ], [ 16.154927347944195, 50.648114449057751 ], [ 16.148835118721578, 50.651447266696707 ], [ 16.134673173015962, 50.659266307934523 ], [ 16.115120686161895, 50.658817785833143 ], [ 16.095568478746049, 50.658369710201562 ], [ 16.082162991594281, 50.649795676390539 ], [ 16.076736992488733, 50.646324932221788 ], [ 16.063326072968518, 50.637750864800886 ], [ 16.064105395922819, 50.626199248737812 ], [ 16.058638272651717, 50.622698817033061 ], [ 16.045257035471739, 50.614151069322574 ], [ 16.039828819538219, 50.61067293359126 ], [ 16.026400633290166, 50.602099530560373 ], [ 16.021028303545531, 50.598654614893228 ], [ 16.015238714358848, 50.601813839437547 ], [ 16.000764665303109, 50.609791433060678 ], [ 15.995122578025919, 50.612867702231448 ], [ 16.000355221487894, 50.61622443957134 ], [ 16.013864715441795, 50.624921397677603 ], [ 16.013187869374676, 50.636475410199708 ], [ 16.012517811037416, 50.648029578921459 ], [ 16.011854571068081, 50.659583904714459 ], [ 16.011198192600066, 50.67113838876999 ], [ 15.996330334869059, 50.679336529252367 ], [ 15.991084781250063, 50.682191784337952 ], [ 15.976023710381936, 50.690495120031734 ], [ 15.956459090789187, 50.690048214067374 ], [ 15.93689472676996, 50.689602023783202 ], [ 15.917330612506431, 50.689156617353191 ], [ 15.902839947860858, 50.679878339107674 ], [ 15.898532267823875, 50.677111288425031 ], [ 15.878973374141253, 50.676668950075374 ], [ 15.874456301759524, 50.679119978627455 ], [ 15.873770179335764, 50.690673154873842 ], [ 15.85786385274711, 50.699429050341571 ], [ 15.853667812674999, 50.701703408142755 ], [ 15.852991178448905, 50.713256734895531 ], [ 15.836732164444202, 50.722205306089187 ], [ 15.832893623642684, 50.724283627446468 ], [ 15.832227197765949, 50.735837128368154 ], [ 15.831569244873084, 50.747390842849164 ], [ 15.81478845204178, 50.756625550310723 ], [ 15.795197153694749, 50.756179030383151 ], [ 15.779276859678509, 50.74595692498697 ], [ 15.776405373623366, 50.744108767085464 ], [ 15.756819306544427, 50.743665410969179 ], [ 15.737233449802199, 50.743223270854166 ], [ 15.717647793353867, 50.742782461927121 ], [ 15.698062326264921, 50.742343109308806 ], [ 15.695700846239998, 50.743616301714624 ], [ 15.695006359189996, 50.755168508796721 ], [ 15.676829933796645, 50.76514691363213 ], [ 15.657235336873056, 50.764707577576999 ], [ 15.63764091087239, 50.764269891949063 ], [ 15.636178365681605, 50.765056738453445 ], [ 15.617207372068419, 50.775459246763361 ], [ 15.616112685615073, 50.776047709885269 ], [ 15.596763473830093, 50.786653588906425 ], [ 15.577160026631633, 50.786218012364635 ], [ 15.557556712052971, 50.785784500293232 ], [ 15.541794734081385, 50.785437704534786 ], [ 15.55220042384647, 50.797318285256722 ], [ 15.556391555198742, 50.801625180562532 ], [ 15.564112878396621, 50.809242302262128 ], [ 15.574777069323972, 50.818784988458965 ], [ 15.577602318038815, 50.821211342976987 ], [ 15.592799964362206, 50.833228682526574 ], [ 15.593344447902327, 50.833629825169147 ], [ 15.609847871463426, 50.845297769693097 ], [ 15.612048103850304, 50.846754170153247 ], [ 15.628844900536951, 50.857420635725532 ], [ 15.630852500170409, 50.858624540436992 ], [ 15.649738433115257, 50.869489129976913 ], [ 15.649940038614789, 50.869600592029776 ], [ 15.668694771477092, 50.879488038611292 ], [ 15.673356549239198, 50.881842851441561 ], [ 15.687707970527015, 50.888798191804838 ], [ 15.699237756774121, 50.894150052097196 ], [ 15.706769946567738, 50.897522903761427 ], [ 15.725875451385345, 50.905727300429611 ], [ 15.727808351862322, 50.906526835772361 ], [ 15.745021864954845, 50.913440255395727 ], [ 15.759454241925422, 50.918981924386493 ], [ 15.764201822455657, 50.920759572801579 ], [ 15.783414827376307, 50.927685758594734 ], [ 15.794527339248907, 50.93152245828626 ], [ 15.80265664928501, 50.934273692338635 ], [ 15.821926013413382, 50.940536188447332 ], [ 15.833573405626355, 50.944160129346329 ], [ 15.841220490517196, 50.946503353754444 ], [ 15.860539113889372, 50.952184299620995 ], [ 15.877391423309705, 50.956912297854501 ], [ 15.879879944442012, 50.957602840682156 ], [ 15.899242473758189, 50.962761877398329 ], [ 15.918625380553827, 50.967676638441603 ], [ 15.92745420830156, 50.969812331678838 ], [ 15.938027881610378, 50.972354536920207 ], [ 15.95744933645606, 50.97680097342618 ], [ 15.976889374579573, 50.981017317128973 ], [ 15.98611198130966, 50.982912849241416 ], [ 15.996347101905126, 50.985013064544574 ], [ 16.015822148610312, 50.988789773791382 ], [ 16.035314589361302, 50.992342060834474 ], [ 16.054824140512757, 50.995670045337413 ], [ 16.059058185331111, 50.996344389380972 ], [ 16.074349652213861, 50.998787600400199 ], [ 16.093891587556016, 51.001683159186484 ], [ 16.113450012050624, 51.004351236160701 ], [ 16.13302477688196, 51.006789660571386 ], [ 16.152615758202948, 51.008995783658648 ], [ 16.168871725800379, 51.010629722149069 ], [ 16.172222697044443, 51.010969092750408 ], [ 16.191845032535053, 51.012714044736974 ], [ 16.211483470940273, 51.01421409787806 ], [ 16.231137985833527, 51.015464526411932 ], [ 16.250808569159435, 51.016460147623583 ], [ 16.270495230297009, 51.017195321000678 ], [ 16.290197995217525, 51.017663945640692 ], [ 16.309916905726528, 51.01785945600178 ], [ 16.329652018777328, 51.017774816132381 ], [ 16.349403405840388, 51.017402512571849 ], [ 16.369171152309502, 51.016734546187898 ], [ 16.388955356921294, 51.015762423310733 ], [ 16.388999329499818, 51.015759608959293 ], [ 16.408754849225257, 51.01450013374545 ], [ 16.42857076161744, 51.012920473760609 ], [ 16.448403219360838, 51.011013716084257 ], [ 16.468252356375459, 51.008769651831976 ], [ 16.486907026885632, 51.00633781708116 ], [ 16.488118187649864, 51.006179931219343 ], [ 16.507998748365406, 51.003272850905212 ], [ 16.527896139965669, 51.000001145066399 ], [ 16.54781052558933, 50.996352728743908 ], [ 16.549125923427301, 50.996090503572312 ], [ 16.567739366425425, 50.992366760175479 ], [ 16.587685041374019, 50.987988881275569 ], [ 16.598003830432383, 50.985536499128067 ], [ 16.607646413211572, 50.983231243991327 ], [ 16.627623284381311, 50.978087973029048 ], [ 16.63946820014209, 50.974812502795608 ], [ 16.647616077218302, 50.972540710675396 ], [ 16.667624120733667, 50.966592260855428 ], [ 16.675915066980359, 50.963974106475838 ], [ 16.687647524918034, 50.96022978736049 ], [ 16.707686800656816, 50.953431834407354 ], [ 16.708751474800437, 50.953053612907354 ], [ 16.727740305600385, 50.946220298831172 ], [ 16.738682149600461, 50.942067706834294 ], [ 16.747809539590857, 50.938552855220777 ], [ 16.766413461905927, 50.931032129395213 ], [ 16.767894175500068, 50.930423746519438 ], [ 16.787993452765082, 50.921836122706999 ], [ 16.792228348694689, 50.919953790202605 ], [ 16.808108017816629, 50.912763300659883 ], [ 16.816453577223118, 50.908840066025448 ], [ 16.828238072342128, 50.903187115438755 ], [ 16.839303600712476, 50.897695910000671 ], [ 16.848383735564525, 50.893090472657029 ], [ 16.860938360438123, 50.886525055299352 ], [ 16.868545262471372, 50.882452618982093 ], [ 16.881488784249591, 50.875330549196711 ], [ 16.88872304816935, 50.871248862400655 ], [ 16.901062106038268, 50.86411488850748 ], [ 16.908917634747169, 50.859450218503262 ], [ 16.919746003961318, 50.852880123640695 ], [ 16.929129721093393, 50.847022967253771 ], [ 16.937611841307955, 50.841627939236531 ], [ 16.949360176234304, 50.833928100631731 ], [ 16.954717216783965, 50.830359717094673 ], [ 16.96961005690623, 50.820120636361978 ], [ 16.971107976349678, 50.819076585536259 ], [ 16.986859498925373, 50.807780143518734 ], [ 16.989880854697802, 50.80554353806388 ], [ 17.002002906157127, 50.796471180113073 ], [ 17.010174236461598, 50.790133171902461 ], [ 17.016543483547675, 50.785150019152709 ], [ 17.030491990739879, 50.773820211149413 ], [ 17.030495761394629, 50.773817128684101 ], [ 17.043993062735577, 50.762474953916737 ], [ 17.050837718333486, 50.756488621571506 ], [ 17.056948891505133, 50.751122209026356 ], [ 17.069397415044847, 50.739759637872268 ], [ 17.071213765990567, 50.738047646866555 ], [ 17.081442982862722, 50.728389118198024 ], [ 17.091625149589838, 50.718336645734041 ], [ 17.0929703693016, 50.717008887753899 ], [ 17.104143524821009, 50.705621765086903 ], [ 17.112077884305766, 50.697162591358612 ], [ 17.114838883113816, 50.694225851566344 ], [ 17.125182007874105, 50.68282329691305 ], [ 17.132579402312626, 50.674287567414737 ], [ 17.135081713664068, 50.67141273387206 ], [ 17.144659517370417, 50.659996208692945 ], [ 17.153140639022912, 50.649372774098197 ], [ 17.153784191748738, 50.648571719766878 ], [ 17.162649425441266, 50.637142426771888 ], [ 17.171071687379317, 50.625705506194386 ], [ 17.17377991752338, 50.621871919860638 ], [ 17.179199290353232, 50.614263370940719 ], [ 17.186970245136607, 50.602815116428232 ], [ 17.194336596721051, 50.591360069018329 ], [ 17.194521308140263, 50.591060766950143 ], [ 17.201477895854079, 50.579901077196645 ], [ 17.208230582652128, 50.568435664583092 ], [ 17.214603994098447, 50.556964040428966 ], [ 17.215417246411473, 50.555426139720197 ], [ 17.220734754945248, 50.545488353702133 ], [ 17.226510353251797, 50.534006927683855 ], [ 17.231919999596546, 50.522519649973546 ], [ 17.236573557466002, 50.511940233580127 ], [ 17.23698078718575, 50.511026829112161 ], [ 17.241787663966623, 50.499529943723125 ], [ 17.246230563698873, 50.488027365612524 ], [ 17.250312851921233, 50.476519185718246 ], [ 17.254036196192217, 50.465005465684108 ], [ 17.257400588802181, 50.453486238538368 ], [ 17.258376907897855, 50.449755797912566 ], [ 17.260446657207083, 50.441962141615605 ], [ 17.263137283866698, 50.430432644578303 ], [ 17.265447224398748, 50.418897394372109 ], [ 17.26737055222328, 50.407356324036563 ], [ 17.26889959088896, 50.395809337122479 ], [ 17.270024873630323, 50.384256306965462 ], [ 17.270735089197263, 50.372697075660497 ], [ 17.271017012852731, 50.361131452713977 ], [ 17.270855421249674, 50.349559213342602 ], [ 17.270232989681773, 50.337980096383411 ], [ 17.262475172137187, 50.337791918725685 ], [ 17.243048204732084, 50.337319225612077 ], [ 17.242613567329585, 50.337565862425002 ], [ 17.223190464495669, 50.348400158890001 ], [ 17.222434184384078, 50.348828975872543 ], [ 17.221993675673897, 50.360392133617104 ], [ 17.20288648065473, 50.371047491029195 ], [ 17.201819612393447, 50.37165177815055 ], [ 17.20138760978092, 50.383214973238573 ], [ 17.18256222263912, 50.393710371198942 ], [ 17.163113069261463, 50.393237129123918 ], [ 17.145954418419755, 50.382344369327029 ], [ 17.144115983244845, 50.381195501251753 ], [ 17.142190200430029, 50.382284291572411 ], [ 17.124215715817726, 50.392292925380204 ], [ 17.122025342543207, 50.393530333098781 ], [ 17.12158463443815, 50.405093149073224 ], [ 17.103843826112673, 50.414969426885179 ], [ 17.084386483166583, 50.414498841681365 ], [ 17.064929428121125, 50.414029640949714 ], [ 17.045472652939914, 50.41356196829453 ], [ 17.042289719073434, 50.415355394447914 ], [ 17.025534820495764, 50.424671447215047 ], [ 17.006073887964916, 50.42420612146833 ], [ 16.986613220387188, 50.423742528235465 ], [ 16.967152813501059, 50.42328070736351 ], [ 16.963088505933033, 50.425565354295266 ], [ 16.947192080027822, 50.434395399986307 ], [ 16.942944916332184, 50.436780948776764 ], [ 16.927221735872543, 50.445512993369903 ], [ 16.922802710314834, 50.447993111750343 ], [ 16.90724177472238, 50.456633324107607 ], [ 16.892830576837639, 50.447454043679969 ], [ 16.888283940618862, 50.444597003167374 ], [ 16.874064830856572, 50.435542406207823 ], [ 16.874598195241607, 50.423981946742067 ], [ 16.869854596330612, 50.420998232651343 ], [ 16.855820800835826, 50.412067029083694 ], [ 16.870631603250509, 50.403673695975598 ], [ 16.875646027633593, 50.400860619954521 ], [ 16.890605657898544, 50.392370881932898 ], [ 16.895451036301715, 50.389650497780302 ], [ 16.910570526802378, 50.381057817442908 ], [ 16.915235484349367, 50.378436665822242 ], [ 16.915730328473682, 50.366875288800564 ], [ 16.916218162362551, 50.355313765300117 ], [ 16.93153275461437, 50.346587378975919 ], [ 16.935961398776609, 50.344095715200858 ], [ 16.936431560934096, 50.33253378209325 ], [ 16.936894069049245, 50.320971692348067 ], [ 16.952465622290369, 50.312074962757514 ], [ 16.956593578242387, 50.309749406927352 ], [ 16.972383412590176, 50.300714695241048 ], [ 16.991803816363756, 50.300938496156675 ], [ 16.995494466600618, 50.29885659638483 ], [ 17.011708250689605, 50.28955804206165 ], [ 17.015135075062883, 50.287623451902071 ], [ 17.015551027647582, 50.276060280403634 ], [ 17.015957746796168, 50.264496930436792 ], [ 17.012833938768967, 50.262533210330794 ], [ 16.997152800385162, 50.25260394889348 ], [ 16.997543432276881, 50.241040322328942 ], [ 17.01412454049343, 50.231498300092404 ], [ 17.01711866031582, 50.229805744665818 ], [ 17.01426932171065, 50.228013366559907 ], [ 16.994887896505762, 50.227565837030831 ], [ 16.991696341788217, 50.229368997430065 ], [ 16.991106202288467, 50.24092918190491 ], [ 16.974531808572483, 50.250124834057353 ], [ 16.959119264373289, 50.240371623543382 ], [ 16.959506378741168, 50.228807993099956 ], [ 16.956125700522858, 50.226678017974528 ], [ 16.936744927107725, 50.226237634860773 ], [ 16.917364369040726, 50.225799526634098 ], [ 16.897984025965663, 50.225363629314174 ], [ 16.882954328839791, 50.215867422369151 ], [ 16.883332260840614, 50.204303736178652 ], [ 16.879622537971731, 50.201960485883568 ], [ 16.860251822722319, 50.201531056617561 ], [ 16.856212265163052, 50.203806278719838 ], [ 16.840363117131833, 50.212582862314761 ], [ 16.825553987073089, 50.203236283506918 ], [ 16.825928720390088, 50.19167262495646 ], [ 16.822033149410668, 50.189207551272347 ], [ 16.802667635488021, 50.188785641840838 ], [ 16.787740330582761, 50.179380617468226 ], [ 16.788094296574251, 50.167816593189166 ], [ 16.788434198784124, 50.156252281190497 ], [ 16.784891995179205, 50.154006969429908 ], [ 16.769477704941409, 50.144318779984019 ], [ 16.766073507279916, 50.142159335851638 ], [ 16.74672676685195, 50.141750179428193 ], [ 16.731202568231414, 50.132006105817496 ], [ 16.731499966439806, 50.120440990424946 ], [ 16.72846180571155, 50.118510863792331 ], [ 16.712474505370835, 50.108496596334213 ], [ 16.70966841705668, 50.106712574404035 ], [ 16.69033563559536, 50.106317529915145 ], [ 16.671002990609317, 50.105925274347989 ], [ 16.668000271286751, 50.107611437825646 ], [ 16.651113091486327, 50.116925903524326 ] ] ] ] } }
]
}
