{
"type": "FeatureCollection",
"name": "ryzyko_cykl3_nasil3",
"crs": { "type": "name", "properties": { "name": "urn:ogc:def:crs:OGC:1.3:CRS84" } },
"features": [
{ "type": "Feature", "properties": { "cykl": 3, "gatunek": "Wszystkie", "prog_nasilenia": 3, "percentyl": 95, "prog_ryzyka": 1.437433804400196, "liczba_traktow": 10362 }, "geometry": { "type": "MultiPolygon", "coordinates": [ [ [ [ 23.030511889693383, 52.737124430459502 ], [ 23.010379672867874, 52.741193352165624 ], [ 22.990271706049558, 52.745566781600481 ], [ 22.981485376282993, 52.747643104983467 ], [ 22.970204945518287, 52.750435469770288 ], [ 22.950172482563463, 52.755730496467827 ], [ 22.931513626477951, 52.760883918380145 ], [ 22.930157868479391, 52.761275747951487 ], [ 22.910195831646448, 52.767462022135327 ], [ 22.890242160606157, 52.773803649251818 ], [ 22.890195933116267, 52.773819308221206 ], [ 22.870343324279627, 52.780825987509658 ], [ 22.854448100874855, 52.786558844704338 ], [ 22.850456923762344, 52.788059601057391 ], [ 22.830612787411528, 52.795846701612071 ], [ 22.822398971550331, 52.799168027562757 ], [ 22.810797943960427, 52.804047388072824 ], [ 22.793018977720923, 52.811682868459194 ], [ 22.791004992872072, 52.812582909882572 ], [ 22.771256945196267, 52.821723729812618 ], [ 22.766235890879088, 52.82410768772472 ], [ 22.751542534866736, 52.831348313835136 ], [ 22.741366012353613, 52.836465861681418 ], [ 22.731858795729334, 52.841429371966576 ], [ 22.718082296832403, 52.848768877626966 ], [ 22.712209515876925, 52.852018114058559 ], [ 22.696262807676977, 52.861021493191799 ], [ 22.692598811570122, 52.863170597842419 ], [ 22.675796727126606, 52.873227971477107 ], [ 22.673031182140157, 52.874948485030536 ], [ 22.656582922092692, 52.885392149107112 ], [ 22.653511582610296, 52.887420026621044 ], [ 22.638528740858177, 52.89751749297556 ], [ 22.634045517707332, 52.90066132799921 ], [ 22.621549012567904, 52.909607147391412 ], [ 22.614639161440049, 52.914757951983056 ], [ 22.605565226561946, 52.921663972998189 ], [ 22.595299507094122, 52.929806927650688 ], [ 22.590504871891692, 52.933690578606111 ], [ 22.576327144789801, 52.945688556756345 ], [ 22.576037292851098, 52.945952423165842 ], [ 22.563479647585744, 52.957644799746163 ], [ 22.556922624751312, 52.964063675474776 ], [ 22.551418437847197, 52.969576026892007 ], [ 22.540304452593052, 52.981477689133413 ], [ 22.537962078596845, 52.98424937575875 ], [ 22.530469018296191, 52.993340214461163 ], [ 22.521493993779234, 53.005176333165124 ], [ 22.51931654734787, 53.008514560412706 ], [ 22.513953768693071, 53.01696926037193 ], [ 22.50763803574733, 53.028725494699295 ], [ 22.502560142405969, 53.040444851472884 ], [ 22.501561684314233, 53.044010703335445 ], [ 22.499380567132512, 53.052108055152715 ], [ 22.498145997379286, 53.063713904247884 ], [ 22.499189149624883, 53.075252685445612 ], [ 22.503135514968502, 53.086705931449998 ], [ 22.505307546924268, 53.090115827600407 ], [ 22.511721039599141, 53.098022119034987 ], [ 22.526894722465538, 53.109142492403443 ], [ 22.527564949600524, 53.109489944472024 ], [ 22.548878978428274, 53.117176665125079 ], [ 22.560977954632072, 53.119696246947683 ], [ 22.5698888981313, 53.121103467338045 ], [ 22.590699293200409, 53.122591480143981 ], [ 22.611382707763472, 53.122547759819376 ], [ 22.631967058203351, 53.121329288034872 ], [ 22.652472396986276, 53.119192082774305 ], [ 22.672913491793828, 53.116324395888668 ], [ 22.673140812449923, 53.116284247415116 ], [ 22.693283289988731, 53.112655953932183 ], [ 22.713608033955232, 53.108503849002439 ], [ 22.733895195730973, 53.10396192412577 ], [ 22.739192160812909, 53.102654967666659 ], [ 22.754132236064315, 53.098892465481484 ], [ 22.774336411337121, 53.093500589091484 ], [ 22.788557595312202, 53.089521384963881 ], [ 22.79451020395155, 53.087819423901863 ], [ 22.814645682604699, 53.081763774258178 ], [ 22.831509344049522, 53.076573794716339 ], [ 22.834761583311966, 53.075549841748206 ], [ 22.854839720056081, 53.068976601920021 ], [ 22.870658154121212, 53.063734223931689 ], [ 22.874902044478354, 53.062293621059524 ], [ 22.894931709681448, 53.055315939493141 ], [ 22.90731276532555, 53.050963447164058 ], [ 22.914943624990851, 53.04821210757008 ], [ 22.934931553152364, 53.040915517177304 ], [ 22.942182801337726, 53.038240257120023 ], [ 22.954894960353339, 53.033423072936579 ], [ 22.974846018587442, 53.025869724500083 ], [ 22.975670662165989, 53.025552778582501 ], [ 22.994761417268478, 53.018004306455985 ], [ 23.007712925420417, 53.012904339071603 ], [ 23.014664388815493, 53.010081117783834 ], [ 23.034545131436243, 53.00199594313915 ], [ 23.038741840236099, 53.000281424188557 ], [ 23.054396240078631, 52.993672038818652 ], [ 23.068647953068233, 52.987688592653505 ], [ 23.074231453871811, 52.985258414579903 ], [ 23.094040081300516, 52.976643305570143 ], [ 23.097527523070575, 52.975123384395509 ], [ 23.113814193313903, 52.967746006479402 ], [ 23.125258513466605, 52.962590804453292 ], [ 23.13356491119448, 52.958686661766436 ], [ 23.151955986045497, 52.950087647113612 ], [ 23.153289066664918, 52.949434344391157 ], [ 23.172965586139352, 52.939772876334303 ], [ 23.177351021266936, 52.937624093407813 ], [ 23.192599799063188, 52.929762593881925 ], [ 23.201479034567935, 52.925199743444516 ], [ 23.212188497971418, 52.919374939162999 ], [ 23.224271603423031, 52.912817825247515 ], [ 23.231721364440894, 52.908508968737223 ], [ 23.245612396028921, 52.900483292762459 ], [ 23.25118397353538, 52.897023506177177 ], [ 23.265387883711441, 52.888201034786128 ], [ 23.27055560571052, 52.884715703918665 ], [ 23.283491428949784, 52.87597571015997 ], [ 23.289805487466939, 52.871284182272305 ], [ 23.299827509435236, 52.863811574005233 ], [ 23.308885967770557, 52.856262064227963 ], [ 23.314315892736005, 52.851712303078969 ], [ 23.326855192668997, 52.839682303240274 ], [ 23.327700876624856, 52.838702145050412 ], [ 23.337084297566175, 52.827735439320769 ], [ 23.345199578464257, 52.815865139588261 ], [ 23.345836473374295, 52.814492545670468 ], [ 23.35060034554126, 52.804093930335007 ], [ 23.353255137314321, 52.792423375314129 ], [ 23.352748745686444, 52.780868955828765 ], [ 23.34851632975154, 52.769451414139823 ], [ 23.340273302850679, 52.758727777380194 ], [ 23.339816358283475, 52.758197576177764 ], [ 23.324690806928785, 52.747178046045569 ], [ 23.318291691722866, 52.743962209521008 ], [ 23.300558453090225, 52.736484223507354 ], [ 23.296931296139448, 52.735347537867874 ], [ 23.275893106305141, 52.729931722835325 ], [ 23.25803253034173, 52.726448697426207 ], [ 23.255004253847684, 52.725991723941704 ], [ 23.234276404081712, 52.723670355239207 ], [ 23.213635515319396, 52.722225176823194 ], [ 23.193071863084899, 52.721568110324313 ], [ 23.172576817114411, 52.721620646324453 ], [ 23.152142723884307, 52.72231288722778 ], [ 23.131762801463122, 52.723582681652097 ], [ 23.111431045449663, 52.725374842673517 ], [ 23.091142144870979, 52.727640442654888 ], [ 23.070891407018703, 52.730336177831262 ], [ 23.050674690299683, 52.733423796289394 ], [ 23.048548228992388, 52.733797580157031 ], [ 23.030511889693383, 52.737124430459502 ] ] ], [ [ [ 18.140747739845711, 54.351081972962312 ], [ 18.119403045820043, 54.353721123576747 ], [ 18.09804790516052, 54.356710399864284 ], [ 18.07668208620024, 54.360035643456165 ], [ 18.075013588951464, 54.360322292845048 ], [ 18.055304051321194, 54.363740851076095 ], [ 18.033914625675607, 54.367765394821618 ], [ 18.015884132881322, 54.371416209197406 ], [ 18.012513367077545, 54.372106706542276 ], [ 17.991098624446614, 54.376811698821619 ], [ 17.969671652230684, 54.381807301199999 ], [ 17.966601366054377, 54.382565948229619 ], [ 17.948230045375379, 54.387169509716401 ], [ 17.926775092649091, 54.392826617059129 ], [ 17.923440694399744, 54.393750396517163 ], [ 17.905304245663125, 54.398856651989163 ], [ 17.884571682835045, 54.404959212675642 ], [ 17.883818940960499, 54.405184787544158 ], [ 17.862315813727719, 54.411915281568824 ], [ 17.849194193836439, 54.416188909971204 ], [ 17.840796148664019, 54.418979732738812 ], [ 17.819258358649964, 54.426414623629796 ], [ 17.81641044826786, 54.427433755029874 ], [ 17.797700047755797, 54.434281344350403 ], [ 17.786048896133, 54.438694130110697 ], [ 17.776121486010631, 54.44254741603735 ], [ 17.757625070336783, 54.449966874933992 ], [ 17.754521026536334, 54.45124572311849 ], [ 17.732895997107605, 54.460439978291411 ], [ 17.731041407511864, 54.461252327756405 ], [ 17.711243909320622, 54.470183591625208 ], [ 17.706147400122074, 54.472550086904356 ], [ 17.689563066386675, 54.480501497303017 ], [ 17.682751895258132, 54.483859108710575 ], [ 17.667850202510291, 54.491465093168308 ], [ 17.660765430270075, 54.495179267863087 ], [ 17.646101319901277, 54.50316307439374 ], [ 17.640109493313446, 54.506510445770374 ], [ 17.624311469820949, 54.515706486553896 ], [ 17.620715141283355, 54.517852533677988 ], [ 17.602522782089057, 54.529205445734121 ], [ 17.6024744023983, 54.529237104185135 ], [ 17.585568652427657, 54.540570143856975 ], [ 17.580576560989513, 54.544097872498881 ], [ 17.569726368322108, 54.551945649843638 ], [ 17.558609480987972, 54.560465347144245 ], [ 17.554951892300124, 54.563331870245214 ], [ 17.541288118887042, 54.574729709074951 ], [ 17.536548217116625, 54.578964282088243 ], [ 17.528689620993266, 54.586138985646912 ], [ 17.517104008009746, 54.597559386173252 ], [ 17.514356025993234, 54.600503624054909 ], [ 17.506597704945978, 54.608992016486773 ], [ 17.497088219040027, 54.62043612860947 ], [ 17.491944758925317, 54.627323451407364 ], [ 17.488600774492024, 54.631892267568382 ], [ 17.481171394575561, 54.643361095113065 ], [ 17.47473268176363, 54.6548419519874 ], [ 17.469304681375164, 54.666335244461116 ], [ 17.469016803480184, 54.667088203023859 ], [ 17.464981764856493, 54.677842298903627 ], [ 17.461708796711992, 54.689362527858272 ], [ 17.459508029288877, 54.700896293680429 ], [ 17.45840988331156, 54.71244403592636 ], [ 17.458448299283315, 54.724006210182971 ], [ 17.459660906630106, 54.735583287222283 ], [ 17.462089215012522, 54.747175751816194 ], [ 17.465994014916514, 54.747245995548987 ], [ 17.486847882940644, 54.759048806539354 ], [ 17.487047021730195, 54.759160601966492 ], [ 17.508536873485582, 54.759532313785797 ], [ 17.530027364327299, 54.75989532863224 ], [ 17.551518479242926, 54.760249708344894 ], [ 17.573010203443015, 54.760595512120851 ], [ 17.593081818813413, 54.771889072382926 ], [ 17.594102911862716, 54.772460385326944 ], [ 17.615601927725628, 54.772788965373977 ], [ 17.637101512664092, 54.773109047220196 ], [ 17.658601652584043, 54.773420679032419 ], [ 17.678230260211961, 54.784407979811057 ], [ 17.679727161025063, 54.785243216756363 ], [ 17.701234496334894, 54.785537542261274 ], [ 17.722742348003774, 54.78582345599466 ], [ 17.74216505194164, 54.796648761613909 ], [ 17.74389388293795, 54.79761135942347 ], [ 17.765408861140081, 54.797879767195496 ], [ 17.786924318437332, 54.798139752618248 ], [ 17.808440242091809, 54.798391327173448 ], [ 17.827701575764817, 54.809066208042694 ], [ 17.829624323987218, 54.81013383780158 ], [ 17.851147284623849, 54.810367471152908 ], [ 17.87267067634609, 54.81059259194663 ], [ 17.891956238155089, 54.821230681078077 ], [ 17.893880614402772, 54.822296938600495 ], [ 17.915410980108742, 54.82250350672863 ], [ 17.936941742960794, 54.822701366810186 ], [ 17.958472891418367, 54.822890466975117 ], [ 17.980004414098776, 54.823070744689126 ], [ 18.001536299761689, 54.823242126233545 ], [ 18.02306853729279, 54.823404526150284 ], [ 18.044601115686543, 54.823557846649372 ], [ 18.066134024028013, 54.82370197697621 ], [ 18.087667251473604, 54.823836792736039 ], [ 18.109200787230662, 54.823962155172516 ], [ 18.130734620535812, 54.824077910398316 ], [ 18.152268740631889, 54.824183888574311 ], [ 18.173803136743388, 54.824279903035446 ], [ 18.195337798050144, 54.82436574936068 ], [ 18.216872713659281, 54.824441204384563 ], [ 18.238407872575038, 54.824506025149041 ], [ 18.259943263666425, 54.82455994779378 ], [ 18.281478875632427, 54.824602686384125 ], [ 18.303014696964542, 54.824633931676495 ], [ 18.324550715906412, 54.824653349821943 ], [ 18.346086920410286, 54.824660581009447 ], [ 18.346338980952801, 54.824527787747847 ], [ 18.367801724682824, 54.813232640846458 ], [ 18.368086271274365, 54.813082596511968 ], [ 18.389504427236481, 54.801790782518417 ], [ 18.389802686675399, 54.801633364246904 ], [ 18.411195017211792, 54.790335173822598 ], [ 18.411488554018788, 54.790180107343701 ], [ 18.411868606892298, 54.778621577772952 ], [ 18.412229712254025, 54.767062933806706 ], [ 18.411538419987647, 54.766685028904128 ], [ 18.391276856537804, 54.755399175862316 ], [ 18.391601643896792, 54.743840353001062 ], [ 18.391910694320725, 54.732281428892975 ], [ 18.412192813068014, 54.721521067546171 ], [ 18.413503755991666, 54.720827308736084 ], [ 18.433834532470694, 54.710023129636902 ], [ 18.435069055696015, 54.709369221227107 ], [ 18.455464125156332, 54.698512862955575 ], [ 18.456606570744075, 54.697907179362076 ], [ 18.456859450355648, 54.686347795128938 ], [ 18.457098927681358, 54.674788328649939 ], [ 18.457325565360073, 54.663228782494961 ], [ 18.457539880643683, 54.651669159023768 ], [ 18.457742348882281, 54.640109460402471 ], [ 18.47782099847019, 54.629369564874018 ], [ 18.499253972238733, 54.629357418575836 ], [ 18.500429305515599, 54.62873244236166 ], [ 18.500607252553209, 54.617172553362735 ], [ 18.500774104698472, 54.605612596516409 ], [ 18.521093803147828, 54.594702796420258 ], [ 18.522153991883638, 54.594138211072192 ], [ 18.522298359230639, 54.582578104193239 ], [ 18.542767530047023, 54.571564573992859 ], [ 18.543639325514498, 54.571099761810657 ], [ 18.54376189980999, 54.559539514862287 ], [ 18.543874613717993, 54.547979208656777 ], [ 18.54397774144207, 54.536418844236231 ], [ 18.544071536664543, 54.524858422562758 ], [ 18.544156234487094, 54.513297944526073 ], [ 18.544232053275682, 54.501737410950518 ], [ 18.565032701419071, 54.490493127986127 ], [ 18.565478538358938, 54.490254795651659 ], [ 18.565037795162478, 54.490013275341568 ], [ 18.544357854014869, 54.478616180194685 ], [ 18.544408204474419, 54.467055484396496 ], [ 18.544450416079503, 54.45549473583587 ], [ 18.565524681967769, 54.444081038875972 ], [ 18.565653899426234, 54.444011882967295 ], [ 18.569299855936126, 54.432463994234276 ], [ 18.565682222923556, 54.429191066606727 ], [ 18.555574936101252, 54.420853319105539 ], [ 18.544537843394433, 54.412618849741484 ], [ 18.539517992104724, 54.409232180201954 ], [ 18.523373343556944, 54.399248010264344 ], [ 18.520392058520116, 54.397596718470062 ], [ 18.502193786111413, 54.388254610207248 ], [ 18.497104446938199, 54.385940923735568 ], [ 18.481002399975669, 54.379093182494422 ], [ 18.467979596882586, 54.374255007355799 ], [ 18.459801272842085, 54.371390042684489 ], [ 18.438590874119171, 54.364946182226468 ], [ 18.429236593170145, 54.362516913907839 ], [ 18.417371779820822, 54.359583820577399 ], [ 18.396144286386882, 54.355169056538053 ], [ 18.374909020102201, 54.351564318692496 ], [ 18.368212883315344, 54.350651741499796 ], [ 18.353665127576978, 54.348744303295057 ], [ 18.332412948695826, 54.346613238594323 ], [ 18.311152551461547, 54.345103354409417 ], [ 18.289883720117611, 54.344171398541263 ], [ 18.268606244665683, 54.343778774359798 ], [ 18.247319918853272, 54.343890996786264 ], [ 18.226024538274022, 54.344477231434404 ], [ 18.204719898556565, 54.34550990262197 ], [ 18.183405793623002, 54.346964358695182 ], [ 18.162082014001335, 54.348818585273186 ], [ 18.156944537978475, 54.349360933955708 ], [ 18.140747739845711, 54.351081972962312 ] ] ], [ [ [ 18.454385824258861, 54.778829090240514 ], [ 18.454402444274201, 54.778820297050565 ], [ 18.454386062951698, 54.778811355460185 ], [ 18.4543694429365, 54.778820148647902 ], [ 18.454385824258861, 54.778829090240514 ] ] ], [ [ [ 16.65114656743264, 50.116242035497841 ], [ 16.631808085834585, 50.115891578637431 ], [ 16.627407065163585, 50.118359725741037 ], [ 16.626597702032885, 50.129914260881982 ], [ 16.611332675303306, 50.13838135496929 ], [ 16.591985582192837, 50.138028379937502 ], [ 16.587260152115842, 50.140674302525809 ], [ 16.586462414458012, 50.15222882487776 ], [ 16.571480419491646, 50.160540034642416 ], [ 16.566401125361153, 50.163381092883583 ], [ 16.565622226392456, 50.17493586368348 ], [ 16.564856547595198, 50.186490889967011 ], [ 16.564103301970356, 50.198046155433801 ], [ 16.563361763292363, 50.209601645038759 ], [ 16.562631261270813, 50.221157344892724 ], [ 16.548604384991453, 50.228946992482776 ], [ 16.542586291263344, 50.232305948185143 ], [ 16.528628131207402, 50.240056670445171 ], [ 16.522541617683583, 50.243451138158427 ], [ 16.508642328474412, 50.251168238999881 ], [ 16.502496820553844, 50.254592906792659 ], [ 16.501779677512108, 50.266148537972725 ], [ 16.488042031117473, 50.27377564797677 ], [ 16.481734679749092, 50.277286775950756 ], [ 16.468031912018159, 50.284893170630333 ], [ 16.461688524089372, 50.288421571980741 ], [ 16.460980066758236, 50.299977155836423 ], [ 16.447396186422147, 50.307516594199342 ], [ 16.440931963059299, 50.311108386762392 ], [ 16.440230764066698, 50.322664004000679 ], [ 16.426739810585108, 50.33015050171425 ], [ 16.40731774907265, 50.329761081072164 ], [ 16.387895908787264, 50.329372417694422 ], [ 16.38148662644064, 50.332926213731454 ], [ 16.380774901057432, 50.344481302336327 ], [ 16.367201071665487, 50.352007549566203 ], [ 16.360717574394243, 50.355598664666275 ], [ 16.366787777385888, 50.359474519954937 ], [ 16.379372813887866, 50.367591900584735 ], [ 16.365925211073868, 50.375048293022388 ], [ 16.359312461042958, 50.378708988289524 ], [ 16.345842063453265, 50.386175699476638 ], [ 16.326398057980121, 50.385777014835831 ], [ 16.306954285072411, 50.385378971544974 ], [ 16.29401983178677, 50.377207327027669 ], [ 16.288167929353893, 50.37346488817505 ], [ 16.281905163850556, 50.376924660992593 ], [ 16.268067403882917, 50.384585300275091 ], [ 16.261836233964893, 50.388024887243887 ], [ 16.261107624180969, 50.399578974612801 ], [ 16.247289617156358, 50.407225839225163 ], [ 16.24103340539099, 50.410675554377995 ], [ 16.227164668207145, 50.418347688290872 ], [ 16.220955695948987, 50.42176863459418 ], [ 16.207030118403853, 50.429469303548935 ], [ 16.200874399769333, 50.432858212048608 ], [ 16.200146157792929, 50.444411974018763 ], [ 16.20593179559425, 50.448115520446891 ], [ 16.212136975623242, 50.444700072268944 ], [ 16.226070817299295, 50.437060431089733 ], [ 16.238881288030907, 50.445338182945775 ], [ 16.225141790191515, 50.452937899374099 ], [ 16.21879696328633, 50.456430796545831 ], [ 16.224715613287145, 50.460216656563674 ], [ 16.244182788167453, 50.460732560459071 ], [ 16.256871763905732, 50.468906287091315 ], [ 16.262982518360136, 50.472810020089298 ], [ 16.282456054769046, 50.473310455722817 ], [ 16.295009411001232, 50.481370589468334 ], [ 16.301271568087788, 50.485365914578239 ], [ 16.313772742230817, 50.493376431989965 ], [ 16.313120723098425, 50.50493236885432 ], [ 16.319442825762092, 50.50896204414255 ], [ 16.326204473870099, 50.50523380898526 ], [ 16.339582578348008, 50.49788645708697 ], [ 16.359068615848702, 50.498358100142269 ], [ 16.37145968495593, 50.506265088297155 ], [ 16.377915395260935, 50.510373335645596 ], [ 16.390297877714797, 50.518260012336178 ], [ 16.396772225003541, 50.522377024252428 ], [ 16.40915963370626, 50.530252319479345 ], [ 16.395934577896085, 50.537586845968818 ], [ 16.389073826537167, 50.541374173504508 ], [ 16.395500738506165, 50.54545924286483 ], [ 16.407958194682738, 50.553367080696503 ], [ 16.407364315356961, 50.56492458462769 ], [ 16.413745160521177, 50.56897643623256 ], [ 16.433262711459022, 50.569417478291754 ], [ 16.445795133817683, 50.577344924691971 ], [ 16.445223350748773, 50.588903004442102 ], [ 16.431797223302723, 50.59635206500419 ], [ 16.425130677212721, 50.600030964261443 ], [ 16.411631521124072, 50.607517870149259 ], [ 16.4050346237103, 50.611155428757179 ], [ 16.391456094964582, 50.618683659768536 ], [ 16.384935272718696, 50.622276398963031 ], [ 16.384362814228677, 50.633834204512745 ], [ 16.370623457100368, 50.641448594802704 ], [ 16.364258718694426, 50.644951567747881 ], [ 16.350423189109449, 50.652616521986033 ], [ 16.344151645965965, 50.656065442391366 ], [ 16.330213143648219, 50.663784689667942 ], [ 16.310656881891983, 50.663347826629938 ], [ 16.291100963393834, 50.662910243679605 ], [ 16.284977087555163, 50.666271738978679 ], [ 16.270872298756434, 50.674075045166227 ], [ 16.251312313089887, 50.673634895140232 ], [ 16.231752672226751, 50.673194039287324 ], [ 16.21845108076365, 50.66470187916574 ], [ 16.219204275936264, 50.653148942530137 ], [ 16.219951172348228, 50.641595835894947 ], [ 16.214253426003776, 50.63796418738 ], [ 16.194708687570753, 50.637525812955346 ], [ 16.188650647038735, 50.64084432388082 ], [ 16.174468796033516, 50.648676890683824 ], [ 16.154919997474096, 50.648236060845548 ], [ 16.149040867835428, 50.651452304264097 ], [ 16.134665917419284, 50.65938545266291 ], [ 16.115113058833728, 50.658942186457139 ], [ 16.095560532700421, 50.658498437178807 ], [ 16.081920950909129, 50.64978961090118 ], [ 16.076728107771064, 50.64646799846382 ], [ 16.063059765843541, 50.63774414744168 ], [ 16.063820596969318, 50.626192066239405 ], [ 16.058627757100869, 50.622867241968436 ], [ 16.044947075415489, 50.614143201298738 ], [ 16.0398173036283, 50.610856285569476 ], [ 16.026064985676349, 50.602090955251569 ], [ 16.021015756071698, 50.598853213085718 ], [ 16.015574356697371, 50.601822445903686 ], [ 16.000752611609773, 50.609980849226488 ], [ 15.995442777869721, 50.612875967543211 ], [ 16.000367279451414, 50.616035023678393 ], [ 16.014160141303226, 50.624928975233175 ], [ 16.013462513567909, 50.636482455762838 ], [ 16.01277120687616, 50.648036080343914 ], [ 16.012086240396833, 50.659589849552297 ], [ 16.011407647410753, 50.671143764325087 ], [ 15.996323387151858, 50.679445276600404 ], [ 15.991268886907687, 50.682196540821813 ], [ 15.976017843434576, 50.690586296803637 ], [ 15.956453451999215, 50.690135282134271 ], [ 15.93688938040995, 50.689684049511619 ], [ 15.917325623647523, 50.689232672699518 ], [ 15.902692400997763, 50.679874414852002 ], [ 15.898526518331417, 50.677198444825834 ], [ 15.878968056050118, 50.676749061951888 ], [ 15.874591919660586, 50.679123618587482 ], [ 15.87387406563966, 50.690675943561146 ], [ 15.857861653714068, 50.699461926949354 ], [ 15.853723495007213, 50.70170491238347 ], [ 15.853013027908171, 50.713257325233322 ], [ 15.836733461149608, 50.722186065119693 ], [ 15.832861019872498, 50.724282740969592 ], [ 15.832158657033723, 50.73583526453826 ], [ 15.83146434826633, 50.747387990020492 ], [ 15.814795153729841, 50.756526915964812 ], [ 15.795204992000164, 50.75606437229721 ], [ 15.779459459876072, 50.745961973045802 ], [ 15.776412777004502, 50.744001057240183 ], [ 15.756827938082067, 50.743540590957011 ], [ 15.737243385941532, 50.743080447144628 ], [ 15.71765911064654, 50.742620755456201 ], [ 15.698075101284156, 50.742161656342113 ], [ 15.695393246690667, 50.743607576041576 ], [ 15.694653085890566, 50.755158486152162 ], [ 15.676848193963799, 50.764889421272002 ], [ 15.657255338113805, 50.764427186223614 ], [ 15.637662729909643, 50.763965799078015 ], [ 15.63566262878031, 50.76504184626576 ], [ 15.617233276612723, 50.775100542766246 ], [ 15.615504185153341, 50.776030035214248 ], [ 15.596793682252624, 50.786237972835515 ], [ 15.577192407774531, 50.785775053733545 ], [ 15.557591339393742, 50.78531351098237 ], [ 15.537990458423019, 50.784853567690604 ], [ 15.518389744493415, 50.78439546456201 ], [ 15.517779734098026, 50.784722431542932 ], [ 15.497922061482702, 50.795531969835096 ], [ 15.478316991858639, 50.795075274503468 ], [ 15.478257969550469, 50.795106868415324 ], [ 15.477744948615442, 50.802676233725258 ], [ 15.480045312145387, 50.80673324041836 ], [ 15.488099538718229, 50.818548587857123 ], [ 15.495512054237651, 50.82771123493108 ], [ 15.497816495997681, 50.83041329757522 ], [ 15.50944223188595, 50.842334308337513 ], [ 15.513780650505257, 50.846272478882057 ], [ 15.523120766060682, 50.854315328416611 ], [ 15.532316404073002, 50.861426527420065 ], [ 15.539044252150026, 50.866361322077381 ], [ 15.551026320420679, 50.874382651804964 ], [ 15.557479091749856, 50.878479215853268 ], [ 15.569863326089832, 50.885748343008942 ], [ 15.578718081484118, 50.890676387494445 ], [ 15.588796801982875, 50.895917920581013 ], [ 15.603081458907633, 50.902960608088854 ], [ 15.607806083143293, 50.905156766712302 ], [ 15.626880407080668, 50.913598849073388 ], [ 15.631015662393867, 50.915342787692992 ], [ 15.646010206730418, 50.921364266086975 ], [ 15.663015670404421, 50.927834489244532 ], [ 15.665182419120143, 50.928624469185472 ], [ 15.684398824419738, 50.935346120714478 ], [ 15.699784889630413, 50.940452229931068 ], [ 15.70364744124905, 50.941689481068607 ], [ 15.72293046174592, 50.947617030258932 ], [ 15.742113153909731, 50.953213512629723 ], [ 15.742238963715989, 50.953249160863933 ], [ 15.761576754761656, 50.958526073903542 ], [ 15.780936225381812, 50.963551588464647 ], [ 15.791407035274423, 50.966150919229555 ], [ 15.800317903960067, 50.968313616086668 ], [ 15.819720561761942, 50.972825466454495 ], [ 15.839141153676296, 50.977127480033602 ], [ 15.849408723987951, 50.979302600203944 ], [ 15.858579878826291, 50.981212931554467 ], [ 15.878035801522859, 50.985091822778344 ], [ 15.897507052384935, 50.988788382656061 ], [ 15.91699305263479, 50.992307970200315 ], [ 15.919527296045137, 50.992745507357341 ], [ 15.936494098903335, 50.995642787298465 ], [ 15.956008783144265, 50.998810860170835 ], [ 15.975536558975266, 51.001817424894234 ], [ 15.995077054304781, 51.004665149635294 ], [ 16.009531392728636, 51.006656944233477 ], [ 16.014629985347014, 51.007355390710089 ], [ 16.034195055639472, 51.009889732275909 ], [ 16.053771801687276, 51.012272428155967 ], [ 16.073359987031477, 51.014504235284015 ], [ 16.092959397443362, 51.016585570212229 ], [ 16.112569838792275, 51.01851653215796 ], [ 16.132191135051599, 51.020296924696453 ], [ 16.149415508725426, 51.021726831954005 ], [ 16.15182309998761, 51.021926707460345 ], [ 16.17146542739864, 51.023407803896568 ], [ 16.191118162966017, 51.024736368076866 ], [ 16.210781197148609, 51.025911025963204 ], [ 16.230454429694596, 51.026930204110108 ], [ 16.250137768188953, 51.027792147086487 ], [ 16.269831126635239, 51.028494935043845 ], [ 16.289534424060395, 51.029036501633172 ], [ 16.309247583131601, 51.029414652483304 ], [ 16.328970528774065, 51.029627084467769 ], [ 16.348703186778483, 51.029671406000766 ], [ 16.368445482387063, 51.029545158619108 ], [ 16.388197338846762, 51.02924584012279 ], [ 16.407958675918742, 51.02877092956124 ], [ 16.426443485012257, 51.028160795989855 ], [ 16.427729377001061, 51.028118480073033 ], [ 16.447508838745513, 51.027295336316705 ], [ 16.467297391745539, 51.026291426181054 ], [ 16.487094922733469, 51.025104558514585 ], [ 16.506901307784954, 51.023732666223054 ], [ 16.526716410502406, 51.022173845425947 ], [ 16.546540080106322, 51.020426398298284 ], [ 16.557118397589051, 51.019397476035742 ], [ 16.566371660784153, 51.01849820900393 ], [ 16.586210793045836, 51.016391715371803 ], [ 16.606057820442579, 51.014095786416178 ], [ 16.625912520794063, 51.011609986081332 ], [ 16.641193461117972, 51.00955623424619 ], [ 16.645774357513513, 51.008940067440015 ], [ 16.665642297465745, 51.006101866869997 ], [ 16.685517006481984, 51.003077642792412 ], [ 16.705398170612998, 50.999868881766496 ], [ 16.708594838419231, 50.99932867005699 ], [ 16.725284287712121, 50.996501411354537 ], [ 16.74517585814209, 50.992960678373251 ], [ 16.765072711353298, 50.989245565876651 ], [ 16.766917173150993, 50.98888908816113 ], [ 16.784973205988926, 50.985385806339472 ], [ 16.804877952546949, 50.98136449634783 ], [ 16.819457665446848, 50.978312680874907 ], [ 16.824786281007214, 50.977191498462432 ], [ 16.844697117119793, 50.972885775533612 ], [ 16.864610836673645, 50.968435399771231 ], [ 16.868090844427012, 50.967641472975131 ], [ 16.884526038362061, 50.963867099346807 ], [ 16.904442856242472, 50.959174519078687 ], [ 16.913916432459626, 50.956899985160305 ], [ 16.92436046431563, 50.954372599880173 ], [ 16.944278342644999, 50.949469938500151 ], [ 16.95772841772347, 50.946105402993638 ], [ 16.964196096183965, 50.944472617867639 ], [ 16.984112955928076, 50.939395612793049 ], [ 17.000094100455147, 50.9352697036961 ], [ 17.004028635429243, 50.93424324016086 ], [ 17.023942389813776, 50.929030811630774 ], [ 17.041471403117448, 50.92440213805304 ], [ 17.043853838021473, 50.923765603827711 ], [ 17.063762429637141, 50.918459279461636 ], [ 17.082247734616669, 50.913510116611036 ], [ 17.083667573934619, 50.913124978016619 ], [ 17.10356901450319, 50.907768177287707 ], [ 17.122769432236694, 50.902599835237787 ], [ 17.123465889690131, 50.902409644373606 ], [ 17.143358301239573, 50.89704683392506 ], [ 17.163245077704332, 50.891709449586557 ], [ 17.16336898531544, 50.891676788249718 ], [ 17.183126727531707, 50.886385344654599 ], [ 17.203001798803772, 50.881112774049924 ], [ 17.20441312162362, 50.880746534859433 ], [ 17.222871071538197, 50.875873065021437 ], [ 17.242733021570977, 50.870707946713878 ], [ 17.246260125074475, 50.869813989428806 ], [ 17.262588505308237, 50.865597056386449 ], [ 17.282436166117368, 50.860579293332037 ], [ 17.289335687066462, 50.858884529158125 ], [ 17.302276639474581, 50.855640546926431 ], [ 17.322109118480874, 50.850806217259382 ], [ 17.334138993236529, 50.847963921962709 ], [ 17.341933556992892, 50.846081476154815 ], [ 17.361750256753428, 50.84146181058864 ], [ 17.381266660487256, 50.837058458209228 ], [ 17.381557834150694, 50.836991191653453 ], [ 17.401358463464778, 50.832611660835745 ], [ 17.421149854069402, 50.828394642346794 ], [ 17.431997476403332, 50.826182518488324 ], [ 17.440933123565507, 50.824312910847553 ], [ 17.460708554724253, 50.820363201932054 ], [ 17.480474943704255, 50.816587873390681 ], [ 17.487332337589656, 50.815344390361872 ], [ 17.500234064308671, 50.812938568556795 ], [ 17.519985329042441, 50.809439025605336 ], [ 17.53972814461163, 50.806114457383366 ], [ 17.549462076059747, 50.804564792729821 ], [ 17.559464018565318, 50.80292315079641 ], [ 17.579193168688377, 50.799863570547458 ], [ 17.598914782183535, 50.796968548378082 ], [ 17.618629239556803, 50.7942323205151 ], [ 17.621414727337296, 50.793868705922605 ], [ 17.638338823964602, 50.791583299639257 ], [ 17.658042311059724, 50.78906814914005 ], [ 17.677739830993403, 50.786688314770267 ], [ 17.697431828907302, 50.784433988412744 ], [ 17.707973650932971, 50.783291050961914 ], [ 17.717119669353071, 50.782261154304202 ], [ 17.736803861227102, 50.780154788914324 ], [ 17.756483810825497, 50.778140481090674 ], [ 17.776159962838427, 50.776205687585801 ], [ 17.795832752646866, 50.774337400653089 ], [ 17.812178623097211, 50.772830323700269 ], [ 17.815502904001409, 50.772510325282063 ], [ 17.835171958773529, 50.770664509984663 ], [ 17.854838845515168, 50.768842897411638 ], [ 17.874503947077002, 50.767030837144873 ], [ 17.894167627439742, 50.76521343237296 ], [ 17.913830230724631, 50.763375560850449 ], [ 17.924596387723955, 50.762352633490309 ], [ 17.933492926837722, 50.761464655793631 ], [ 17.953156223804182, 50.759453850053063 ], [ 17.972819391584718, 50.757370766262639 ], [ 17.992482701438348, 50.755198558102705 ], [ 18.012146403261831, 50.752920048215991 ], [ 18.022608787692032, 50.751646848303686 ], [ 18.031811843974136, 50.750463480065363 ], [ 18.051479482447672, 50.747795065042936 ], [ 18.071148247645063, 50.744955459324586 ], [ 18.090818316616183, 50.74192440817076 ], [ 18.098360413657563, 50.740688777782069 ], [ 18.110491837760783, 50.738575796958855 ], [ 18.130168362035544, 50.734912266608042 ], [ 18.149846780147787, 50.730973180216239 ], [ 18.156481745849117, 50.729555350331836 ], [ 18.169530043818021, 50.726571952519805 ], [ 18.189217081201967, 50.721736908029342 ], [ 18.202210042272572, 50.71830885013788 ], [ 18.208908390839344, 50.71640592891606 ], [ 18.228606093462037, 50.710411662135833 ], [ 18.239085493954263, 50.706986995661005 ], [ 18.248309948805659, 50.70371671894619 ], [ 18.268020855522497, 50.696206471337959 ], [ 18.269481834947161, 50.695613070522469 ], [ 18.287743642838681, 50.687493869235844 ], [ 18.294659053517886, 50.684199762478947 ], [ 18.307478558922245, 50.677458497493539 ], [ 18.31584722190216, 50.672757671236937 ], [ 18.327230695175519, 50.665626656812037 ], [ 18.333726625763223, 50.661292856694935 ], [ 18.347007610147596, 50.651288372868819 ], [ 18.348855884823145, 50.649809958968135 ], [ 18.361506304067035, 50.638311531800049 ], [ 18.366829530592554, 50.632700049524928 ], [ 18.372121718551742, 50.626800771377283 ], [ 18.380902845274502, 50.61527929769877 ], [ 18.386740935099702, 50.606020738390527 ], [ 18.388101270642224, 50.603748844654767 ], [ 18.393725684845521, 50.592209748703439 ], [ 18.398054154264372, 50.580663673086043 ], [ 18.40116580916629, 50.56911116747267 ], [ 18.403131888202442, 50.557552692963618 ], [ 18.40401612726286, 50.545988632348312 ], [ 18.403875140764661, 50.53441929877583 ], [ 18.402758790225356, 50.522844943027756 ], [ 18.400710535728809, 50.511265759559898 ], [ 18.397767766533004, 50.499681891455033 ], [ 18.393962107593048, 50.488093434406863 ], [ 18.389319699175722, 50.476500439834666 ], [ 18.388442170681515, 50.474652259610394 ], [ 18.383717130728986, 50.464902153120903 ], [ 18.377264057429688, 50.453299021158159 ], [ 18.369999626441771, 50.441691113253647 ], [ 18.369393057818922, 50.44082463757546 ], [ 18.361691514443567, 50.430077002090506 ], [ 18.352536968687765, 50.418457560440743 ], [ 18.350250349947114, 50.415808308717239 ], [ 18.342299337872365, 50.406831249621803 ], [ 18.331121516319943, 50.395198603767383 ], [ 18.331066398633244, 50.395145633685686 ], [ 18.318660160156718, 50.383557339744677 ], [ 18.311853244741894, 50.377647036753004 ], [ 18.305040297964624, 50.371907790082396 ], [ 18.292624243795935, 50.362160192699967 ], [ 18.290110137902403, 50.360248619401865 ], [ 18.273679649337161, 50.348578134058535 ], [ 18.273381648772034, 50.34837971669409 ], [ 18.255520003359553, 50.336894230586545 ], [ 18.254127371012949, 50.336052937313028 ], [ 18.235484783571291, 50.325195132995582 ], [ 18.234864877416317, 50.324855284463474 ], [ 18.21559450619435, 50.3146837253516 ], [ 18.213220282599476, 50.313477474971947 ], [ 18.196317593727731, 50.305385746300537 ], [ 18.188390866099599, 50.301737628550768 ], [ 18.177035805943291, 50.296803839032293 ], [ 18.160665101311032, 50.289971552193975 ], [ 18.157750346813334, 50.288820920874905 ], [ 18.138459423807337, 50.281496280253492 ], [ 18.129358792477337, 50.278172044052369 ], [ 18.119165646445108, 50.274645500660903 ], [ 18.099869436102122, 50.268215891843909 ], [ 18.094023196400794, 50.266332705436945 ], [ 18.080570002706423, 50.2622220793385 ], [ 18.06126974194931, 50.256515393621953 ], [ 18.05407498212384, 50.254445104540267 ], [ 18.041967517346013, 50.251135192711345 ], [ 18.022664932010013, 50.245983810386079 ], [ 18.00937675673519, 50.242503300859347 ], [ 18.003362894462775, 50.241004396507591 ], [ 17.984060107781374, 50.23624816149291 ], [ 17.964760326700098, 50.231529237252374 ], [ 17.960592573052999, 50.23050774073419 ], [ 17.945460722570452, 50.226973772621804 ], [ 17.926164369490483, 50.222436040368429 ], [ 17.90953564818663, 50.218470295475008 ], [ 17.906872429024677, 50.217864206308896 ], [ 17.887582296955035, 50.213371949888689 ], [ 17.86829860758785, 50.208759230377275 ], [ 17.858826614804368, 50.206413729437678 ], [ 17.849019865718905, 50.204094141654302 ], [ 17.829746728241684, 50.199352307158286 ], [ 17.81048250428589, 50.19440417326863 ], [ 17.810309109127999, 50.1943573895472 ], [ 17.791222748864346, 50.189435491059612 ], [ 17.771973299645385, 50.184219494108554 ], [ 17.765321526358441, 50.182318256850664 ], [ 17.752731312872424, 50.178876627958921 ], [ 17.73349895864126, 50.173330437645241 ], [ 17.723539794120466, 50.17029687689908 ], [ 17.714276040412567, 50.167597171087372 ], [ 17.695062509127045, 50.161686698270096 ], [ 17.684604766914475, 50.158292647470603 ], [ 17.675859190526783, 50.155576639603659 ], [ 17.65666542640178, 50.14929882571446 ], [ 17.647953129157997, 50.146301879304431 ], [ 17.637481357265646, 50.142855191844951 ], [ 17.618030910105556, 50.145834276324834 ], [ 17.617834572202018, 50.145947293091425 ], [ 17.598339780299835, 50.156962102737396 ], [ 17.597792487376783, 50.15727689254674 ], [ 17.598320989843305, 50.157604669584927 ], [ 17.616750338521136, 50.169074099040394 ], [ 17.617349977299913, 50.16944571532737 ], [ 17.63672088839769, 50.169601601542034 ], [ 17.656091907880224, 50.169757125999908 ], [ 17.674695384907576, 50.181319555784377 ], [ 17.675139967094694, 50.1815945819802 ], [ 17.694515890804986, 50.18175074617151 ], [ 17.713154527815966, 50.193321736430356 ], [ 17.713578240774673, 50.193583517703644 ], [ 17.732959082346344, 50.193739961178849 ], [ 17.751620111600875, 50.205311161251373 ], [ 17.752035742134737, 50.205567620764548 ], [ 17.770625484455199, 50.217083469132056 ], [ 17.770172394846817, 50.228648281228168 ], [ 17.76972947275635, 50.240213177836338 ], [ 17.750850055954501, 50.25097310414958 ], [ 17.749814114873793, 50.251570191166302 ], [ 17.731143431895838, 50.262206741125929 ], [ 17.729898377494461, 50.26292379645038 ], [ 17.729477162643093, 50.274488744718198 ], [ 17.73079537586451, 50.275301441626532 ], [ 17.748559437425037, 50.286265296071655 ], [ 17.74990464383195, 50.287094007621647 ], [ 17.767653249146633, 50.29803878206954 ], [ 17.749343804805658, 50.308486876088018 ], [ 17.729918949898192, 50.308231770080255 ], [ 17.728263832044647, 50.309184002906584 ], [ 17.727875108403271, 50.320749215494857 ], [ 17.709870769499336, 50.331014615494887 ], [ 17.690437124453897, 50.330750861744441 ], [ 17.673242211614415, 50.320138566752767 ], [ 17.673489308194938, 50.308571873794286 ], [ 17.673728380458755, 50.297005067273012 ], [ 17.671967118974564, 50.295918035272216 ], [ 17.654635903597772, 50.285216081129036 ], [ 17.652873459260825, 50.284127496240352 ], [ 17.635552388565412, 50.273424006675071 ], [ 17.633789230898969, 50.272334157910088 ], [ 17.614380589714433, 50.272043027122827 ], [ 17.612451138037454, 50.273150493007904 ], [ 17.594633403162163, 50.283257597398801 ], [ 17.575220798567422, 50.282956449296513 ], [ 17.558345840033322, 50.272491917297295 ], [ 17.556156927032937, 50.271136052037946 ], [ 17.536749806153761, 50.270822804582778 ], [ 17.534359586770506, 50.272191890834094 ], [ 17.516985285027793, 50.282020484146287 ], [ 17.4975742214462, 50.281698073505233 ], [ 17.481200445068424, 50.271509307967598 ], [ 17.478530771383049, 50.269852167560558 ], [ 17.459125202636272, 50.269518922948691 ], [ 17.442940509991654, 50.259433159734698 ], [ 17.440096271752441, 50.257665402716917 ], [ 17.437139098449336, 50.259355277821385 ], [ 17.436678307896425, 50.270918904807417 ], [ 17.419933842188932, 50.280360996738672 ], [ 17.400524707057581, 50.280015942096703 ], [ 17.397134832938967, 50.281950056453717 ], [ 17.380724725247923, 50.291195558143002 ], [ 17.365227056220334, 50.281505600790808 ], [ 17.365556583267502, 50.269940356855827 ], [ 17.362103086689668, 50.267789902600668 ], [ 17.35850544027576, 50.269840968488182 ], [ 17.35804110901449, 50.281404295503791 ], [ 17.357584448430092, 50.292967708803701 ], [ 17.357135140422923, 50.304531203962547 ], [ 17.341096331450252, 50.313562475088219 ], [ 17.33713618925297, 50.315816657886536 ], [ 17.340935536079176, 50.318181712380124 ], [ 17.356257421857368, 50.327658423715576 ], [ 17.340292139661099, 50.336652754326551 ], [ 17.325228724365751, 50.327215545255591 ], [ 17.321267907503319, 50.324749384882168 ], [ 17.301841745609725, 50.324390005795117 ], [ 17.282415946195055, 50.324027705728859 ], [ 17.278019254101345, 50.326525817315535 ], [ 17.26256930207083, 50.335211938466351 ], [ 17.24313949230714, 50.334844799520539 ], [ 17.238455065027964, 50.337502924714286 ], [ 17.223278970392698, 50.346028904644562 ], [ 17.218448122176966, 50.348767963209539 ], [ 17.218005009130849, 50.360331070666312 ], [ 17.202972311371351, 50.368775748891373 ], [ 17.197998983264245, 50.371592631598737 ], [ 17.197562780791767, 50.383155752000192 ], [ 17.182645428831346, 50.391534502768124 ], [ 17.163193383276081, 50.391159115352387 ], [ 17.149287346662295, 50.382397461801467 ], [ 17.144193318733095, 50.379214204008385 ], [ 17.138857293517983, 50.382230995838675 ], [ 17.124290319969916, 50.390402648028349 ], [ 17.118844789926996, 50.393478927685479 ], [ 17.118400464937658, 50.405041677108485 ], [ 17.103915845223554, 50.413165730205549 ], [ 17.084455702721744, 50.412782855883485 ], [ 17.06499589274906, 50.412398507661038 ], [ 17.045536411458617, 50.412012812733543 ], [ 17.0396819269878, 50.415311469757754 ], [ 17.025595991655351, 50.42320076332409 ], [ 17.006132439169743, 50.422812156953547 ], [ 16.986669208140007, 50.422422468503967 ], [ 16.967206295777462, 50.422031784260511 ], [ 16.96098565953476, 50.425528508681047 ], [ 16.947243122767365, 50.433215515126136 ], [ 16.940957838524042, 50.436745790876586 ], [ 16.927270380840348, 50.444399821060117 ], [ 16.920927538598139, 50.447959612304068 ], [ 16.907288064243872, 50.455584592777946 ], [ 16.894494212090756, 50.447484167890934 ], [ 16.888327908341658, 50.44360940290678 ], [ 16.875631398962685, 50.435571028715529 ], [ 16.876168120949828, 50.424010625625947 ], [ 16.869896435575651, 50.420065797470087 ], [ 16.857301257926995, 50.412094315606858 ], [ 16.870589530932648, 50.404612197653378 ], [ 16.877225394412097, 50.400889461525871 ], [ 16.890561283875901, 50.393370509997766 ], [ 16.897132870131788, 50.3896809254218 ], [ 16.910523807068675, 50.382120780421126 ], [ 16.917023451292362, 50.378468710740599 ], [ 16.917525173640247, 50.366907451801545 ], [ 16.918020929188163, 50.355346065133176 ], [ 16.931483279857542, 50.34772583703591 ], [ 16.937874960110019, 50.344129676498191 ], [ 16.938354626642877, 50.332567906849796 ], [ 16.938827788306234, 50.321006001012265 ], [ 16.952413191693044, 50.313295279434406 ], [ 16.958643240093906, 50.30978542665661 ], [ 16.972328457522828, 50.302006864335169 ], [ 16.991746581079127, 50.302297292400972 ], [ 16.997776194684636, 50.298895930530264 ], [ 17.01164840596223, 50.290993601160466 ], [ 17.017545132898451, 50.287664592387252 ], [ 17.017974550154641, 50.276101645081496 ], [ 17.018396195842328, 50.264538544362786 ], [ 17.012894420608514, 50.261080028658178 ], [ 16.999493675775717, 50.252644280979993 ], [ 16.999902791744358, 50.241080967852248 ], [ 17.014062775687957, 50.232984791168342 ], [ 17.019611179916971, 50.229848265547666 ], [ 17.014331069215373, 50.226526874019683 ], [ 16.994947417753945, 50.226146780463587 ], [ 16.989316933681557, 50.229327834924959 ], [ 16.988746863017081, 50.240888357886732 ], [ 16.974588204860581, 50.248794876464693 ], [ 16.961264015807242, 50.24040928408543 ], [ 16.961671968843454, 50.228846015025852 ], [ 16.956180919973647, 50.225386473240249 ], [ 16.936798069025141, 50.225006350400832 ], [ 16.917415480505817, 50.224626300737299 ], [ 16.898033152380339, 50.224246359343311 ], [ 16.884760513242263, 50.215900331096172 ], [ 16.885163232419441, 50.204337092890185 ], [ 16.879670956876843, 50.200867941656576 ], [ 16.860298360973534, 50.200490449037694 ], [ 16.854468363355526, 50.203774073654387 ], [ 16.84040715827561, 50.211607553931863 ], [ 16.82713248687946, 50.203265828666645 ], [ 16.827533590575033, 50.191702660594927 ], [ 16.822076734935422, 50.188249667462578 ], [ 16.802709451048628, 50.187874751314283 ], [ 16.789217754206202, 50.179408757316587 ], [ 16.789600787777321, 50.167845284041995 ], [ 16.789971277853127, 50.156281552068002 ], [ 16.784934430698986, 50.153088863214265 ], [ 16.770972029294683, 50.144347483412055 ], [ 16.766115106199283, 50.141266543218102 ], [ 16.746766677478465, 50.140900971458215 ], [ 16.732585565154178, 50.132033130118543 ], [ 16.732917365451048, 50.120468685169676 ], [ 16.728501914635469, 50.117663605469325 ], [ 16.713857124586998, 50.108523840689159 ], [ 16.709707859199213, 50.105885898462247 ], [ 16.690373411741426, 50.105532396256997 ], [ 16.671039104001874, 50.105180926787853 ], [ 16.666755376689725, 50.107586415472468 ], [ 16.65114656743264, 50.116242035497841 ] ] ] ] } }
]
}
