{
"type": "FeatureCollection",
"name": "ryzyko_cykl2_nasil3",
"crs": { "type": "name", "properties": { "name": "urn:ogc:def:crs:OGC:1.3:CRS84" } },
"features": [
{ "type": "Feature", "properties": { "cykl": 2, "gatunek": "Wszystkie", "prog_nasilenia": 3, "percentyl": 95, "prog_ryzyka": 1.4226165404115296, "liczba_traktow": 8948 }, "geometry": { "type": "MultiPolygon", "coordinates": [ [ [ [ 22.080400896280722, 53.218086404146433 ], [ 22.059946967163214, 53.221956767062899 ], [ 22.039508379242118, 53.226093968777057 ], [ 22.036356017320241, 53.226788734015898 ], [ 22.019094728534345, 53.230639631224129 ], [ 21.998693320050208, 53.235420440684003 ], [ 21.980931222241537, 53.239756597115964 ], [ 21.978301766017108, 53.240406782601262 ], [ 21.957929999230508, 53.245746752181901 ], [ 21.937561838518679, 53.251211527572138 ], [ 21.93290369921257, 53.252516355580198 ], [ 21.917208745449745, 53.256972012273152 ], [ 21.896859708614056, 53.262871500584268 ], [ 21.889223902233724, 53.265151046364345 ], [ 21.876520366954427, 53.268996852474558 ], [ 21.856184784989892, 53.275263831039794 ], [ 21.848449816318773, 53.277699988012479 ], [ 21.835856219819142, 53.281724607065797 ], [ 21.815529005498103, 53.288297188388299 ], [ 21.809797175973774, 53.290184694693451 ], [ 21.795208260463994, 53.295062341399444 ], [ 21.774884886612327, 53.301883982517509 ], [ 21.772730827483379, 53.302619708860746 ], [ 21.754569085291845, 53.308921758143889 ], [ 21.73699126774887, 53.315012490233414 ], [ 21.734247962647618, 53.315978790510727 ], [ 21.713931959074209, 53.323219995946438 ], [ 21.702277500005501, 53.32737107252801 ], [ 21.693612326017817, 53.330510692429272 ], [ 21.673290833080859, 53.337880326831879 ], [ 21.668280266759965, 53.339703286511742 ], [ 21.652970153775573, 53.345373770380313 ], [ 21.634920819603142, 53.352011495961321 ], [ 21.632642348488133, 53.352865107613702 ], [ 21.612316336721996, 53.360500121995784 ], [ 21.602135571116936, 53.364297633283947 ], [ 21.59198459073939, 53.368158228601509 ], [ 21.571646487642951, 53.375829712073838 ], [ 21.569687547666991, 53.376567285569195 ], [ 21.551308868000891, 53.383629327667691 ], [ 21.537636835706888, 53.388819456913197 ], [ 21.530962664499711, 53.391407394085185 ], [ 21.510611809278178, 53.399230263661245 ], [ 21.50581774063911, 53.401057953972227 ], [ 21.490257749656905, 53.40712386126264 ], [ 21.474225369917736, 53.413283068993984 ], [ 21.469894467218797, 53.414986161439536 ], [ 21.449527649921333, 53.422915410640861 ], [ 21.44281327259618, 53.425495938000971 ], [ 21.429155170824423, 53.430876054600652 ], [ 21.411545481009732, 53.437697434744194 ], [ 21.408773097867691, 53.438799478859309 ], [ 21.388388336915874, 53.446807913928374 ], [ 21.380420910799625, 53.4498876987778 ], [ 21.367996443000663, 53.454823728996026 ], [ 21.349424804446528, 53.462067136914555 ], [ 21.347594905168428, 53.462801726418213 ], [ 21.327191425433007, 53.47088177481205 ], [ 21.318565045359168, 53.474235700476903 ], [ 21.306780239386846, 53.47896038234046 ], [ 21.287874378830104, 53.486392872371191 ], [ 21.286359749744786, 53.48700793644506 ], [ 21.265937975163013, 53.495174076608876 ], [ 21.257357854610568, 53.498538692083358 ], [ 21.245508926592713, 53.503348775409023 ], [ 21.227102028196207, 53.510671684454195 ], [ 21.225071416914847, 53.511509727142503 ], [ 21.204633009217435, 53.519802294430754 ], [ 21.197118370475057, 53.52279184180955 ], [ 21.184189155504395, 53.528141820767438 ], [ 21.167531019908612, 53.534897123149442 ], [ 21.163738385344473, 53.536500892897976 ], [ 21.143286371720063, 53.544992429437073 ], [ 21.13839092683596, 53.546986917460949 ], [ 21.122832984056874, 53.55361766165975 ], [ 21.109812955733652, 53.559059531289392 ], [ 21.102375301937837, 53.562321631468848 ], [ 21.081949442196347, 53.571112722612405 ], [ 21.081914400320667, 53.571128603765167 ], [ 21.061460026907294, 53.580241970541195 ], [ 21.0548208559504, 53.583146647114077 ], [ 21.041005830332093, 53.589539036113806 ], [ 21.028649171826334, 53.595158048346711 ], [ 21.02055387117116, 53.599068521946059 ], [ 21.003554712018381, 53.607145548586203 ], [ 21.000106844220355, 53.608894496491295 ], [ 20.979668285588247, 53.619101562248559 ], [ 20.979655432385218, 53.619107883902927 ], [ 20.959247005664928, 53.629891543452445 ], [ 20.957033498339609, 53.631044437030198 ], [ 20.938843376706231, 53.641290504332595 ], [ 20.935851544538888, 53.642953312379632 ], [ 20.91846500411074, 53.653484827670852 ], [ 20.916210382556073, 53.654833671928273 ], [ 20.898199914889307, 53.666684860217536 ], [ 20.898122762744947, 53.666741256078559 ], [ 20.881849025459065, 53.67850717099774 ], [ 20.877846604669852, 53.681766203675572 ], [ 20.867259962736011, 53.690299701409749 ], [ 20.857660691679644, 53.699163600830936 ], [ 20.854492131685149, 53.702062187434819 ], [ 20.843524451148411, 53.713795547946802 ], [ 20.837666880095689, 53.721343450451542 ], [ 20.834414206122368, 53.725499411786373 ], [ 20.827133708491953, 53.737174636588151 ], [ 20.821724597070997, 53.748820934133583 ], [ 20.818355921975567, 53.759813543746482 ], [ 20.818162695459066, 53.760438935947043 ], [ 20.816418453213405, 53.77202926558342 ], [ 20.816511853422618, 53.783591710325254 ], [ 20.818433278605941, 53.795126422531858 ], [ 20.820106144334034, 53.800267891930183 ], [ 20.822169617059817, 53.80663352425011 ], [ 20.827720352151584, 53.818112864286697 ], [ 20.835105712685305, 53.829563891790677 ], [ 20.842820852200234, 53.839109476527859 ], [ 20.844340578035609, 53.840986049840389 ], [ 20.855444574251393, 53.852378618656772 ], [ 20.864804522275069, 53.86055712202797 ], [ 20.868473875633672, 53.863740215578765 ], [ 20.883493476237764, 53.875069204826033 ], [ 20.886591738048082, 53.877134807523923 ], [ 20.900615909900043, 53.886363069012283 ], [ 20.908266416400217, 53.890859117971097 ], [ 20.919975758036475, 53.897618768292027 ], [ 20.929871992040827, 53.902772133125794 ], [ 20.941780836288345, 53.908831872458371 ], [ 20.951425241801761, 53.913295771195926 ], [ 20.966327365306942, 53.919996213024071 ], [ 20.972937584094865, 53.922718987875776 ], [ 20.994029064770373, 53.931103255625501 ], [ 20.994416987711645, 53.931245392556917 ], [ 21.015859133313175, 53.938814756848728 ], [ 21.025737044994479, 53.942136481407367 ], [ 21.037277382128767, 53.945732042416381 ], [ 21.058672559743755, 53.952034740547155 ], [ 21.0624203085174, 53.953076104860415 ], [ 21.080039229021899, 53.957632959503528 ], [ 21.101387620216158, 53.962751866477404 ], [ 21.106453403658637, 53.963875975864369 ], [ 21.122709654381417, 53.967247207396682 ], [ 21.144011516996013, 53.971258292449924 ], [ 21.162913158955082, 53.974436745539606 ], [ 21.165293857663737, 53.974812108543695 ], [ 21.186549460010099, 53.97778440055076 ], [ 21.207785222554268, 53.980322535527797 ], [ 21.229000058024813, 53.982418666639653 ], [ 21.250192956830002, 53.984066659391402 ], [ 21.254546802158302, 53.984316191026892 ], [ 21.271360411509928, 53.985214694326622 ], [ 21.292504463608953, 53.985913833255758 ], [ 21.313625002547656, 53.986174418404424 ], [ 21.334721300227333, 53.985995348712677 ], [ 21.355792692038204, 53.985376653390489 ], [ 21.376838572389836, 53.984319361731714 ], [ 21.397858389178872, 53.982825361705288 ], [ 21.415720008186213, 53.981182938250655 ], [ 21.418851223851377, 53.980890117096827 ], [ 21.439813945776748, 53.978471371084545 ], [ 21.460748642179837, 53.975616748415042 ], [ 21.481654984732703, 53.972331612095438 ], [ 21.502532663007134, 53.968621406074789 ], [ 21.506903806754885, 53.967749208657779 ], [ 21.523376418080172, 53.96440947725231 ], [ 21.5441892881143, 53.959757774877218 ], [ 21.563781457189044, 53.954983041482862 ], [ 21.564971989724949, 53.954688424481397 ], [ 21.585717072799856, 53.94909087165157 ], [ 21.60643197831828, 53.943096657925359 ], [ 21.608494507074095, 53.942454481751298 ], [ 21.627108092409962, 53.936577831004392 ], [ 21.646572543243767, 53.930055444955563 ], [ 21.647752284540584, 53.929654717097236 ], [ 21.668356110370539, 53.92220401088143 ], [ 21.680044533801546, 53.91774701607229 ], [ 21.688924751555703, 53.914317949190838 ], [ 21.709456694599439, 53.905982627983185 ], [ 21.71059817751896, 53.905494979509726 ], [ 21.72994706483086, 53.89713296332576 ], [ 21.738442687792013, 53.893296816453727 ], [ 21.750399652580995, 53.887837559706995 ], [ 21.764488132850428, 53.881133468367516 ], [ 21.770813511638458, 53.878091433240314 ], [ 21.788994184308603, 53.869000085411166 ], [ 21.791187849640458, 53.867891990715592 ], [ 21.811521537142681, 53.857231626521127 ], [ 21.812144003228436, 53.856893330145297 ], [ 21.831813674299632, 53.846106280406552 ], [ 21.834101305153052, 53.844810130751242 ], [ 21.852065563119272, 53.834544320445445 ], [ 21.85511893681533, 53.832745131741873 ], [ 21.872277092162452, 53.822552650717718 ], [ 21.875313938706718, 53.820696028274796 ], [ 21.892448311375379, 53.810140278622633 ], [ 21.894785974497818, 53.80866083627425 ], [ 21.912579424322519, 53.797318136423769 ], [ 21.913620105121332, 53.796637846373081 ], [ 21.931857195795033, 53.784626365036175 ], [ 21.932669938159485, 53.784086842515883 ], [ 21.949535607705361, 53.772625725716331 ], [ 21.952719410140791, 53.770447658302764 ], [ 21.966757084433237, 53.760633660714291 ], [ 21.972729490636791, 53.756431374917192 ], [ 21.983570556716135, 53.748649152123605 ], [ 21.992700853076464, 53.742054231692677 ], [ 22.000017606197552, 53.73667133355363 ], [ 22.01263424279426, 53.727333027960057 ], [ 22.016133390188081, 53.724699473463644 ], [ 22.031927894009563, 53.712733455544608 ], [ 22.032529604579711, 53.712272990405559 ], [ 22.047328754958098, 53.700775252095653 ], [ 22.052382866383393, 53.696823706717218 ], [ 22.062481108492726, 53.688821304719461 ], [ 22.072199732394086, 53.681070120108004 ], [ 22.077402485444662, 53.676871259006795 ], [ 22.091980976444493, 53.665027851560559 ], [ 22.092106481128024, 53.664924851900736 ], [ 22.106460116533782, 53.652985618679637 ], [ 22.111717570573227, 53.648579117362722 ], [ 22.120624557830197, 53.641049483920384 ], [ 22.131418566378301, 53.631852720707784 ], [ 22.134608252726498, 53.629116294955644 ], [ 22.148343747636233, 53.617187892712593 ], [ 22.151078522859859, 53.614780066998861 ], [ 22.161829548701821, 53.605264404468819 ], [ 22.170695447270901, 53.597340062676636 ], [ 22.17515113131445, 53.593343646697932 ], [ 22.188255773531523, 53.581427082012155 ], [ 22.190270946823752, 53.579559798739822 ], [ 22.201090209391097, 53.569516210510841 ], [ 22.209796511456918, 53.561332215292559 ], [ 22.213758205414351, 53.557608331038878 ], [ 22.22618152848408, 53.54570561054399 ], [ 22.22927312709529, 53.542677147163367 ], [ 22.238342843254514, 53.533808597632259 ], [ 22.248694657484897, 53.523520952350275 ], [ 22.25031639126686, 53.521915354609483 ], [ 22.261968324613683, 53.510029595663326 ], [ 22.268046877084462, 53.503686399477026 ], [ 22.273383410216653, 53.498149094505443 ], [ 22.284517260712509, 53.486275142511182 ], [ 22.287328575140684, 53.483167987496493 ], [ 22.295314440766017, 53.474409351478663 ], [ 22.305839290463592, 53.462550034307142 ], [ 22.306521601934392, 53.46174241913851 ], [ 22.315941660314611, 53.450701437750759 ], [ 22.325595748883078, 53.439036411988226 ], [ 22.325743306150734, 53.438860280282881 ], [ 22.335055941783981, 53.427031902295909 ], [ 22.344002985970661, 53.415212964107795 ], [ 22.344506049544925, 53.414495759842126 ], [ 22.352397910097725, 53.403408794382493 ], [ 22.360319834670996, 53.391617286497713 ], [ 22.363162004146684, 53.386999066912146 ], [ 22.367644861665784, 53.37984203877641 ], [ 22.374333119881108, 53.368084296058591 ], [ 22.380371173911772, 53.356344553375322 ], [ 22.381364426663051, 53.354072160746533 ], [ 22.385582872578034, 53.344627919648296 ], [ 22.389939708914333, 53.332935323002637 ], [ 22.393352774073385, 53.321269398003217 ], [ 22.395686530899585, 53.309634098310461 ], [ 22.396770841703614, 53.298034349461872 ], [ 22.396389495716065, 53.286476363001661 ], [ 22.394263901516638, 53.274968078901701 ], [ 22.390029390452458, 53.263519801675869 ], [ 22.383199908046933, 53.252145136662399 ], [ 22.373113865365031, 53.240862405446428 ], [ 22.37237560270923, 53.240238236173901 ], [ 22.357940299903948, 53.229722463556961 ], [ 22.350492960545026, 53.225653033343697 ], [ 22.335122438684515, 53.21879506398345 ], [ 22.329059897962839, 53.21666457478161 ], [ 22.307879773396426, 53.210837475933893 ], [ 22.295284853270527, 53.208335771542977 ], [ 22.286855582075273, 53.206968799846337 ], [ 22.265954562786437, 53.204666874469787 ], [ 22.245137573809451, 53.203444843583505 ], [ 22.224390697049969, 53.203138582925284 ], [ 22.203702618433869, 53.203614404963162 ], [ 22.18306405682166, 53.204762430690629 ], [ 22.16246733586777, 53.206491610894247 ], [ 22.141906058758103, 53.208725936747534 ], [ 22.121374858108236, 53.211401520763431 ], [ 22.108435265850488, 53.213361009669818 ], [ 22.100873172772214, 53.214519266869431 ], [ 22.080400896280722, 53.218086404146433 ] ] ], [ [ [ 18.357201831897676, 54.121789583837504 ], [ 18.336004599013386, 54.123478843469279 ], [ 18.314803007186992, 54.12532602826407 ], [ 18.293596861997798, 54.127328243882893 ], [ 18.272385966743112, 54.129483053497822 ], [ 18.264017261285645, 54.130392524933924 ], [ 18.251170487384101, 54.13176817749212 ], [ 18.229950172332991, 54.134186300653553 ], [ 18.208724590310318, 54.136749236509893 ], [ 18.187493533142387, 54.139456151671084 ], [ 18.173256887806517, 54.141365220680527 ], [ 18.166257049921438, 54.14229348022576 ], [ 18.145015271996492, 54.145245006650086 ], [ 18.123767463527994, 54.148337151474102 ], [ 18.102513393559196, 54.151570471650956 ], [ 18.097379466966739, 54.152382114501712 ], [ 18.08125358106507, 54.154911599682734 ], [ 18.059987365507439, 54.158382239514623 ], [ 18.038714261203083, 54.161994610325024 ], [ 18.030574594958598, 54.163424689992148 ], [ 18.017434701591714, 54.165721066179472 ], [ 17.996148250005948, 54.169572246654553 ], [ 17.974854207451834, 54.173568499680812 ], [ 17.970110949844788, 54.174484710602059 ], [ 17.953553255599914, 54.177673808000122 ], [ 17.932244504660073, 54.18191603019249 ], [ 17.914539460367692, 54.185558670213382 ], [ 17.910927584622691, 54.186301041415298 ], [ 17.889603109580772, 54.190797534220792 ], [ 17.86826969157223, 54.195449843235622 ], [ 17.862924206399875, 54.196644504025102 ], [ 17.846928028359223, 54.200224071503008 ], [ 17.825577150054428, 54.205147590834621 ], [ 17.814625755438335, 54.207741003292021 ], [ 17.804217018603527, 54.210213526934368 ], [ 17.782847358533733, 54.215423552865452 ], [ 17.769184950571461, 54.218847463682629 ], [ 17.76146754304926, 54.220790949430828 ], [ 17.740077617263285, 54.226306007881519 ], [ 17.726271537825895, 54.22996362433129 ], [ 17.718676713893821, 54.231989114035301 ], [ 17.697264845905778, 54.237831339307718 ], [ 17.685622001847577, 54.241089308203179 ], [ 17.675841224757171, 54.243849349168698 ], [ 17.65440550872496, 54.250044990275171 ], [ 17.647026686711452, 54.252224449385515 ], [ 17.632957266307532, 54.256422687113727 ], [ 17.611495521427106, 54.263002770922199 ], [ 17.610319959521895, 54.263369108453361 ], [ 17.59002042031506, 54.269771417608766 ], [ 17.575348889456279, 54.274523200151449 ], [ 17.568530525977025, 54.27676129480507 ], [ 17.547025525108655, 54.283971154363137 ], [ 17.542004989789348, 54.285686919681794 ], [ 17.525504643690503, 54.291412691012624 ], [ 17.510180249003991, 54.296860279131486 ], [ 17.503966765487867, 54.299106323879329 ], [ 17.482411143815273, 54.307061215537885 ], [ 17.479794103100385, 54.308043462293163 ], [ 17.460836764935859, 54.315293125098933 ], [ 17.450748083082015, 54.319236288270268 ], [ 17.439242292225376, 54.323825412344 ], [ 17.42300314974387, 54.330439211335538 ], [ 17.417626491764103, 54.332677417566579 ], [ 17.396493843072619, 54.341652255540737 ], [ 17.395987940454599, 54.341872226097109 ], [ 17.374324867934845, 54.351440408164144 ], [ 17.371135161596381, 54.352875084278367 ], [ 17.352635353190365, 54.361414589753274 ], [ 17.346903489890771, 54.364108095891389 ], [ 17.330917208178715, 54.371832169838477 ], [ 17.323756539930148, 54.375351378212216 ], [ 17.309167853443515, 54.382738013546039 ], [ 17.301653297628693, 54.386604974479944 ], [ 17.287384239274903, 54.394185834720396 ], [ 17.280557655178701, 54.397868939936728 ], [ 17.265562733424989, 54.406240255025857 ], [ 17.260438087904088, 54.409143344729415 ], [ 17.243698974730012, 54.41897949049455 ], [ 17.241267349711702, 54.420428276062324 ], [ 17.223009357277359, 54.431723650959761 ], [ 17.221787246598346, 54.432508901540842 ], [ 17.205620584379275, 54.443029232842768 ], [ 17.199819827901557, 54.446974003043728 ], [ 17.189109063126136, 54.454345513602085 ], [ 17.177788919971459, 54.462514475881093 ], [ 17.173461525907868, 54.465672648265027 ], [ 17.158635550130629, 54.477010321912502 ], [ 17.155681490520536, 54.479378965500068 ], [ 17.144596603473161, 54.488358302733928 ], [ 17.133480010403972, 54.497901926489938 ], [ 17.131385298419097, 54.499717488822384 ], [ 17.118913889877323, 54.51108678188811 ], [ 17.111156773476974, 54.51862097857115 ], [ 17.107230460781683, 54.522467159683465 ], [ 17.0962768864227, 54.533857931213774 ], [ 17.088669864324139, 54.542349845690303 ], [ 17.086082805122288, 54.545259759730577 ], [ 17.076582275288381, 54.556671784315292 ], [ 17.06783376587854, 54.568095098175874 ], [ 17.065934214668193, 54.570770915512476 ], [ 17.059755995546144, 54.57952855648346 ], [ 17.05238442204363, 54.590972860176286 ], [ 17.04572171805313, 54.602428177057568 ], [ 17.042737927003159, 54.608120198924411 ], [ 17.039726259574124, 54.61389394559194 ], [ 17.034395811885872, 54.625370224346561 ], [ 17.029748222157625, 54.636857387251567 ], [ 17.025775125746105, 54.648355372044243 ], [ 17.03995224739522, 54.660148331807306 ], [ 17.04022930772161, 54.660306242869332 ], [ 17.061657177490481, 54.660832375830196 ], [ 17.081574410689594, 54.6723773259423 ], [ 17.08254047943025, 54.672927116385623 ], [ 17.102121510618183, 54.684263472893036 ], [ 17.103436532622311, 54.685011195384575 ], [ 17.124878976016063, 54.68551553539897 ], [ 17.143841175744981, 54.696472208955413 ], [ 17.145794669504035, 54.697581305806636 ], [ 17.16724480293982, 54.69806998018862 ], [ 17.185623772160898, 54.708667304434755 ], [ 17.188180150806133, 54.710116517082071 ], [ 17.209637947826149, 54.710589189977476 ], [ 17.227471337601468, 54.720848730455991 ], [ 17.230592953700359, 54.722615725698788 ], [ 17.252058381899957, 54.723072159811359 ], [ 17.269385452287711, 54.733016448714288 ], [ 17.273033040075518, 54.735078075527696 ], [ 17.294506061962906, 54.735518124279551 ], [ 17.315979819177091, 54.73594974785599 ], [ 17.337454296297075, 54.73637302122912 ], [ 17.353872847704348, 54.745754927835947 ], [ 17.358462215757932, 54.74834175984742 ], [ 17.379944192438813, 54.748748702172406 ], [ 17.401426847468986, 54.749147437366474 ], [ 17.42291016577553, 54.749538044075472 ], [ 17.444394132496768, 54.749920599751938 ], [ 17.465878732987004, 54.750295180447978 ], [ 17.481176262526986, 54.758977910262821 ], [ 17.486933264067495, 54.762210009277219 ], [ 17.508425212279572, 54.76256863025025 ], [ 17.529917753852143, 54.762919435766101 ], [ 17.551410874823873, 54.763262497355051 ], [ 17.572904561478154, 54.763597883877921 ], [ 17.587488393683575, 54.771824067464706 ], [ 17.593998646213262, 54.775466792093752 ], [ 17.615499556855916, 54.775786559954163 ], [ 17.637000994911531, 54.776098793266378 ], [ 17.658502947485434, 54.776403550186167 ], [ 17.672663227608016, 54.784347201032823 ], [ 17.67962969391597, 54.788234507753963 ], [ 17.701138776446314, 54.788523842817021 ], [ 17.722648337315658, 54.788805806493734 ], [ 17.736589101134349, 54.796590833551818 ], [ 17.743800991398366, 54.800606531246814 ], [ 17.765317615743239, 54.800873119133797 ], [ 17.786834683865663, 54.801132401495764 ], [ 17.808352184304521, 54.801384406833556 ], [ 17.822091864477557, 54.809011892446819 ], [ 17.829537236495618, 54.813146214194347 ], [ 17.851061715497206, 54.813382766665974 ], [ 17.872586594397188, 54.813612040112837 ], [ 17.886283865144236, 54.821178769162643 ], [ 17.893797377542008, 54.825342042337709 ], [ 17.915329175607333, 54.825555608830157 ], [ 17.936861342562111, 54.825761828403934 ], [ 17.958393868119092, 54.82596068484613 ], [ 17.979926742136474, 54.826152154789128 ], [ 18.001459954605309, 54.826336207449963 ], [ 18.022993495636538, 54.82651280435001 ], [ 18.04452735544767, 54.826681899013877 ], [ 18.066061524348964, 54.82684343664603 ], [ 18.087595992729106, 54.826997353783895 ], [ 18.109130751040372, 54.827143577926044 ], [ 18.130665789783119, 54.827282027134302 ], [ 18.152201099489591, 54.827412609608395 ], [ 18.173736670706962, 54.827535223232225 ], [ 18.195272493979484, 54.827649755090626 ], [ 18.216808559829726, 54.827756080955623 ], [ 18.23834485873871, 54.827854064741707 ], [ 18.259881381124906, 54.827943557929594 ], [ 18.281418117321966, 54.828024398958284 ], [ 18.302955057555018, 54.828096412585552 ], [ 18.324492191915454, 54.828159409217854 ], [ 18.346029510334073, 54.828213184210391 ], [ 18.352957280674904, 54.824563242616136 ], [ 18.367746086984496, 54.816795347422165 ], [ 18.374721503952991, 54.813116957855307 ], [ 18.389450524619654, 54.805366615749946 ], [ 18.396460471232146, 54.80166665531921 ], [ 18.411142817843537, 54.793927117582101 ], [ 18.418174431226038, 54.790212348013576 ], [ 18.418489902789361, 54.778653492659629 ], [ 18.418791647895105, 54.767094549217866 ], [ 18.411589594985379, 54.763157645345792 ], [ 18.397697543439438, 54.755431228182061 ], [ 18.397974824643661, 54.743872156934287 ], [ 18.398240450439413, 54.732313005673277 ], [ 18.412143205829679, 54.724949205631056 ], [ 18.419873763639568, 54.720857955229732 ], [ 18.433786422662344, 54.713476352157471 ], [ 18.441483852502284, 54.709398945193421 ], [ 18.455417504251141, 54.701993628591836 ], [ 18.463070696901195, 54.697935986180134 ], [ 18.463288127152921, 54.686376435599698 ], [ 18.463495334066469, 54.674816817639567 ], [ 18.46369264499042, 54.663257133778011 ], [ 18.463880352743949, 54.65169738533676 ], [ 18.464058717900166, 54.640137573491529 ], [ 18.477776946895187, 54.632808139309333 ], [ 18.499211163938188, 54.632841974320066 ], [ 18.506889410179593, 54.62875891824465 ], [ 18.507044548422346, 54.617198930663712 ], [ 18.507190682798271, 54.605638884363877 ], [ 18.521052732141573, 54.598202898011969 ], [ 18.52863737907969, 54.594163629477514 ], [ 18.52876318088261, 54.582603446185864 ], [ 18.542728013199635, 54.57509489318511 ], [ 18.550174972281177, 54.571124230576096 ], [ 18.550280597194817, 54.559563917471785 ], [ 18.55037765244797, 54.548003550445308 ], [ 18.550466222092648, 54.53644312981281 ], [ 18.550546371710567, 54.524882655819937 ], [ 18.550618149714307, 54.513322128646855 ], [ 18.550681588608697, 54.501761548412823 ], [ 18.564995227677546, 54.494022881648426 ], [ 18.572000150416262, 54.490278058216354 ], [ 18.565075259700148, 54.486483519303377 ], [ 18.550783506923946, 54.478640228962512 ], [ 18.550821982819055, 54.467079489721755 ], [ 18.550852114958612, 54.455518697379937 ], [ 18.565487571816767, 54.447586523221666 ], [ 18.572123322059149, 54.444034964280995 ], [ 18.586941960763639, 54.435990987504319 ], [ 18.593370225204559, 54.432547403570538 ], [ 18.593367953822735, 54.420986446176713 ], [ 18.608495114797822, 54.412757580344859 ], [ 18.629814590425237, 54.412767706168076 ], [ 18.635790288618015, 54.40956084167312 ], [ 18.651232826865481, 54.401139775189904 ], [ 18.672546387198345, 54.40113338399366 ], [ 18.678152803675843, 54.398120190977444 ], [ 18.693946575086137, 54.389486843765049 ], [ 18.699287670040814, 54.386613692008908 ], [ 18.715334695923683, 54.377829326983054 ], [ 18.72039754597839, 54.375103428295347 ], [ 18.736710746162405, 54.366160888411223 ], [ 18.758006315639719, 54.366122171539246 ], [ 18.779301884549294, 54.366074091068946 ], [ 18.800597439662599, 54.366016572479417 ], [ 18.804872665783751, 54.363708515520798 ], [ 18.821943290932651, 54.354314384439704 ], [ 18.843232753326351, 54.354239795208358 ], [ 18.846990200329909, 54.352208243509658 ], [ 18.864560426627339, 54.342520006564783 ], [ 18.885843750310478, 54.342428708340769 ], [ 18.907126995606735, 54.342328106405319 ], [ 18.928410148923362, 54.342218266436305 ], [ 18.947046399920811, 54.352293608515353 ], [ 18.949678996326487, 54.353725377156977 ], [ 18.95231508885286, 54.352295804917631 ], [ 18.970976125819501, 54.341971287429203 ], [ 18.992258923021001, 54.341834439483556 ], [ 19.013541575661023, 54.341688940121273 ], [ 19.034824071475089, 54.341535027883914 ], [ 19.056106398746351, 54.341372981250586 ], [ 19.07738854641013, 54.341203119387217 ], [ 19.098670504159291, 54.341025802272505 ], [ 19.119952262547915, 54.340841430119085 ], [ 19.139842353459048, 54.340663195204876 ], [ 19.134867575772059, 54.329107813835677 ], [ 19.129042831117545, 54.31755311867709 ], [ 19.12230441775942, 54.305999051496144 ], [ 19.119839962059871, 54.302220794893458 ], [ 19.114639505040209, 54.294445471624343 ], [ 19.105941796891948, 54.282892296035129 ], [ 19.098510556699086, 54.274097571611783 ], [ 19.096104170698585, 54.271339386838015 ], [ 19.085062578091989, 54.259786510324417 ], [ 19.077222181895813, 54.252387135779649 ], [ 19.072643759690866, 54.248233440224766 ], [ 19.058711933495605, 54.236679817000024 ], [ 19.055961435662322, 54.23456882731822 ], [ 19.043057499858936, 54.225125190802601 ], [ 19.034721317823816, 54.21950683712182 ], [ 19.025423501949057, 54.213568944385131 ], [ 19.013497323933329, 54.20648926786329 ], [ 19.005481144420852, 54.20201022335894 ], [ 18.992286368155312, 54.195101006200666 ], [ 18.982777549392914, 54.190447816508694 ], [ 18.971086139815608, 54.185046904070141 ], [ 18.956690508521607, 54.17887993894751 ], [ 18.949894839107454, 54.1761135507547 ], [ 18.928711006451692, 54.168145740000107 ], [ 18.926300502832557, 54.167303830794744 ], [ 18.907533435135864, 54.161018360751207 ], [ 18.890054090198127, 54.155714822836515 ], [ 18.886361098568095, 54.154634572791103 ], [ 18.865193126617402, 54.148910694197738 ], [ 18.845352748058954, 54.144104311627736 ], [ 18.844028709393505, 54.143792752091279 ], [ 18.82286723506525, 54.139206370312614 ], [ 18.8017080073061, 54.135126746276441 ], [ 18.786161244991472, 54.132452302096347 ], [ 18.780550501552064, 54.13150625119232 ], [ 18.759394287743749, 54.12829776305626 ], [ 18.73823881050928, 54.125489318042369 ], [ 18.717083648170217, 54.123052939910295 ], [ 18.695928414296802, 54.120963642592642 ], [ 18.692680849082219, 54.120688483472243 ], [ 18.674772875513252, 54.119183403238857 ], [ 18.653616598503469, 54.117707470974153 ], [ 18.632459251404534, 54.116520725516494 ], [ 18.61130054282572, 54.115607011687423 ], [ 18.590140198545438, 54.114951766072899 ], [ 18.568977959170958, 54.114541850202386 ], [ 18.547813578066481, 54.114365406211483 ], [ 18.526646819506979, 54.114411731615768 ], [ 18.505477457022437, 54.114671170393244 ], [ 18.48430527190288, 54.115135018035872 ], [ 18.463130051839343, 54.115795438609354 ], [ 18.441951589679793, 54.116645392170682 ], [ 18.420769682282195, 54.117678571149355 ], [ 18.399584129449696, 54.118889344511288 ], [ 18.389742499511414, 54.119533863650773 ], [ 18.378394898766469, 54.120261627034814 ], [ 18.357201831897676, 54.121789583837504 ] ] ], [ [ [ 18.79429979163055, 54.61802761110043 ], [ 18.777893227864201, 54.626722011968091 ], [ 18.772617911806044, 54.629549346068451 ], [ 18.772643745213745, 54.64110987924235 ], [ 18.756324313390902, 54.649758051861767 ], [ 18.750963651578544, 54.652627714139705 ], [ 18.734806550811903, 54.661188895347522 ], [ 18.729285666350009, 54.664141664354077 ], [ 18.729323967094931, 54.675702180813893 ], [ 18.734692980028271, 54.678616960606007 ], [ 18.740099847119449, 54.675725771584005 ], [ 18.756220993452789, 54.66702057267856 ], [ 18.761473666339299, 54.664209306971109 ], [ 18.777736787329022, 54.655412531629132 ], [ 18.782820935416847, 54.652689014071768 ], [ 18.799240357620423, 54.643792778967153 ], [ 18.804141557067002, 54.641164905125414 ], [ 18.804294489697877, 54.62960467550846 ], [ 18.820782307455318, 54.620650299819573 ], [ 18.825576589499594, 54.618076701440181 ], [ 18.825704941908633, 54.606516369718129 ], [ 18.82085594618237, 54.603886090588219 ], [ 18.815983917354227, 54.606501985619893 ], [ 18.799380619049959, 54.615302061437319 ], [ 18.79429979163055, 54.61802761110043 ] ] ], [ [ [ 18.718699592771511, 54.687238395773193 ], [ 18.713194723917191, 54.684249123414929 ], [ 18.707647890364008, 54.68721224055497 ], [ 18.713152750928575, 54.690201763379136 ], [ 18.718699592771511, 54.687238395773193 ] ] ], [ [ [ 18.676046385177752, 54.698692296021896 ], [ 18.670180376176202, 54.695503911417475 ], [ 18.664262906332809, 54.698660230841 ], [ 18.670128904495797, 54.701848900135815 ], [ 18.676046385177752, 54.698692296021896 ] ] ], [ [ [ 18.654580252928199, 54.710193416724806 ], [ 18.648613958599519, 54.706949448376157 ], [ 18.642591877261481, 54.710158665685896 ], [ 18.648558159636423, 54.713402928669069 ], [ 18.654580252928199, 54.710193416724806 ] ] ], [ [ [ 18.583960632886786, 54.729667666282467 ], [ 18.577560147549022, 54.733070284657593 ], [ 18.583890455218135, 54.736516916332953 ], [ 18.590290956520093, 54.733113965798687 ], [ 18.583960632886786, 54.729667666282467 ] ] ], [ [ [ 18.45443541389503, 54.77514418284904 ], [ 18.447545481968522, 54.778789269353616 ], [ 18.454336462101992, 54.782496260579784 ], [ 18.461226418215482, 54.778850790717648 ], [ 18.45443541389503, 54.77514418284904 ] ] ], [ [ [ 16.631757615120335, 50.116914200646349 ], [ 16.629117751034183, 50.118394685320879 ], [ 16.628295108886942, 50.129948958463473 ], [ 16.611282822793299, 50.13938198214057 ], [ 16.591935614837382, 50.139023257484737 ], [ 16.588925205792957, 50.140708901587132 ], [ 16.588116735756707, 50.152263209820497 ], [ 16.571430881644044, 50.161517239698867 ], [ 16.568037382421792, 50.163415383139174 ], [ 16.567250319177571, 50.174969991281948 ], [ 16.566477779653944, 50.186524881953972 ], [ 16.565718964279505, 50.198080038624603 ], [ 16.564973137253933, 50.209635446079218 ], [ 16.564239621688554, 50.221191090319586 ], [ 16.548555483675123, 50.229900304180426 ], [ 16.544184858263531, 50.232339761992264 ], [ 16.528579054680698, 50.24100527972994 ], [ 16.524132673232142, 50.243485065594669 ], [ 16.508593008964716, 50.252113513839099 ], [ 16.50408265604117, 50.254626994488447 ], [ 16.503367358399359, 50.26618267253528 ], [ 16.487992281685976, 50.274720572021963 ], [ 16.483320686172892, 50.277321146029188 ], [ 16.467981736028406, 50.285838280709648 ], [ 16.463275215849187, 50.288456228507876 ], [ 16.462572399931734, 50.300011942598061 ], [ 16.44734526466862, 50.308467220553808 ], [ 16.442528681092334, 50.311143542568246 ], [ 16.441835754469139, 50.322699348861192 ], [ 16.426687929301874, 50.331110480989274 ], [ 16.407265484194539, 50.330720917174439 ], [ 16.387843223598026, 50.330332782044088 ], [ 16.383100445504493, 50.332962567434706 ], [ 16.382399793208297, 50.344517912532751 ], [ 16.367147106825332, 50.352982709499663 ], [ 16.362357042928895, 50.355635883754935 ], [ 16.366841762014392, 50.358499361396895 ], [ 16.381024032863529, 50.367629117929333 ], [ 16.365870236703518, 50.376040398031321 ], [ 16.360981234928108, 50.378746886761867 ], [ 16.345785985314929, 50.387179656654681 ], [ 16.326341412524162, 50.386783756963688 ], [ 16.306897031022686, 50.386389186739642 ], [ 16.29233050430366, 50.377167986623967 ], [ 16.288110634486202, 50.374469236497184 ], [ 16.283594468118153, 50.376964152665927 ], [ 16.268008806886144, 50.385604500760792 ], [ 16.263550922913698, 50.388065265642282 ], [ 16.262841224172565, 50.39961980588776 ], [ 16.247228869694041, 50.408273609138377 ], [ 16.242797006276238, 50.41071739389578 ], [ 16.227102319264109, 50.419414839445722 ], [ 16.222752342279385, 50.421811565355341 ], [ 16.206966041888634, 50.430557672397576 ], [ 16.202707199624594, 50.43290232014504 ], [ 16.202004632506519, 50.444456707931884 ], [ 16.205996818461912, 50.447012177399472 ], [ 16.210278475318638, 50.444655500013901 ], [ 16.226134042783254, 50.43597936027242 ], [ 16.240716065280932, 50.445381734219275 ], [ 16.225076705663639, 50.454049685219978 ], [ 16.220670134747145, 50.456475579494139 ], [ 16.224780720526407, 50.459104872241653 ], [ 16.244247044880932, 50.459627557215512 ], [ 16.258751895996781, 50.468950616087881 ], [ 16.263046976937634, 50.471694400256794 ], [ 16.282519745705862, 50.472200230658991 ], [ 16.296902760036392, 50.481414604429595 ], [ 16.301335582053078, 50.48424274990839 ], [ 16.31569134434281, 50.493420720194059 ], [ 16.315073080412748, 50.504977443330645 ], [ 16.31950841193234, 50.507804455470925 ], [ 16.324252088204787, 50.505188921015133 ], [ 16.339646357510947, 50.496751780265235 ], [ 16.359131795981543, 50.49722579414609 ], [ 16.373400106705116, 50.506308912474069 ], [ 16.377979157951334, 50.509222856421168 ], [ 16.392272943969243, 50.518304294736851 ], [ 16.396836669830407, 50.521206303390052 ], [ 16.411173080649327, 50.530297131500561 ], [ 16.395867563990898, 50.538803102358635 ], [ 16.391126721701987, 50.541420214439853 ], [ 16.395567777688957, 50.544242988226721 ], [ 16.410054077808379, 50.553413740873445 ], [ 16.409504847480694, 50.564972245499256 ], [ 16.413814594532148, 50.567708897308123 ], [ 16.433331705641997, 50.56814839811598 ], [ 16.447990145882994, 50.577393068182381 ], [ 16.44746839150141, 50.588952251789685 ], [ 16.43172335593226, 50.597708600008581 ], [ 16.427423214769789, 50.600081645292434 ], [ 16.411555389001645, 50.608904534703768 ], [ 16.40737863732684, 50.611207648326072 ], [ 16.391377538330698, 50.62010283530433 ], [ 16.387334813337155, 50.62233026556919 ], [ 16.386822510294149, 50.633889428496822 ], [ 16.370540202817018, 50.642939487738907 ], [ 16.366780742378008, 50.645008621950531 ], [ 16.350337064673099, 50.654146425776837 ], [ 16.346740277084329, 50.65612444561512 ], [ 16.330123968214341, 50.665356153474704 ], [ 16.310566919470926, 50.664921638322959 ], [ 16.291010154627742, 50.664487400484703 ], [ 16.287646255320727, 50.666333930675201 ], [ 16.270778115564941, 50.675698016466328 ], [ 16.251217155894746, 50.675262989413589 ], [ 16.231656482418892, 50.674828180058235 ], [ 16.215743436164953, 50.664637178589842 ], [ 16.216563898215217, 50.653085862023417 ], [ 16.217375117279254, 50.641534304325745 ], [ 16.214163328329757, 50.639487120272236 ], [ 16.194617477689739, 50.639056810778918 ], [ 16.191240285657706, 50.64090681990654 ], [ 16.174374104269297, 50.650254299224613 ], [ 16.154824067482291, 50.649823122575619 ], [ 16.151725946881271, 50.651518012417952 ], [ 16.134566248803399, 50.661022037009076 ], [ 16.115012025293048, 50.660589945725263 ], [ 16.095458077395513, 50.66015814189921 ], [ 16.07915735593291, 50.649720320035826 ], [ 16.076626657670921, 50.648101516866028 ], [ 16.060337026012988, 50.637675433732916 ], [ 16.061158900826168, 50.626124905728986 ], [ 16.058529474984557, 50.624441323795672 ], [ 16.042319705313972, 50.614076474930123 ], [ 16.039719684235017, 50.612410467855618 ], [ 16.023468271524948, 50.602024580192442 ], [ 16.020918678440403, 50.60038965698935 ], [ 16.018171041090852, 50.601888996721172 ], [ 16.000651743075181, 50.611565854340448 ], [ 15.998122166959359, 50.612945095952021 ], [ 16.000468173563164, 50.614450020198902 ], [ 16.016871362329066, 50.62499848187759 ], [ 16.016234680896634, 50.636553534979214 ], [ 16.015606892420706, 50.648108798330775 ], [ 16.014988112345399, 50.6596642749899 ], [ 16.014378475533206, 50.671219968511132 ], [ 15.996207575623309, 50.681257887312356 ], [ 15.994337584797123, 50.682275779577047 ], [ 15.975897367463116, 50.692458479118649 ], [ 15.956331120695053, 50.692024082749313 ], [ 15.936765137453003, 50.691590120404975 ], [ 15.917199412653886, 50.691156654408054 ], [ 15.899476556739401, 50.679788837535249 ], [ 15.898401198401771, 50.679098058630544 ], [ 15.8788406629496, 50.678668005860587 ], [ 15.87784042523573, 50.67921076056701 ], [ 15.877195745784281, 50.690765060592476 ], [ 15.857726152967839, 50.701487609692855 ], [ 15.857154355923139, 50.701797544524844 ], [ 15.856522604917952, 50.713352095104277 ], [ 15.836589291678861, 50.724325172856041 ], [ 15.836485743054176, 50.724381238971674 ], [ 15.836102168382329, 50.731550910238184 ], [ 15.843600224467652, 50.736145835382544 ], [ 15.854976577433208, 50.742542172307033 ], [ 15.865932101100093, 50.748320298324181 ], [ 15.873945787203294, 50.752241672979785 ], [ 15.892183955545541, 50.760594973783306 ], [ 15.892989043889212, 50.760940277451077 ], [ 15.912101149440657, 50.768699347050969 ], [ 15.92344684182309, 50.772995990542093 ], [ 15.931262795905315, 50.775796932359171 ], [ 15.950471433590446, 50.782260271336717 ], [ 15.960931552653415, 50.785550853455241 ], [ 15.969719832295919, 50.788189513217148 ], [ 15.989005201953061, 50.793618169733975 ], [ 16.006979151062861, 50.798313644224066 ], [ 16.008320284386492, 50.798650452801922 ], [ 16.027668594118591, 50.803223524831424 ], [ 16.047041824337207, 50.807460253650532 ], [ 16.066438682507528, 50.811374761954113 ], [ 16.066570711833013, 50.811399587927774 ], [ 16.08586174892551, 50.814919334666229 ], [ 16.105305600553908, 50.818174323296425 ], [ 16.124769324743674, 50.82114881212312 ], [ 16.144252116575608, 50.82385034736766 ], [ 16.154638756126261, 50.825153166763165 ], [ 16.163754086486364, 50.82627156836741 ], [ 16.183274353592548, 50.828421356691095 ], [ 16.202811335973244, 50.830320544662982 ], [ 16.222364514557324, 50.831972637916522 ], [ 16.241933414349738, 50.833380481042646 ], [ 16.26151760031432, 50.834546305257874 ], [ 16.281116673704567, 50.835471770253932 ], [ 16.300730268805104, 50.83615800060457 ], [ 16.320358050052434, 50.836605617018016 ], [ 16.339999709508795, 50.836814762647961 ], [ 16.359654964666959, 50.836785124611183 ], [ 16.379323556567421, 50.836515950804845 ], [ 16.399005248211949, 50.836006062071114 ], [ 16.418699823259679, 50.835253859719927 ], [ 16.438407084993198, 50.83425732839342 ], [ 16.458126855543089, 50.833014034235809 ], [ 16.46685586421264, 50.832353807741782 ], [ 16.477859397252992, 50.831513294494705 ], [ 16.497604481475729, 50.829753255452914 ], [ 16.517361603422525, 50.827737198130485 ], [ 16.537130637060702, 50.825461306811341 ], [ 16.556911474625338, 50.822921282833747 ], [ 16.558242775331266, 50.822732988199235 ], [ 16.576704990472237, 50.820093712751465 ], [ 16.596510109331799, 50.81699235403056 ], [ 16.616326684704351, 50.813613182715031 ], [ 16.622432625251292, 50.81248939808583 ], [ 16.636155523117534, 50.809933157004579 ], [ 16.655995985908742, 50.805957299668741 ], [ 16.674538168094756, 50.801970249484903 ], [ 16.675847727992991, 50.801684884895337 ], [ 16.695711950710994, 50.797083722711037 ], [ 16.715587151230487, 50.792175922627429 ], [ 16.719025458492528, 50.791279154242474 ], [ 16.735474715054334, 50.786924620512337 ], [ 16.755373397773464, 50.781346513738328 ], [ 16.758344732270587, 50.780471939087683 ], [ 16.775284551800969, 50.775404191169223 ], [ 16.793765717465106, 50.769577846993904 ], [ 16.795206862908412, 50.769115552394595 ], [ 16.815141913172148, 50.762436994041465 ], [ 16.826037437634188, 50.758614385259982 ], [ 16.835088734240127, 50.755378514336506 ], [ 16.855047499589414, 50.747925508740686 ], [ 16.855893798946759, 50.747597657206363 ], [ 16.875019576684402, 50.740036428583885 ], [ 16.883539012863206, 50.736533216189564 ], [ 16.895004165688658, 50.731716427441576 ], [ 16.909423789407331, 50.72543071085957 ], [ 16.91500167864346, 50.722943557275357 ], [ 16.933739233076597, 50.714294694467505 ], [ 16.935012625951991, 50.71369274448783 ], [ 16.955038002375002, 50.703926758644464 ], [ 16.956626756265745, 50.703128621787101 ], [ 16.975078265562235, 50.693619301515874 ], [ 16.978252293342457, 50.691936206731839 ], [ 16.995133966407899, 50.682740783369738 ], [ 16.998746091040086, 50.680720383262482 ], [ 17.015206072113234, 50.67125048838917 ], [ 17.018202914805855, 50.66948335533705 ], [ 17.03529572874438, 50.659101666839803 ], [ 17.036703393132715, 50.658226996530537 ], [ 17.054309553511374, 50.646952794118505 ], [ 17.055404740986898, 50.646229584255487 ], [ 17.071078573863161, 50.63566209640733 ], [ 17.075535399724636, 50.632554750065175 ], [ 17.087072206334259, 50.624356275385622 ], [ 17.095689230142096, 50.618013076708287 ], [ 17.102333153018481, 50.613036342787893 ], [ 17.115868671404936, 50.60251467819311 ], [ 17.116896263974766, 50.601703146914133 ], [ 17.130783754493873, 50.590357303098571 ], [ 17.136080460330707, 50.585856698627843 ], [ 17.144037190064765, 50.578999712659353 ], [ 17.156326529621527, 50.567949873227185 ], [ 17.156676824674715, 50.567630910037877 ], [ 17.168720823866309, 50.55625137826447 ], [ 17.176618988336241, 50.548436869874337 ], [ 17.180192861622608, 50.544861669773482 ], [ 17.191104542131061, 50.533462131608211 ], [ 17.19696627883334, 50.527039246823939 ], [ 17.201473822614297, 50.522053196524375 ], [ 17.211308366525515, 50.510635125061022 ], [ 17.217386909602627, 50.503197378502314 ], [ 17.220621218435806, 50.499208250078965 ], [ 17.229419501773833, 50.487772803141979 ], [ 17.237705819314659, 50.476328938377442 ], [ 17.23791028549816, 50.4760302078476 ], [ 17.24549565562938, 50.464876996684211 ], [ 17.252780307335588, 50.453416945189119 ], [ 17.258603483491772, 50.443584325151981 ], [ 17.259567268146071, 50.441948988999869 ], [ 17.265860950174883, 50.430473279149147 ], [ 17.271653053118509, 50.418989770560671 ], [ 17.276944418124717, 50.407498548807169 ], [ 17.279633045537583, 50.401053403339098 ], [ 17.281734582149021, 50.395999673593295 ], [ 17.286015800330919, 50.384493090921033 ], [ 17.289780485052333, 50.372978743616343 ], [ 17.293021846410134, 50.361456580366877 ], [ 17.295730896373012, 50.349926511377447 ], [ 17.297896427918822, 50.338388407947335 ], [ 17.299504976785659, 50.326842101634647 ], [ 17.282329410941887, 50.326427917323841 ], [ 17.282052095687931, 50.326585486431433 ], [ 17.262484489696931, 50.337536553226634 ], [ 17.243057270148448, 50.337073515428663 ], [ 17.242200627852142, 50.337559619364917 ], [ 17.223198260956764, 50.348191288525491 ], [ 17.222083074101793, 50.348823607096165 ], [ 17.221683847944558, 50.360387395334655 ], [ 17.202891970535681, 50.370902195233043 ], [ 17.201575252646837, 50.371647999017128 ], [ 17.201185914276717, 50.383211853457397 ], [ 17.182565243942623, 50.393631367846844 ], [ 17.163115463654556, 50.393175181063611 ], [ 17.146066691153838, 50.382346159351727 ], [ 17.144118588506128, 50.381128759358944 ], [ 17.142077928088415, 50.382282497807857 ], [ 17.124216577730909, 50.392271087873745 ], [ 17.121988599019506, 50.39352973973179 ], [ 17.121588392049073, 50.405093209763301 ], [ 17.103841897000521, 50.415017738373031 ], [ 17.084383624675631, 50.414569701444485 ], [ 17.064925574719357, 50.414124204094733 ], [ 17.045467746118231, 50.413681184840819 ], [ 17.042490404169541, 50.415358772288378 ], [ 17.02552785592048, 50.424838882534992 ], [ 17.006065781049102, 50.424399119105779 ], [ 16.986603928870814, 50.423961590806101 ], [ 16.967142299937553, 50.423526210669607 ], [ 16.963501867221627, 50.425572592645153 ], [ 16.947179356447567, 50.434689501203472 ], [ 16.943440221283879, 50.436789707048924 ], [ 16.927206748970729, 50.445855933563344 ], [ 16.923380404025153, 50.448003425997975 ], [ 16.907224470737241, 50.457025345640098 ], [ 16.892164088632803, 50.447441968587512 ], [ 16.888266325489617, 50.444992657573913 ], [ 16.873390029641008, 50.435530070516592 ], [ 16.873958351905014, 50.423970252209834 ], [ 16.869837543558095, 50.421378258939463 ], [ 16.855169109562066, 50.412055011684366 ], [ 16.870646873540693, 50.403333051256709 ], [ 16.875072771029199, 50.400850146129599 ], [ 16.890618714173101, 50.392076748191791 ], [ 16.894956168781714, 50.389641540028165 ], [ 16.910581409201882, 50.380810212915378 ], [ 16.914818999328933, 50.378429197397935 ], [ 16.9153445953879, 50.366868372976391 ], [ 16.915862377327358, 50.355307387459959 ], [ 16.931539945847103, 50.346421896215375 ], [ 16.935683249731049, 50.344090776072171 ], [ 16.936182321872728, 50.332529357020306 ], [ 16.936673128393824, 50.320967770298225 ], [ 16.952469293635939, 50.311989509413245 ], [ 16.956450049722442, 50.309746883273384 ], [ 16.972385078262967, 50.300675528479438 ], [ 16.991804208729778, 50.300929180816745 ], [ 16.99547882404481, 50.298856326571908 ], [ 17.011706692209021, 50.289595428471884 ], [ 17.015197840362248, 50.287624523961085 ], [ 17.015641822173905, 50.276061830996774 ], [ 17.016076258815492, 50.264498954115929 ], [ 17.012836878388448, 50.262462583608702 ], [ 16.99724714498074, 50.252605575315769 ], [ 16.997664689466774, 50.241042412438894 ], [ 17.014119572235515, 50.231617875576383 ], [ 17.017319161935831, 50.229809167082706 ], [ 17.01427428895952, 50.227893790990528 ], [ 16.994891600697656, 50.227477528061819 ], [ 16.991548269232219, 50.229366437276624 ], [ 16.990984945872452, 50.240927084955381 ], [ 16.974532887090316, 50.250099400999495 ], [ 16.959136510112209, 50.240371926526251 ], [ 16.95954970150347, 50.228808754127108 ], [ 16.956126805231897, 50.226652180519345 ], [ 16.936744700700409, 50.226242880476185 ], [ 16.917362793343713, 50.225835694357492 ], [ 16.897981084325941, 50.225430528063207 ], [ 16.882815623422591, 50.215864893990123 ], [ 16.883218182517922, 50.204301656938917 ], [ 16.879619521139794, 50.202028556695886 ], [ 16.860247403818637, 50.201629861288275 ], [ 16.8563778471155, 50.203809335199765 ], [ 16.840356635182527, 50.212726403081575 ], [ 16.825286518817499, 50.203231275110994 ], [ 16.825684782900165, 50.191668057647142 ], [ 16.822026524274065, 50.18935314807878 ], [ 16.802659559478521, 50.18896156043494 ], [ 16.787417853223008, 50.179374472878891 ], [ 16.787794625088754, 50.167810883665943 ], [ 16.788157454231179, 50.156247008928773 ], [ 16.784884354603896, 50.154172270693969 ], [ 16.769171952363333, 50.144312904623611 ], [ 16.766064995490609, 50.142342009636145 ], [ 16.74671672307641, 50.141963881868115 ], [ 16.730814716462323, 50.131998524079606 ], [ 16.731133953458102, 50.120433836033627 ], [ 16.728451448119078, 50.118729650324944 ], [ 16.71207691917105, 50.108488758889706 ], [ 16.709657074717335, 50.106950293676583 ], [ 16.690322651242901, 50.106587386682214 ], [ 16.670988334243738, 50.106227353633273 ], [ 16.668505488611281, 50.107621588867566 ], [ 16.651096162660398, 50.117271726349266 ], [ 16.631757615120335, 50.116914200646349 ] ] ] ] } }
]
}
