{
"type": "FeatureCollection",
"name": "ryzyko_cykl4_nasil3",
"crs": { "type": "name", "properties": { "name": "urn:ogc:def:crs:OGC:1.3:CRS84" } },
"features": [
{ "type": "Feature", "properties": { "cykl": 4, "gatunek": "Wszystkie", "prog_nasilenia": 3, "percentyl": 95, "prog_ryzyka": 1.2637834938068035, "liczba_traktow": 10494 }, "geometry": { "type": "MultiPolygon", "coordinates": [ [ [ [ 22.314472472285615, 53.02765531840069 ], [ 22.294236779169257, 53.032952078005465 ], [ 22.287085310562659, 53.035031769098268 ], [ 22.274043600119807, 53.038873126297887 ], [ 22.253888084029647, 53.045365394182227 ], [ 22.247229049544561, 53.04769625633044 ], [ 22.233772976085191, 53.052475856810588 ], [ 22.213691888503746, 53.060129968838126 ], [ 22.213570365358844, 53.060179675179107 ], [ 22.193653970463906, 53.068461167240486 ], [ 22.184421773864667, 53.072532583063349 ], [ 22.173650911765627, 53.07736886155174 ], [ 22.157962417878082, 53.08480672842996 ], [ 22.153683575844298, 53.086875365036008 ], [ 22.133753022602686, 53.097006190530742 ], [ 22.133734614553241, 53.097016001395851 ], [ 22.113863571674102, 53.107832510536824 ], [ 22.111510074022576, 53.109167765313778 ], [ 22.094011967191125, 53.119321758022835 ], [ 22.090767990541234, 53.121276700181696 ], [ 22.07419946573124, 53.131503694250554 ], [ 22.071311181724088, 53.133348689465798 ], [ 22.054427446617471, 53.144410479842762 ], [ 22.052980153495437, 53.145388471061857 ], [ 22.035684044135415, 53.157398895961151 ], [ 22.034699256598174, 53.158102872626905 ], [ 22.019356826892757, 53.169382102046391 ], [ 22.015019827909494, 53.172665634967146 ], [ 22.003839552188211, 53.181342510029154 ], [ 21.995388474395984, 53.18810494927704 ], [ 21.989056641048194, 53.19328234318894 ], [ 21.975807136012239, 53.204464944170958 ], [ 21.97494830826281, 53.20520337686974 ], [ 21.961608209220973, 53.217103528813055 ], [ 21.956293076297797, 53.222013063519668 ], [ 21.948860733473243, 53.2289874136207 ], [ 21.936839417311212, 53.240670680262703 ], [ 21.936650567640221, 53.240856591555783 ], [ 21.925118856445749, 53.252707767709857 ], [ 21.917473836085062, 53.260864480941237 ], [ 21.914057781813575, 53.264546229175501 ], [ 21.903556412599148, 53.276369941459933 ], [ 21.898199330114245, 53.282666596459464 ], [ 21.893542597576577, 53.288180810015952 ], [ 21.884026850642755, 53.299978708178116 ], [ 21.879039649698438, 53.30645880537169 ], [ 21.874975608311775, 53.311764569631535 ], [ 21.866401353196608, 53.323538204587791 ], [ 21.860024992037104, 53.332727641341634 ], [ 21.858243083986586, 53.335301182891016 ], [ 21.850566865027801, 53.347052014708837 ], [ 21.843272905010007, 53.358793176782946 ], [ 21.841209397105331, 53.362328200637613 ], [ 21.836424098960585, 53.370523247251526 ], [ 21.829977939414494, 53.382243315351062 ], [ 21.823900573131457, 53.39395425136199 ], [ 21.822671332532231, 53.396502191399776 ], [ 21.818243513542928, 53.405654898407555 ], [ 21.812960859626603, 53.41734640206144 ], [ 21.808030875137604, 53.429029326845246 ], [ 21.804577862255421, 53.437859797156463 ], [ 21.803460160015568, 53.440703564664325 ], [ 21.799269584728467, 53.452368670684429 ], [ 21.795413502158674, 53.464025757054429 ], [ 21.791884849101265, 53.475675024315628 ], [ 21.788676652220367, 53.487316667244876 ], [ 21.787338622361354, 53.492753416686952 ], [ 21.785802278988953, 53.498950402758219 ], [ 21.783252605432889, 53.510576470493554 ], [ 21.781004627351987, 53.522195429577494 ], [ 21.779052108089978, 53.533807444753933 ], [ 21.777389303910631, 53.545412666600519 ], [ 21.776011081710887, 53.557011228984692 ], [ 21.774913052872471, 53.568603246132987 ], [ 21.774091724882705, 53.580188809272045 ], [ 21.773544672747779, 53.591767982789591 ], [ 21.773389057072677, 53.598553830858172 ], [ 21.773276861206103, 53.603340657724203 ], [ 21.773288187827536, 53.614906840783888 ], [ 21.773572027865903, 53.626466687960544 ], [ 21.77413166126836, 53.63802012365462 ], [ 21.774972572496388, 53.649567019223511 ], [ 21.776102790620619, 53.661107184944903 ], [ 21.777533280621103, 53.672640360691858 ], [ 21.778816188063871, 53.681145122610964 ], [ 21.779284189360496, 53.684166070529628 ], [ 21.781393373319027, 53.695683423625482 ], [ 21.783870902684122, 53.70719217005793 ], [ 21.786747602980075, 53.718691572792501 ], [ 21.790061070000871, 53.73018073066816 ], [ 21.793856884298528, 53.741658548031637 ], [ 21.79819009490312, 53.75312369732702 ], [ 21.803127047185821, 53.764574572601667 ], [ 21.805675155140353, 53.769849953096156 ], [ 21.808853661665399, 53.776006745945828 ], [ 21.815499651358795, 53.787417063369311 ], [ 21.823113734048029, 53.79880423242507 ], [ 21.829159569521444, 53.806763175666354 ], [ 21.831987365843624, 53.810161190806035 ], [ 21.842592072580448, 53.821476488871809 ], [ 21.8517537566096, 53.829958015825504 ], [ 21.855136865033856, 53.832744704758653 ], [ 21.87058162505306, 53.843942268478258 ], [ 21.873887375576302, 53.846061402328147 ], [ 21.890198417716647, 53.855037430253631 ], [ 21.895731353853176, 53.857722029174752 ], [ 21.916261346207211, 53.865972897756961 ], [ 21.91737810075989, 53.866372302301762 ], [ 21.938870782379784, 53.872696741575481 ], [ 21.956216662279452, 53.876561210959942 ], [ 21.960253453394468, 53.877370823857717 ], [ 21.981538332563048, 53.880602498405445 ], [ 22.002748503358614, 53.88274481893562 ], [ 22.023893724208239, 53.883956082742493 ], [ 22.044981936314745, 53.884365006542083 ], [ 22.066019629739841, 53.88407681419033 ], [ 22.087012122884801, 53.883177875910746 ], [ 22.107963778133325, 53.881739282838637 ], [ 22.128878169827047, 53.879819628787573 ], [ 22.149758216222004, 53.877467194631748 ], [ 22.170606283926087, 53.874721677565425 ], [ 22.191424271094164, 53.871615570075129 ], [ 22.199111592050151, 53.870327482119386 ], [ 22.212211224131984, 53.868143322401764 ], [ 22.232969187411882, 53.864338340326235 ], [ 22.253700612681538, 53.860238412640314 ], [ 22.269616021275727, 53.856857949814533 ], [ 22.274405067428471, 53.855843461130107 ], [ 22.295080374596868, 53.85113120130783 ], [ 22.315730459543282, 53.846157009055823 ], [ 22.325100870146532, 53.843763912634465 ], [ 22.336352518193646, 53.840890349528607 ], [ 22.35694685630936, 53.835340239987922 ], [ 22.37277738464293, 53.830863704981866 ], [ 22.377514270099944, 53.829521553374413 ], [ 22.398051229263771, 53.823395385968389 ], [ 22.415051862456501, 53.818098192365078 ], [ 22.418560452485465, 53.817000408959444 ], [ 22.439037110433539, 53.810282275741464 ], [ 22.453200184559854, 53.805436393606087 ], [ 22.459483358804352, 53.803272606780304 ], [ 22.479895495202459, 53.79593160353042 ], [ 22.488099858069422, 53.792856753495457 ], [ 22.500272574769962, 53.788253415401023 ], [ 22.520359728303863, 53.780344257968153 ], [ 22.520614538202391, 53.780242858141413 ], [ 22.540914744751337, 53.771826505535287 ], [ 22.550023846131641, 53.767899768058918 ], [ 22.561174648588455, 53.76302803360543 ], [ 22.577734976258842, 53.755506039949672 ], [ 22.581391366875252, 53.753819650534112 ], [ 22.601560259900587, 53.744153591809322 ], [ 22.603553531905085, 53.743162635936088 ], [ 22.621676925266641, 53.733985799454238 ], [ 22.627615915657092, 53.730866670635535 ], [ 22.64173892487328, 53.723295771264347 ], [ 22.65016904564126, 53.718611694371134 ], [ 22.661741240065336, 53.712033679193247 ], [ 22.671319111144321, 53.706395321507266 ], [ 22.681678068735444, 53.700141657154049 ], [ 22.691166641790154, 53.694215212328395 ], [ 22.701542679047993, 53.687552310607536 ], [ 22.70980525786949, 53.682069128266889 ], [ 22.721327236973103, 53.674186964377789 ], [ 22.727320820582591, 53.669954974086266 ], [ 22.741022602336166, 53.659953594509332 ], [ 22.743790914923654, 53.657870828654382 ], [ 22.759255269589584, 53.645815888295985 ], [ 22.76061552346744, 53.644715603495754 ], [ 22.773736976469667, 53.633789827309869 ], [ 22.78008723976308, 53.628277163853163 ], [ 22.787359847021612, 53.621789092459125 ], [ 22.799426296519442, 53.610526983104741 ], [ 22.800172575250862, 53.609812440126277 ], [ 22.812109748215192, 53.597862228211682 ], [ 22.818591898128904, 53.591030412073387 ], [ 22.823314459701411, 53.585934151455902 ], [ 22.833773311196683, 53.574028855400911 ], [ 22.837553749813367, 53.569475536302519 ], [ 22.843510113633652, 53.562145779404716 ], [ 22.852572205176941, 53.550283582322507 ], [ 22.856245137463283, 53.545154717315533 ], [ 22.860961177816854, 53.538442374987 ], [ 22.868705510440329, 53.526621385163132 ], [ 22.874562553728346, 53.516967478081554 ], [ 22.875844451804657, 53.514819472321328 ], [ 22.88234538614498, 53.503037813704864 ], [ 22.888276192937603, 53.491274310280957 ], [ 22.892282684093992, 53.482520223909589 ], [ 22.893633544308301, 53.479529162923249 ], [ 22.898410151377565, 53.467802694331851 ], [ 22.902645266111477, 53.456093697605326 ], [ 22.906346199983645, 53.444401997834568 ], [ 22.908806859419283, 53.435361095690666 ], [ 22.909517040607948, 53.432727517491294 ], [ 22.91216047981235, 53.421070217204353 ], [ 22.914295686888046, 53.409429509365452 ], [ 22.91592920218357, 53.397805212777676 ], [ 22.917067255155413, 53.386197149573093 ], [ 22.917715647700149, 53.374605149332588 ], [ 22.917879626823527, 53.363029053538305 ], [ 22.917563747890906, 53.351468720307295 ], [ 22.916771729552686, 53.339924029361299 ], [ 22.915506301235521, 53.328394887191273 ], [ 22.913769043844418, 53.316881232384233 ], [ 22.911560224037743, 53.305383041087424 ], [ 22.90887862212621, 53.293900332594511 ], [ 22.905721353311908, 53.282433175048126 ], [ 22.902083681632277, 53.270981691263323 ], [ 22.897958825609198, 53.259546064686425 ], [ 22.893337754227289, 53.248126545513301 ], [ 22.891279459817103, 53.243542337675073 ], [ 22.888211471506605, 53.236723375332566 ], [ 22.882566178680619, 53.2253369445733 ], [ 22.876383069969602, 53.213967797609428 ], [ 22.869641509648471, 53.202616527491699 ], [ 22.866382460067385, 53.197558307050073 ], [ 22.862311730320528, 53.19128401158747 ], [ 22.854364890732136, 53.179971081817783 ], [ 22.845771976368368, 53.168678558996689 ], [ 22.842739812654596, 53.164974333702247 ], [ 22.83646614133303, 53.157408465984254 ], [ 22.826411279173698, 53.146161804386502 ], [ 22.819742050022199, 53.139230758194337 ], [ 22.81553418962206, 53.134940740529096 ], [ 22.803742056803163, 53.123748026255541 ], [ 22.797165667949173, 53.117939947161894 ], [ 22.790939532354237, 53.112586438627062 ], [ 22.77701844810688, 53.101459097789643 ], [ 22.774894800369509, 53.099871464485823 ], [ 22.761725189788237, 53.090373648042089 ], [ 22.752872507401079, 53.084436009570538 ], [ 22.744920218523195, 53.079333969279169 ], [ 22.731043326005139, 53.071044350622863 ], [ 22.726280578339889, 53.068349561034033 ], [ 22.709381419861565, 53.059435554065004 ], [ 22.705329079174856, 53.05743445739693 ], [ 22.687864533306225, 53.049383232963521 ], [ 22.681347214117412, 53.046609719827565 ], [ 22.666473552190414, 53.040691745595815 ], [ 22.65322172144128, 53.035907776675892 ], [ 22.645192159196927, 53.033193284109231 ], [ 22.624011162393192, 53.026800471492166 ], [ 22.618711505908539, 53.025394007880905 ], [ 22.602924833103575, 53.021465033160887 ], [ 22.581918816067546, 53.017033243179931 ], [ 22.571669084827018, 53.015247901118499 ], [ 22.560991535760159, 53.013502500198236 ], [ 22.540137717043475, 53.010824820395911 ], [ 22.519349068592373, 53.008913876373136 ], [ 22.498622916941073, 53.007750526367147 ], [ 22.477956569472358, 53.007314820575132 ], [ 22.457347333283739, 53.007586224631986 ], [ 22.436792532425699, 53.008543830549385 ], [ 22.416289523335553, 53.010166552138863 ], [ 22.39583570836832, 53.012433302826253 ], [ 22.375428547391778, 53.015323154548135 ], [ 22.355065567467395, 53.018815477097611 ], [ 22.339177135527041, 53.022010348890426 ], [ 22.33474595789561, 53.022910617427208 ], [ 22.314472472285615, 53.02765531840069 ] ] ], [ [ [ 19.7723901212903, 49.237653352998798 ], [ 19.791385945674222, 49.248988283814349 ], [ 19.791403758938824, 49.260559394455868 ], [ 19.791767400891676, 49.260776064983816 ], [ 19.810637811026378, 49.271997255894313 ], [ 19.81097102260123, 49.27219564664005 ], [ 19.829906262480698, 49.283431661688539 ], [ 19.811341500269688, 49.29478037193266 ], [ 19.810764686765353, 49.295138733413047 ], [ 19.810849266198002, 49.306709289618468 ], [ 19.81094701392967, 49.318279730607081 ], [ 19.811057306063883, 49.329850060742899 ], [ 19.81117956994148, 49.341420284027514 ], [ 19.811313280171696, 49.352990404128377 ], [ 19.811457954998012, 49.364560424404743 ], [ 19.811613152965215, 49.376130347931365 ], [ 19.793794583103942, 49.38703910048136 ], [ 19.792512372518296, 49.38783385157712 ], [ 19.792680769931607, 49.399403656169419 ], [ 19.792858558713366, 49.410973373431595 ], [ 19.775275592680284, 49.421738325279421 ], [ 19.757754539302457, 49.411208755187765 ], [ 19.756019400955857, 49.410177159943181 ], [ 19.738683455443709, 49.399761250106444 ], [ 19.736772419725721, 49.398624226915068 ], [ 19.719601961800507, 49.388310656351614 ], [ 19.717534632828016, 49.387079720958475 ], [ 19.715503528703575, 49.388336093295166 ], [ 19.698633498989246, 49.39864328337331 ], [ 19.696400274091847, 49.400023660159427 ], [ 19.67972357331351, 49.410210224695021 ], [ 19.660649640682184, 49.410219297504781 ], [ 19.641575716524844, 49.410228704967913 ], [ 19.638823327716405, 49.41192699169558 ], [ 19.638956629907153, 49.423497107546424 ], [ 19.641770583818278, 49.425174815721327 ], [ 19.658346872920916, 49.434959176319609 ], [ 19.642028316377814, 49.444923508461621 ], [ 19.639249160381478, 49.446637126811218 ], [ 19.623087575766093, 49.456503105498321 ], [ 19.603995654306463, 49.456508106920019 ], [ 19.584903743344857, 49.456513450337766 ], [ 19.581656959305075, 49.458511882754621 ], [ 19.581803610658415, 49.470081886056697 ], [ 19.566078569801132, 49.479673081816763 ], [ 19.562705732556676, 49.481747082611506 ], [ 19.562861110987438, 49.493317015410135 ], [ 19.563023923058232, 49.504886888879703 ], [ 19.547365199569715, 49.514437511493881 ], [ 19.543927443104149, 49.516548885047229 ], [ 19.544098040246375, 49.528118696632603 ], [ 19.544275661829793, 49.539688451979281 ], [ 19.544460199189505, 49.551258151574679 ], [ 19.528751119926845, 49.560839811227773 ], [ 19.525364217499913, 49.562916959949042 ], [ 19.525555691455395, 49.574486606425559 ], [ 19.509860334654974, 49.584058326213089 ], [ 19.490718617410895, 49.584052054501491 ], [ 19.487170185873396, 49.58622502888695 ], [ 19.471688902763347, 49.595661120162454 ], [ 19.468072138601642, 49.597874289978492 ], [ 19.468263712868183, 49.609443945393316 ], [ 19.4527578372996, 49.618893645074508 ], [ 19.437350867032155, 49.609564863090796 ], [ 19.437324287473228, 49.597994541347497 ], [ 19.433396440569112, 49.595648311288208 ], [ 19.414250233870092, 49.59564252021616 ], [ 19.399248693494382, 49.58656169476339 ], [ 19.399214318662718, 49.574991354090272 ], [ 19.39491660428564, 49.572420332316604 ], [ 19.375779527567399, 49.572417596174972 ], [ 19.361117228807736, 49.56354601702256 ], [ 19.361074638884126, 49.551975652670315 ], [ 19.361025209302639, 49.540405286493652 ], [ 19.356389235886788, 49.537627072430602 ], [ 19.337265793706944, 49.537628594351936 ], [ 19.318142358829604, 49.537630518059338 ], [ 19.299018930519097, 49.537632854741439 ], [ 19.279895508037079, 49.537635618173987 ], [ 19.265761888532936, 49.529092760372919 ], [ 19.260710485076334, 49.526057161309694 ], [ 19.246653362285734, 49.517564524099782 ], [ 19.241534573273068, 49.51448612668554 ], [ 19.227535759831607, 49.506033131918052 ], [ 19.227473551324326, 49.494462663359386 ], [ 19.227403308336999, 49.482892187348938 ], [ 19.222263023877293, 49.479797061930867 ], [ 19.20826373271391, 49.471357593700162 ], [ 19.222186272379332, 49.462830710581677 ], [ 19.227237721143243, 49.459751214878679 ], [ 19.222158517579661, 49.456691398703704 ], [ 19.203066670154779, 49.456706050911968 ], [ 19.189020267388887, 49.448249304824053 ], [ 19.188918319762415, 49.436678768822546 ], [ 19.18880656482899, 49.425108225517455 ], [ 19.188684579871456, 49.413537675571547 ], [ 19.183802364560961, 49.410590720406013 ], [ 19.164728427478479, 49.410614507836733 ], [ 19.145654478161266, 49.410639451329978 ], [ 19.126580515185076, 49.410665644661655 ], [ 19.107506537000379, 49.410693190789146 ], [ 19.102652261065938, 49.413646052772641 ], [ 19.088453229056036, 49.422234907403052 ], [ 19.074173181445808, 49.413667827402271 ], [ 19.069358528080642, 49.410752803753482 ], [ 19.050284493463661, 49.410785129484097 ], [ 19.035811229962153, 49.402115308248689 ], [ 19.031203149051088, 49.399321856869562 ], [ 19.012133519951277, 49.39936105847719 ], [ 18.993063860366075, 49.399402613106453 ], [ 18.97399416713473, 49.399446722957897 ], [ 18.969590128617089, 49.402116854951565 ], [ 18.969446734167366, 49.413687579853701 ], [ 18.973985188378634, 49.416442535158183 ], [ 18.988329558860634, 49.42526176655052 ], [ 18.988221347119627, 49.436832471512787 ], [ 18.988124915743434, 49.448403154312608 ], [ 18.973963746687133, 49.456964287370255 ], [ 18.968999840127086, 49.45997027901835 ], [ 18.968916943234923, 49.471540903122396 ], [ 18.968844611575687, 49.483111506748273 ], [ 18.968782438073653, 49.494682089806979 ], [ 18.96873005359269, 49.506252652216112 ], [ 18.954818681942225, 49.51467033952936 ], [ 18.949614533528099, 49.51781646026857 ], [ 18.935689060003622, 49.526242882120386 ], [ 18.91657006351225, 49.526264586787477 ], [ 18.902491326922089, 49.517786343219129 ], [ 18.897475187246215, 49.514741928736434 ], [ 18.878360638132495, 49.514770054278522 ], [ 18.873407782928595, 49.517758177690929 ], [ 18.859212926357024, 49.526342265910664 ], [ 18.854296448717612, 49.529306225034539 ], [ 18.854224388463471, 49.540876646810872 ], [ 18.854162043181315, 49.55244705755355 ], [ 18.839980686954398, 49.561026795121101 ], [ 18.835056311091673, 49.563991870963115 ], [ 18.83500477001056, 49.575562242016574 ], [ 18.834962349503773, 49.587132602826507 ], [ 18.834928828984182, 49.598702953087383 ], [ 18.834904009973265, 49.610273292522947 ], [ 18.82063602164828, 49.618911742145372 ], [ 18.815806329825332, 49.621814834664406 ], [ 18.815791312045416, 49.633385141077845 ], [ 18.815784655012941, 49.644955437572193 ], [ 18.815786219140001, 49.656525723925739 ], [ 18.815795877196123, 49.668095999934735 ], [ 18.801244818964818, 49.676911052208325 ], [ 18.79670654823795, 49.679634301234607 ], [ 18.782014878348942, 49.688534663115476 ], [ 18.762832248640652, 49.688549820364507 ], [ 18.747954528144419, 49.67953846035109 ], [ 18.743710607517986, 49.676960719004363 ], [ 18.739439691289903, 49.679519615878775 ], [ 18.724466897658061, 49.68858765902943 ], [ 18.720361814295327, 49.691045348415081 ], [ 18.720362105803368, 49.702615553139672 ], [ 18.705143674492401, 49.711833444077605 ], [ 18.685951774586471, 49.711856718935856 ], [ 18.666759828458236, 49.711883231438932 ], [ 18.647567829905899, 49.711913261318834 ], [ 18.644112777136531, 49.713976560736732 ], [ 18.64410201369612, 49.725546699652753 ], [ 18.628198407764451, 49.735177799419198 ], [ 18.62504891643583, 49.737056748721216 ], [ 18.625048002570836, 49.748626875598568 ], [ 18.625055344048153, 49.760197006059961 ], [ 18.625070744066345, 49.77176713946313 ], [ 18.608622936489777, 49.781727767306734 ], [ 18.60602725864269, 49.783274020171469 ], [ 18.606051474985556, 49.794844144198677 ], [ 18.58920638791934, 49.805043492862119 ], [ 18.587014521534062, 49.806347889845014 ], [ 18.587046789936903, 49.817918004915938 ], [ 18.569770962066759, 49.82837502394446 ], [ 18.56801558493143, 49.829418618270175 ], [ 18.569752332773806, 49.830475200653488 ], [ 18.587132122020151, 49.841058239749572 ], [ 18.58718455893132, 49.852628357257856 ], [ 18.588794877459907, 49.853607055865574 ], [ 18.606344630462001, 49.864264904795618 ], [ 18.588613308847481, 49.874992465588626 ], [ 18.587307229382585, 49.875768586185039 ], [ 18.587376685289218, 49.887338694812044 ], [ 18.587450988504283, 49.898908797516555 ], [ 18.587529676286113, 49.910478892641336 ], [ 18.568940915613062, 49.921710882246543 ], [ 18.568488367723297, 49.9219794020241 ], [ 18.549556895840205, 49.933411754982018 ], [ 18.53708119284348, 49.93342807696839 ], [ 18.549491756624864, 49.94039858618342 ], [ 18.558530555757638, 49.945081455317776 ], [ 18.568686417609793, 49.950230495647197 ], [ 18.582656486650571, 49.956740492697158 ], [ 18.587896703746182, 49.959145203533822 ], [ 18.607120649176256, 49.967251365459646 ], [ 18.610100153536969, 49.968405674577653 ], [ 18.626356455577621, 49.974657837864299 ], [ 18.641873710391621, 49.980077773862185 ], [ 18.645603195616911, 49.981378106794004 ], [ 18.664859264778382, 49.987525921130839 ], [ 18.679543255186061, 49.991757567746063 ], [ 18.684124090816635, 49.993084830798779 ], [ 18.703396342062621, 49.998157360707168 ], [ 18.722675745898883, 50.002690176411562 ], [ 18.72626098844944, 50.003446791363459 ], [ 18.741960997960504, 50.006806587808128 ], [ 18.76125183547822, 50.010459258325547 ], [ 18.780547672511229, 50.013655057977367 ], [ 18.790960790368057, 50.015150951533634 ], [ 18.799847703248588, 50.016456287427111 ], [ 18.819151399126714, 50.018877825992959 ], [ 18.838458403570648, 50.020890256837809 ], [ 18.857768185357745, 50.022507239213112 ], [ 18.87708024163182, 50.023739782904997 ], [ 18.896394092186462, 50.024596469561018 ], [ 18.915709274339871, 50.025083634374816 ], [ 18.935025338285435, 50.025205513683339 ], [ 18.954341842820256, 50.024964362992634 ], [ 18.973658351368755, 50.024360549114668 ], [ 18.992974428229925, 50.023392619424996 ], [ 19.012289634986253, 50.022057350706298 ], [ 19.031603527019918, 50.020349779602554 ], [ 19.050915650087852, 50.018263216352501 ], [ 19.070225536912311, 50.01578924318467 ], [ 19.073432717318944, 50.015315992517294 ], [ 19.089532872505359, 50.013008527568026 ], [ 19.108837141859237, 50.009855826012711 ], [ 19.128137820580431, 50.006301544732807 ], [ 19.140910798579043, 50.003684114825354 ], [ 19.147434535064253, 50.002380746064048 ], [ 19.166727020163513, 49.998143508485505 ], [ 19.186014483299534, 49.993482317838328 ], [ 19.191509234462135, 49.992042050326397 ], [ 19.205296882271035, 49.988506168760075 ], [ 19.224573508188975, 49.983143357858388 ], [ 19.233747036632206, 49.980395030679716 ], [ 19.243844061967199, 49.977425782849977 ], [ 19.263108082258352, 49.971346136366265 ], [ 19.270828136242514, 49.968744751377741 ], [ 19.282365213550658, 49.964917077347302 ], [ 19.301614809026042, 49.95810129662015 ], [ 19.304311260172483, 49.957092078303887 ], [ 19.320856931559774, 49.950977109730132 ], [ 19.334980221627536, 49.945437865828602 ], [ 19.340090574222284, 49.94345311244102 ], [ 19.3593157056529, 49.935588466811801 ], [ 19.363520500213067, 49.933782199626087 ], [ 19.378531899722191, 49.92737985052333 ], [ 19.390259684402007, 49.922125549066926 ], [ 19.397738449202638, 49.918790303159618 ], [ 19.415562152092132, 49.910467854690822 ], [ 19.416934980415533, 49.909828212206179 ], [ 19.436121328659461, 49.90052356235821 ], [ 19.439517446477844, 49.898809717427952 ], [ 19.455296808601876, 49.890845867448029 ], [ 19.462343856974289, 49.887151101998775 ], [ 19.474460870021961, 49.880783207189204 ], [ 19.484177998714276, 49.875492104673228 ], [ 19.493613024489811, 49.870331440936845 ], [ 19.505108447004158, 49.863832900167758 ], [ 19.512752742409166, 49.85948302957258 ], [ 19.525210515393262, 49.852173636782716 ], [ 19.531879448630143, 49.848227233305842 ], [ 19.544548451304724, 49.840514443720799 ], [ 19.550992517926726, 49.836550253315593 ], [ 19.563177182251874, 49.828855436635394 ], [ 19.570091270233856, 49.824435321240514 ], [ 19.581143715949384, 49.817196721893573 ], [ 19.589174965524062, 49.81186273815316 ], [ 19.598488271449792, 49.805538399893585 ], [ 19.60824279818231, 49.798809862452877 ], [ 19.615245199477645, 49.793880567679096 ], [ 19.627293890710035, 49.785251043963562 ], [ 19.631443736253274, 49.782223321023444 ], [ 19.646327286553458, 49.771157499321035 ], [ 19.647108624828707, 49.770566756109602 ], [ 19.662247431168524, 49.758911046342966 ], [ 19.665341662857287, 49.756476733977351 ], [ 19.676892878755755, 49.747256207000596 ], [ 19.68433585371546, 49.741172944528955 ], [ 19.691064074714845, 49.735602311452467 ], [ 19.703308591734039, 49.725206877000517 ], [ 19.704772881735099, 49.723949461830912 ], [ 19.718022389705009, 49.712297803430168 ], [ 19.722257526251539, 49.708470020716192 ], [ 19.730831706450655, 49.70064737360736 ], [ 19.741181143869035, 49.690919494493222 ], [ 19.743208847361704, 49.688998267292803 ], [ 19.755157062713653, 49.677350602189975 ], [ 19.760076104029714, 49.672399018767933 ], [ 19.766685923465431, 49.665704448051891 ], [ 19.777796042176316, 49.654059926389301 ], [ 19.778939918170838, 49.652820081482211 ], [ 19.788495773652151, 49.64241710123445 ], [ 19.797767211031324, 49.631925107450897 ], [ 19.798779337167854, 49.630776126654283 ], [ 19.80865642463824, 49.619137046280194 ], [ 19.816551731688552, 49.609426526221689 ], [ 19.818115739848714, 49.607500044434083 ], [ 19.827166368329653, 49.595865159081761 ], [ 19.835284747128554, 49.584915552541169 ], [ 19.83579114300376, 49.584232610543793 ], [ 19.844003040061221, 49.57260239991254 ], [ 19.851776933613642, 49.560974800538027 ], [ 19.853949063876019, 49.55753156965104 ], [ 19.859121101705014, 49.549349839802545 ], [ 19.866017081290593, 49.537727738289426 ], [ 19.872450642165376, 49.526108684052836 ], [ 19.872518480966541, 49.525976317769967 ], [ 19.878427565414345, 49.514492710985159 ], [ 19.883916188782294, 49.502880132438719 ], [ 19.888902678825183, 49.49127112492662 ], [ 19.890912204890544, 49.486042374418474 ], [ 19.893377509875307, 49.47966582769692 ], [ 19.897317679996984, 49.468064479348968 ], [ 19.900696541012913, 49.456467342863661 ], [ 19.90349032645825, 49.444874653965215 ], [ 19.905671996725687, 49.433286667719955 ], [ 19.907210876719422, 49.421703660376586 ], [ 19.908072243111224, 49.410125931287283 ], [ 19.908216852856604, 49.398553804898711 ], [ 19.907600403204391, 49.386987632792405 ], [ 19.906172911714119, 49.375427795742567 ], [ 19.903878002718667, 49.363874705740727 ], [ 19.900652084154277, 49.352328807914851 ], [ 19.89642339562668, 49.340790582237297 ], [ 19.891110904861744, 49.329260544873975 ], [ 19.887978664310637, 49.323653356067815 ], [ 19.884609756831015, 49.317739350531674 ], [ 19.876804499702754, 49.306227676252476 ], [ 19.868447901112688, 49.295785456481099 ], [ 19.867578226056626, 49.294726137297225 ], [ 19.85672407339424, 49.283235929067494 ], [ 19.849081701226343, 49.276210442598703 ], [ 19.844078546737101, 49.271757789325079 ], [ 19.829797457202485, 49.260602929324861 ], [ 19.829385476302686, 49.260292971252809 ], [ 19.812272243844774, 49.248843316447989 ], [ 19.810571791047764, 49.247826246116077 ], [ 19.792331213770449, 49.237410548587135 ], [ 19.791386056301416, 49.236924549282548 ], [ 19.772232450112035, 49.227539826265513 ], [ 19.772211463638911, 49.237546797184798 ], [ 19.7723901212903, 49.237653352998798 ] ] ], [ [ [ 19.207753265069616, 50.556378173032293 ], [ 19.200688647568207, 50.558909235635078 ], [ 19.188250813701771, 50.563931532185492 ], [ 19.174038897097301, 50.570520561696725 ], [ 19.168748771395254, 50.573342996942138 ], [ 19.154114283854241, 50.58211705720926 ], [ 19.149247858000031, 50.585568178515487 ], [ 19.138865065321596, 50.59370463787554 ], [ 19.129749754103635, 50.60248557201669 ], [ 19.127082642998502, 50.605286466360774 ], [ 19.11862032472591, 50.616863745238078 ], [ 19.112780643374879, 50.628437876119918 ], [ 19.1102802971401, 50.637625212592525 ], [ 19.109677442543678, 50.64000914695729 ], [ 19.109345090153447, 50.651577744801827 ], [ 19.110324212217961, 50.656382053661957 ], [ 19.111830924665302, 50.663143648598982 ], [ 19.117510668716644, 50.674706300527092 ], [ 19.126535106625553, 50.686265070955898 ], [ 19.12998950794967, 50.689462504403231 ], [ 19.140216458587375, 50.69781761323204 ], [ 19.149622620418906, 50.703727876388896 ], [ 19.160122749399854, 50.709360146535644 ], [ 19.169250788272567, 50.713307760340342 ], [ 19.18887627517201, 50.720227696373442 ], [ 19.19125307838048, 50.720881392481473 ], [ 19.208497295953983, 50.72483711112811 ], [ 19.228115108263243, 50.727991654458272 ], [ 19.247728589005654, 50.729824168128289 ], [ 19.267336334835186, 50.730379143686804 ], [ 19.286937048332131, 50.729706076849283 ], [ 19.306529541274752, 50.727858309867301 ], [ 19.326112734973407, 50.724891883345165 ], [ 19.345685657927721, 50.720864428179063 ], [ 19.346985045125955, 50.720521951585702 ], [ 19.365242484710645, 50.715196379072232 ], [ 19.38361555802021, 50.708838993541335 ], [ 19.384785248944848, 50.70838516462215 ], [ 19.404304697050978, 50.69951920288986 ], [ 19.408826162528364, 50.69718509088581 ], [ 19.423796686208146, 50.688420225605952 ], [ 19.428176509977643, 50.685547371567253 ], [ 19.443249313271874, 50.674115695579083 ], [ 19.443479814385359, 50.67392187361795 ], [ 19.454868119590234, 50.662309679069516 ], [ 19.462617867756745, 50.65245252698876 ], [ 19.463863735248555, 50.650705889673475 ], [ 19.469723775083771, 50.639114058569724 ], [ 19.473179650998553, 50.627531693905944 ], [ 19.474022918463213, 50.615959860205358 ], [ 19.472045140091495, 50.604399461532758 ], [ 19.46704490815938, 50.592851164657155 ], [ 19.46196281456244, 50.585630931940919 ], [ 19.458354866652144, 50.581317211207775 ], [ 19.444957436475747, 50.569800670590361 ], [ 19.442252754616682, 50.567978408815584 ], [ 19.424746435716969, 50.558307622722339 ], [ 19.422620126421652, 50.557334102659446 ], [ 19.403025840721156, 50.550147717941371 ], [ 19.391218121345442, 50.546856555833465 ], [ 19.383453836892294, 50.544972609172646 ], [ 19.363899781980319, 50.541571842102549 ], [ 19.344357865683453, 50.53945066694439 ], [ 19.32482594524086, 50.5385285051631 ], [ 19.305302122776222, 50.538741705266951 ], [ 19.285784695748557, 50.540041266546446 ], [ 19.266272115898619, 50.542391032811111 ], [ 19.24676295476436, 50.545766260233826 ], [ 19.240069708003947, 50.547266231899506 ], [ 19.227257298722048, 50.550448802275788 ], [ 19.207753265069616, 50.556378173032293 ] ] ], [ [ [ 18.511159451218674, 49.91740618519151 ], [ 18.517919904345018, 49.921780229813265 ], [ 18.530315071788458, 49.929518471069507 ], [ 18.530507443245806, 49.921831869138813 ], [ 18.530794108016231, 49.910263221740919 ], [ 18.530503809582562, 49.910086725262403 ], [ 18.511233117784823, 49.910118314497879 ], [ 18.500727934632888, 49.910137677405366 ], [ 18.511159451218674, 49.91740618519151 ] ] ], [ [ [ 16.651097208452342, 50.11725036305954 ], [ 16.631760133531454, 50.116863174778175 ], [ 16.629032392689346, 50.11839294153615 ], [ 16.628176841344231, 50.129946541700484 ], [ 16.61128872014076, 50.139263614999095 ], [ 16.591942990688413, 50.138876403747858 ], [ 16.588679427224626, 50.140703795924708 ], [ 16.587841226862356, 50.152257485027761 ], [ 16.57144149994334, 50.161307783066391 ], [ 16.567686662601954, 50.163408035216783 ], [ 16.566872217561627, 50.174962067666556 ], [ 16.566073179417454, 50.186516400920176 ], [ 16.565288634657318, 50.198071016079268 ], [ 16.564517741503224, 50.209625895725026 ], [ 16.56375972408593, 50.221181023798813 ], [ 16.548572275828011, 50.229572953638744 ], [ 16.543635937971573, 50.232328153399507 ], [ 16.528598077437181, 50.240637591384591 ], [ 16.523515967313344, 50.243471917638608 ], [ 16.50861426268629, 50.251706163834903 ], [ 16.503399266982491, 50.254612307629927 ], [ 16.502661287436048, 50.266167494949698 ], [ 16.488016481701202, 50.274260931348536 ], [ 16.482549202512416, 50.277304430045668 ], [ 16.468008176208432, 50.285340262345045 ], [ 16.462439120609254, 50.288437969218116 ], [ 16.461714115231835, 50.299993194875391 ], [ 16.447374672191767, 50.30791823614932 ], [ 16.441606579890795, 50.311123242848062 ], [ 16.44089139992537, 50.322678555114592 ], [ 16.426720335641086, 50.330510860192263 ], [ 16.407299446323304, 50.330097214067706 ], [ 16.387878750802653, 50.329685185273213 ], [ 16.38201220810841, 50.332938055714912 ], [ 16.381289392860374, 50.344492896734742 ], [ 16.367185695027317, 50.352285415261278 ], [ 16.361184730264206, 50.355609272363289 ], [ 16.366803160268269, 50.359196654693868 ], [ 16.379868233840941, 50.367603069478726 ], [ 16.365910365326108, 50.37531621502086 ], [ 16.359763119839837, 50.378719225283163 ], [ 16.345828486629529, 50.386418768241128 ], [ 16.326385499308881, 50.386000221166547 ], [ 16.30694271219393, 50.385583173081947 ], [ 16.293701561722415, 50.377199917158457 ], [ 16.288157135233085, 50.373654107701 ], [ 16.282223428965899, 50.376932103109013 ], [ 16.268057705592994, 50.384753990494445 ], [ 16.262120035784491, 50.38803157210878 ], [ 16.261387546594825, 50.399585569345831 ], [ 16.247281000925764, 50.407374455433384 ], [ 16.241283555143301, 50.410681490540981 ], [ 16.227156903849124, 50.418480584903222 ], [ 16.221179439259686, 50.4217739824443 ], [ 16.207023098924743, 50.429588535884498 ], [ 16.201075185322267, 50.432863045558641 ], [ 16.200348189081527, 50.444416838400201 ], [ 16.205938864312394, 50.44799557797851 ], [ 16.211934941097891, 50.444695228334027 ], [ 16.226078581657156, 50.436927674577504 ], [ 16.239129215608624, 50.445344069585005 ], [ 16.225133948754241, 50.453071851963642 ], [ 16.219022650510112, 50.456436193777257 ], [ 16.224723457894655, 50.460082704186831 ], [ 16.244191377025018, 50.460584864491864 ], [ 16.257146545692681, 50.468912767685673 ], [ 16.262991939261763, 50.4726469718074 ], [ 16.282466288599302, 50.473132069995074 ], [ 16.295338620632819, 50.481378244870399 ], [ 16.301282698940383, 50.485170622023531 ], [ 16.314132180183652, 50.49338473151785 ], [ 16.313482352132244, 50.504940720335519 ], [ 16.319454974420143, 50.508747627415715 ], [ 16.325842838834454, 50.505225496986881 ], [ 16.339595566787981, 50.497655389404549 ], [ 16.359082568493246, 50.498108048958493 ], [ 16.371916440978303, 50.506275406991186 ], [ 16.377930404753521, 50.510102524022827 ], [ 16.390791938531898, 50.518271092683698 ], [ 16.396788346227453, 50.522084169370444 ], [ 16.409693343439265, 50.530264201320378 ], [ 16.395918267880027, 50.537882869313364 ], [ 16.389573477957338, 50.54138538268694 ], [ 16.39551705552508, 50.545163220005556 ], [ 16.408498480225671, 50.553379112569829 ], [ 16.407908893684628, 50.564936713893829 ], [ 16.4137628258989, 50.568653958076354 ], [ 16.433281495717424, 50.569071969401797 ], [ 16.446424529390864, 50.577358733548373 ], [ 16.44585802333307, 50.588916931055017 ], [ 16.431777902540606, 50.596706890650317 ], [ 16.425730330127148, 50.600044225130532 ], [ 16.411613073307052, 50.607853887304174 ], [ 16.405602625402295, 50.611168086949931 ], [ 16.39143842458645, 50.619002896383137 ], [ 16.385475036973173, 50.622288520296003 ], [ 16.384910652710861, 50.633846508840108 ], [ 16.370606164758563, 50.64175827133564 ], [ 16.364782572841847, 50.644963423083048 ], [ 16.350406440911549, 50.652914045341099 ], [ 16.344655061329295, 50.65607692136075 ], [ 16.330196829296288, 50.664072194316482 ], [ 16.31064127771047, 50.663620817880378 ], [ 16.291086000562427, 50.663170126270103 ], [ 16.285416910093723, 50.666281991075884 ], [ 16.270857479379256, 50.674330423659413 ], [ 16.25129797549581, 50.673880214214037 ], [ 16.231738744865925, 50.673430656610812 ], [ 16.218077017945227, 50.664692944495464 ], [ 16.218843724170757, 50.653140332227899 ], [ 16.21960360630413, 50.641587537276202 ], [ 16.214241270334249, 50.638169663980769 ], [ 16.194696872233294, 50.637724146102428 ], [ 16.188986121263248, 50.64085242317018 ], [ 16.17445674140718, 50.648877708744472 ], [ 16.154908115804027, 50.648432638481808 ], [ 16.149373448186179, 50.651460446400826 ], [ 16.134653548519342, 50.659588561484249 ], [ 16.11510068484041, 50.659144002629702 ], [ 16.095548076651799, 50.658700224892847 ], [ 16.081595881937478, 50.649781463946795 ], [ 16.076716175171068, 50.646660141421656 ], [ 16.062750040992746, 50.637736334141202 ], [ 16.063529039884724, 50.626184712580688 ], [ 16.058616991912928, 50.623039663604366 ], [ 16.044670084350315, 50.614136169459613 ], [ 16.039807012505776, 50.611020135324189 ], [ 16.025801584506922, 50.602084225055052 ], [ 16.021005909274646, 50.599009064087085 ], [ 16.015837753956053, 50.601829199198164 ], [ 16.000741724496017, 50.610151931575714 ], [ 15.995731985329803, 50.612883432090385 ], [ 16.00037817019934, 50.615863941561415 ], [ 16.014461465364953, 50.624936703301096 ], [ 16.013783696083149, 50.636490694369328 ], [ 16.013112828474533, 50.648044844515525 ], [ 16.012448868529123, 50.659599153980146 ], [ 16.011791835190614, 50.671153623334668 ], [ 15.99630758627926, 50.679692593164361 ], [ 15.991687585859765, 50.682207357082724 ], [ 15.976000450448431, 50.690856594095266 ], [ 15.956435268730472, 50.690416045464545 ], [ 15.936870312779606, 50.689976588651753 ], [ 15.91730557557627, 50.689538302991288 ], [ 15.902178579561943, 50.679860747448515 ], [ 15.898506495901545, 50.677501960918121 ], [ 15.878946898746003, 50.677067772560015 ], [ 15.875131451249112, 50.679138097949952 ], [ 15.874442644273794, 50.690691204639684 ], [ 15.857836851521276, 50.699832727459949 ], [ 15.854351511412647, 50.701721876201098 ], [ 15.853672098914631, 50.71327513035687 ], [ 15.836704640302123, 50.722613713975427 ], [ 15.833585670112154, 50.724302441614839 ], [ 15.832916336658085, 50.735855865892731 ], [ 15.8322555515985, 50.747409505706379 ], [ 15.814760521275751, 50.75703662476117 ], [ 15.795168478282157, 50.756598485558584 ], [ 15.778546982187457, 50.74593674435215 ], [ 15.776375780841486, 50.744539298070649 ], [ 15.756788883920215, 50.744105343140447 ], [ 15.73720215875821, 50.743673045883753 ], [ 15.717615593503696, 50.743242539425175 ], [ 15.698029175268303, 50.742813968454989 ], [ 15.696499048685828, 50.743638940515098 ], [ 15.695799241568151, 50.755190999588898 ], [ 15.676796233030988, 50.765622128782049 ], [ 15.65720063716398, 50.765194011663837 ], [ 15.637605166475625, 50.764768051745207 ], [ 15.63702323817447, 50.765081129664608 ], [ 15.617170806470657, 50.77596556340675 ], [ 15.616971595245815, 50.77607265258424 ], [ 15.611893473463272, 50.787497154836991 ], [ 15.616013678082162, 50.791980530167855 ], [ 15.623120200871078, 50.799395078351338 ], [ 15.634356739165057, 50.809981383407134 ], [ 15.635856103755117, 50.811335421319512 ], [ 15.650265631893172, 50.823322403016228 ], [ 15.652901643035564, 50.825354615441761 ], [ 15.666439067499388, 50.835357970867442 ], [ 15.671587775766778, 50.8389119768241 ], [ 15.684489234840377, 50.847444584860973 ], [ 15.690380299366145, 50.851117263096491 ], [ 15.704563107729387, 50.859585511981386 ], [ 15.709258119508084, 50.862248554584589 ], [ 15.72681959750118, 50.871784150984723 ], [ 15.728206130458535, 50.872504177451361 ], [ 15.747215962862482, 50.881989953841519 ], [ 15.751521489900455, 50.884046554357724 ], [ 15.766277403704859, 50.890840509455906 ], [ 15.778864240721838, 50.896376545940221 ], [ 15.78538294055026, 50.899154209816082 ], [ 15.804529300286276, 50.906969724225689 ], [ 15.809158424527261, 50.908780742587759 ], [ 15.823712926100825, 50.914330714661226 ], [ 15.842810567576123, 50.921267822834302 ], [ 15.842928371578292, 50.921309702076307 ], [ 15.862176265548356, 50.927890660607254 ], [ 15.880531741505955, 50.933853866985736 ], [ 15.881451177845655, 50.934147655051248 ], [ 15.900753840412458, 50.940063895029319 ], [ 15.920080832056316, 50.945684948275385 ], [ 15.923229505797581, 50.946558828262788 ], [ 15.939432084362133, 50.951006471122959 ], [ 15.958805903893325, 50.956048864105448 ], [ 15.972476041263329, 50.959417998968384 ], [ 15.97820148280536, 50.960819376459092 ], [ 15.997618136786871, 50.965323506773295 ], [ 16.017055227410669, 50.969566160145703 ], [ 16.031379897563156, 50.972502139481534 ], [ 16.036512155531806, 50.973551734117422 ], [ 16.055988208635672, 50.977286515465131 ], [ 16.075483417537093, 50.980765117985108 ], [ 16.094997486273598, 50.983987229862727 ], [ 16.108271509020881, 50.986003208100833 ], [ 16.114529878235533, 50.986956394340432 ], [ 16.134080095040606, 50.989675615145295 ], [ 16.153648520686819, 50.992133549696923 ], [ 16.173235008029099, 50.994327266449311 ], [ 16.192839437722576, 50.996253277858536 ], [ 16.212461716686814, 50.997907546477528 ], [ 16.232101776764427, 50.999285487918492 ], [ 16.251759573565103, 51.000381970683847 ], [ 16.271435085486193, 51.001191312862083 ], [ 16.291128312900351, 51.001707275692553 ], [ 16.31083927749955, 51.001923054025283 ], [ 16.33056802178238, 51.00183126373993 ], [ 16.350314608668544, 51.001423926245742 ], [ 16.370079121220247, 51.000692450262754 ], [ 16.389861662444979, 50.999627611188302 ], [ 16.409662355147844, 50.998219528484448 ], [ 16.429481341793938, 50.996457641684273 ], [ 16.449318784332583, 50.99433068581228 ], [ 16.4519012098669, 50.994009227640902 ], [ 16.469173307664256, 50.991855263754495 ], [ 16.48904613988632, 50.989000275340523 ], [ 16.508937711391102, 50.985748491290423 ], [ 16.519137575410976, 50.983887355011689 ], [ 16.528847111607778, 50.982107344148488 ], [ 16.548774236795232, 50.978069178359867 ], [ 16.568720489490016, 50.973597232985092 ], [ 16.569620060553056, 50.973379354889573 ], [ 16.588683457519814, 50.968727120328182 ], [ 16.608665639992751, 50.963400037633988 ], [ 16.61123076762275, 50.962668453594347 ], [ 16.628664856842985, 50.957647015204955 ], [ 16.647362601949773, 50.951832532537097 ], [ 16.648683118210158, 50.95141714712679 ], [ 16.668718389688241, 50.944738535173059 ], [ 16.679504275761548, 50.940906260873348 ], [ 16.688772233677888, 50.937567746081712 ], [ 16.708790577184434, 50.929915198943768 ], [ 16.708844516764032, 50.929894260360918 ], [ 16.728934185485119, 50.921726043686796 ], [ 16.735614445957456, 50.918869107317924 ], [ 16.749042460176824, 50.913024222696322 ], [ 16.760545870110633, 50.907780611639815 ], [ 16.769169363063558, 50.903773510624532 ], [ 16.783856296857756, 50.896656071144676 ], [ 16.789315052248348, 50.893955153799418 ], [ 16.805762596626359, 50.885500527835717 ], [ 16.809479831318793, 50.883546559730725 ], [ 16.826439683283652, 50.87431802430573 ], [ 16.829664153997868, 50.872521009133706 ], [ 16.846029093793245, 50.863111821255515 ], [ 16.849868631747672, 50.860847285577258 ], [ 16.864645493800545, 50.851884560147766 ], [ 16.870094044860192, 50.848489205090743 ], [ 16.882381658856382, 50.840638386244891 ], [ 16.890341357715034, 50.835405023322934 ], [ 16.899312318682238, 50.829375042596808 ], [ 16.910611739065729, 50.821546691818533 ], [ 16.915497141211493, 50.818095942410046 ], [ 16.930906588449197, 50.806858927193439 ], [ 16.930983056419461, 50.806802225096511 ], [ 16.945855202489177, 50.795495665378517 ], [ 16.95122793558053, 50.791269689654932 ], [ 16.960121400713209, 50.78417663186643 ], [ 16.971577719479985, 50.774705939934947 ], [ 16.973802270240956, 50.772845702326961 ], [ 16.986974342188372, 50.761504401411166 ], [ 16.991959153458023, 50.757061681291844 ], [ 16.999641646710469, 50.750152968239547 ], [ 17.011791910260261, 50.738791355584652 ], [ 17.012375266286444, 50.738230586353062 ], [ 17.023545533461434, 50.7274217643374 ], [ 17.032831446791295, 50.718045181188671 ], [ 17.03480574265366, 50.716042680855679 ], [ 17.045692109998861, 50.704656251063859 ], [ 17.053333408055597, 50.696322510060249 ], [ 17.056133727033661, 50.693261395140709 ], [ 17.066222464627899, 50.681859755298987 ], [ 17.073889283096772, 50.672811972215065 ], [ 17.075890028966516, 50.670450293762727 ], [ 17.085245229753657, 50.659034901813477 ], [ 17.094172836028335, 50.647611768173924 ], [ 17.094510663743023, 50.647165575437334 ], [ 17.102840069015603, 50.636183712843604 ], [ 17.111108003646997, 50.624748539902399 ], [ 17.115216804238887, 50.618826784747078 ], [ 17.119060214569462, 50.613307682399792 ], [ 17.126703717281046, 50.601861316470568 ], [ 17.133974637846418, 50.590408478051089 ], [ 17.136034272449947, 50.587026229749355 ], [ 17.140978588167027, 50.57895092153845 ], [ 17.147659194575539, 50.567487797115803 ], [ 17.153987709943177, 50.556018703285588 ], [ 17.157017334740335, 50.550244852358162 ], [ 17.160029729479795, 50.544544732800205 ], [ 17.165780924602981, 50.533065860882587 ], [ 17.171189056562824, 50.521581308698259 ], [ 17.176259807550398, 50.51009121174345 ], [ 17.178284916931538, 50.505202959557593 ], [ 17.18104578474539, 50.498596435031757 ], [ 17.185524876156009, 50.487096667797573 ], [ 17.18966081965501, 50.475591380123355 ], [ 17.193453667361752, 50.464080608096324 ], [ 17.196901851484011, 50.452564359669644 ], [ 17.200002189366572, 50.441042614947321 ], [ 17.200280616147012, 50.439879797293983 ], [ 17.202786300376978, 50.429515888965007 ], [ 17.205205757649097, 50.417983456014738 ], [ 17.207248987994582, 50.406445159119741 ], [ 17.208907014917404, 50.394900878484833 ], [ 17.210169104095087, 50.383350463968156 ], [ 17.211022704998072, 50.371793733935057 ], [ 17.20286604908577, 50.371588224678213 ], [ 17.202729023514156, 50.371665838087033 ], [ 17.202299037486718, 50.383229066633589 ], [ 17.182542093314687, 50.394236719117316 ], [ 17.163093354846886, 50.393747174839277 ], [ 17.145126446233405, 50.382331165169937 ], [ 17.144096770041639, 50.381687699573675 ], [ 17.143018170424078, 50.382297516620071 ], [ 17.12419682821718, 50.392771456463421 ], [ 17.122830513492641, 50.393543332795616 ], [ 17.122393599615997, 50.40510621206046 ], [ 17.103825135020607, 50.41543750942585 ], [ 17.084368178339766, 50.414952599145188 ], [ 17.064911501653491, 50.414469555252793 ], [ 17.045455095019818, 50.413988553256978 ], [ 17.043007817949182, 50.415367479563365 ], [ 17.025517491611197, 50.425088047898328 ], [ 17.00605690047605, 50.424610532421589 ], [ 16.986596561054782, 50.424135297085044 ], [ 16.967136468054417, 50.423662390099715 ], [ 16.963731156699058, 50.425576607088161 ], [ 16.947175894676143, 50.434769518019444 ], [ 16.943574980124779, 50.43679208956825 ], [ 16.927205690853494, 50.445880145849003 ], [ 16.923421190407996, 50.448004154096864 ], [ 16.907225851247649, 50.45699407051702 ], [ 16.892243062310271, 50.447443399591876 ], [ 16.88826841276688, 50.444945775586234 ], [ 16.873496542843284, 50.435532017889749 ], [ 16.874034837456815, 50.423971650335545 ], [ 16.869839582031197, 50.421332831369675 ], [ 16.855275226858691, 50.41205696877109 ], [ 16.870646361024491, 50.403344484409871 ], [ 16.875092011393424, 50.400850497711275 ], [ 16.890620522179116, 50.392036016770291 ], [ 16.894887639917989, 50.389640299399517 ], [ 16.910585519271816, 50.380716696612708 ], [ 16.914661699593911, 50.378426376304894 ], [ 16.915160584794997, 50.366865073391608 ], [ 16.915652168257978, 50.355303618717656 ], [ 16.931547695735325, 50.34624355608404 ], [ 16.935383489677093, 50.34408545244807 ], [ 16.935856819690066, 50.332523577140968 ], [ 16.936322116955115, 50.320961538419439 ], [ 16.952480605073951, 50.311726224540521 ], [ 16.956007833257672, 50.309739106690351 ], [ 16.972398632605859, 50.300356807360174 ], [ 16.99181935237462, 50.300569644916173 ], [ 16.994875082417277, 50.298845911235077 ], [ 17.011724075638426, 50.289178412686269 ], [ 17.014497743416857, 50.287612564074522 ], [ 17.01491484814478, 50.276049413708407 ], [ 17.015322164951943, 50.264486075348671 ], [ 17.012818173337489, 50.262911982685189 ], [ 16.996536746699643, 50.252593326755317 ], [ 16.996926723621996, 50.241029690162115 ], [ 17.014140338037336, 50.231118081173506 ], [ 17.016481117634342, 50.22979485997363 ], [ 17.014253526930357, 50.228393585712702 ], [ 16.994872435330194, 50.227934431011768 ], [ 16.992314384058865, 50.229379681252752 ], [ 16.991722907450328, 50.240939844943433 ], [ 16.974516696801867, 50.250481188281157 ], [ 16.958537699144205, 50.240361404776792 ], [ 16.958923388288838, 50.228797750453793 ], [ 16.956110834393233, 50.227025710342026 ], [ 16.936730322454462, 50.226576005876176 ], [ 16.917350001955679, 50.226129298436327 ], [ 16.897969872678409, 50.225685500949233 ], [ 16.882424233919117, 50.215857758688088 ], [ 16.88279887510269, 50.204294013500665 ], [ 16.879608432339953, 50.202278758509792 ], [ 16.860237875055812, 50.201842918200725 ], [ 16.856734898963175, 50.203815925221193 ], [ 16.840349393942322, 50.212886756733489 ], [ 16.825049596119687, 50.203226838171524 ], [ 16.825419762541024, 50.191663095015905 ], [ 16.822019326481009, 50.189511328467979 ], [ 16.802653891706189, 50.189085019688584 ], [ 16.7872392511287, 50.179371069350168 ], [ 16.787586413332608, 50.16780691623309 ], [ 16.78791848907014, 50.156242455870988 ], [ 16.78487775701192, 50.154315006124364 ], [ 16.768957447970653, 50.144308782212661 ], [ 16.766059023888712, 50.142470166655229 ], [ 16.746712250934582, 50.142059035257603 ], [ 16.730676871245659, 50.131995829164651 ], [ 16.730961946660372, 50.120430473447826 ], [ 16.728446580551413, 50.118832468483376 ], [ 16.711922810272519, 50.108485720640957 ], [ 16.709652678256468, 50.107042436374755 ], [ 16.690319732980704, 50.106648037027341 ], [ 16.670986890385453, 50.106257112415719 ], [ 16.668555259179499, 50.107622588759874 ], [ 16.651097208452342, 50.11725036305954 ] ] ] ] } }
]
}
