{
"type": "FeatureCollection",
"name": "ryzyko_cykl1_nasil3",
"crs": { "type": "name", "properties": { "name": "urn:ogc:def:crs:OGC:1.3:CRS84" } },
"features": [
{ "type": "Feature", "properties": { "cykl": 1, "gatunek": "Wszystkie", "prog_nasilenia": 3, "percentyl": 95, "prog_ryzyka": 1.7117193121544663, "liczba_traktow": 8689 }, "geometry": { "type": "MultiPolygon", "coordinates": [ [ [ [ 22.181488653370725, 52.903366787389636 ], [ 22.161189112856388, 52.907212325813056 ], [ 22.140904506185411, 52.911312177130959 ], [ 22.138694799666737, 52.911790740315965 ], [ 22.120636191394929, 52.915690094896384 ], [ 22.100380302574763, 52.920297365544002 ], [ 22.081205441221115, 52.92486534435254 ], [ 22.080135523746058, 52.925119912363002 ], [ 22.059903849874676, 52.93019019740688 ], [ 22.039680855290808, 52.935449969526616 ], [ 22.031296490164326, 52.937718382611777 ], [ 22.019467868460268, 52.940922036764576 ], [ 21.999263265430351, 52.946587153303746 ], [ 21.985960303952954, 52.950435182221561 ], [ 21.979066076984086, 52.952435084341815 ], [ 21.958876756612572, 52.958476146156364 ], [ 21.943975798320917, 52.963051316041202 ], [ 21.938693037381977, 52.964680846000199 ], [ 21.918516275930052, 52.971072647180733 ], [ 21.90457058693503, 52.975589271987907 ], [ 21.898344025135327, 52.977618845708143 ], [ 21.878177418504318, 52.984339680431788 ], [ 21.867214101832605, 52.988064456839901 ], [ 21.858014920892579, 52.991215549950873 ], [ 21.837856330454162, 52.998246634565632 ], [ 21.831537542811734, 53.000487619217097 ], [ 21.817702120352518, 53.005443478391733 ], [ 21.797549628297219, 53.012768472200037 ], [ 21.79728409803629, 53.012866339568362 ], [ 21.777402459975345, 53.020280482570243 ], [ 21.764358176121817, 53.025204090386886 ], [ 21.757256549849718, 53.027919834753185 ], [ 21.737113156639534, 53.035709180665521 ], [ 21.732506181390999, 53.037507821526837 ], [ 21.716972966112003, 53.043662714999499 ], [ 21.701669969728798, 53.049779731528915 ], [ 21.696833506698056, 53.051744503748289 ], [ 21.676696519830983, 53.05998549925674 ], [ 21.671747593114954, 53.062022914492637 ], [ 21.656561912014269, 53.068387759116796 ], [ 21.642676506397198, 53.074239461810556 ], [ 21.636427803001098, 53.076924174341471 ], [ 21.616294957059402, 53.085610418542721 ], [ 21.614396225838249, 53.08643133799265 ], [ 21.596165269558149, 53.094481413758842 ], [ 21.586858056880622, 53.098600175927146 ], [ 21.576036152104507, 53.103498132918538 ], [ 21.560039976166621, 53.11074697407004 ], [ 21.555907657300526, 53.11266488230126 ], [ 21.535780905150173, 53.122004228435145 ], [ 21.533904689540108, 53.122873022294996 ], [ 21.515657214633869, 53.131542837792431 ], [ 21.50840948235874, 53.13497967904307 ], [ 21.495534710810592, 53.141253129890295 ], [ 21.483568104152649, 53.147067076410949 ], [ 21.475413676543987, 53.151144167160908 ], [ 21.459367597608804, 53.159135899030446 ], [ 21.45529447549691, 53.16122671535841 ], [ 21.435797101649417, 53.171186767233067 ], [ 21.435177560847151, 53.171513464706813 ], [ 21.415065118336646, 53.182048339722591 ], [ 21.412810062002563, 53.18322100555752 ], [ 21.394956405328617, 53.192824158039762 ], [ 21.390432108548811, 53.1952384439033 ], [ 21.374851724631327, 53.203852410728992 ], [ 21.368671114213083, 53.207239275568831 ], [ 21.354751947230231, 53.215155323407451 ], [ 21.347527468461458, 53.219223837465996 ], [ 21.334658106616914, 53.226758841355611 ], [ 21.32700394551982, 53.231192410421365 ], [ 21.31457142620603, 53.238693290143445 ], [ 21.307105776537394, 53.243145219789149 ], [ 21.294493353390454, 53.25099419257981 ], [ 21.287840723311025, 53.255082435915639 ], [ 21.274425602065829, 53.263703285324404 ], [ 21.269219154338174, 53.267004174430333 ], [ 21.254370206052538, 53.276869792607641 ], [ 21.25125412395975, 53.278910496338398 ], [ 21.234329586670484, 53.290552034022063 ], [ 21.233961455359633, 53.290801407886235 ], [ 21.217273232563002, 53.302678470564359 ], [ 21.214310892577355, 53.304901652714385 ], [ 21.20125981695881, 53.314540644630448 ], [ 21.194315599982257, 53.319964958462769 ], [ 21.185953179602208, 53.326387621633046 ], [ 21.174347865817079, 53.335842523048505 ], [ 21.171378296151744, 53.338219224841303 ], [ 21.157466043405488, 53.350036978488085 ], [ 21.154419526453729, 53.35279060682479 ], [ 21.144219474611198, 53.361841064793055 ], [ 21.134540562562687, 53.371037218203348 ], [ 21.131758748289595, 53.373629564091893 ], [ 21.11994430165991, 53.385405207740568 ], [ 21.114729799504083, 53.390996560418408 ], [ 21.10885841798769, 53.397166738748496 ], [ 21.098508154168432, 53.408914241418003 ], [ 21.095011470953967, 53.413207021855598 ], [ 21.088821099822294, 53.420649179336323 ], [ 21.07987282652914, 53.432370402337504 ], [ 21.07543420456572, 53.438725577409187 ], [ 21.071612684683242, 53.444078960364543 ], [ 21.064007633098438, 53.455775572005557 ], [ 21.057169878263842, 53.467458434524495 ], [ 21.056088357204327, 53.469507385792149 ], [ 21.050890778609276, 53.479131266902399 ], [ 21.045299336314795, 53.490791952762336 ], [ 21.040398592782619, 53.502440541299769 ], [ 21.037233752327388, 53.511102307564862 ], [ 21.036119441427427, 53.514078299465012 ], [ 21.03238343027343, 53.525706632117299 ], [ 21.029274587422158, 53.537324167336706 ], [ 21.026767063540909, 53.548931396341231 ], [ 21.024837492656019, 53.560528756540641 ], [ 21.023464869840577, 53.572116635055799 ], [ 21.022630443659121, 53.583695371759042 ], [ 21.022317622497741, 53.595265261877614 ], [ 21.022511894073947, 53.606826558194768 ], [ 21.023200757577111, 53.618379472876654 ], [ 21.024373668037697, 53.6299241789471 ], [ 21.026021992666152, 53.641460811427486 ], [ 21.028138979040996, 53.652989468152661 ], [ 21.030719735164361, 53.664510210270151 ], [ 21.033761221542498, 53.6760230624242 ], [ 21.037262255592942, 53.687528012621634 ], [ 21.041223528830443, 53.69902501177156 ], [ 21.045647637444336, 53.710513972885856 ], [ 21.047014673981845, 53.713725907284712 ], [ 21.050478720216589, 53.721995804009929 ], [ 21.055755456021309, 53.733469794887753 ], [ 21.061511163964862, 53.744935316331109 ], [ 21.067757238681406, 53.756392105916518 ], [ 21.070291264294436, 53.760701982042491 ], [ 21.074448736560321, 53.76784086827606 ], [ 21.081623298192074, 53.779280878147134 ], [ 21.089336813688586, 53.790711077985442 ], [ 21.093031079577663, 53.795830358860137 ], [ 21.097563301207479, 53.802131822081805 ], [ 21.106338379195694, 53.813542382735058 ], [ 21.115491972070874, 53.824652406617261 ], [ 21.115730621540067, 53.82494143352244 ], [ 21.125709894069278, 53.836329367925856 ], [ 21.136386782844127, 53.847704074007837 ], [ 21.137760690465253, 53.849086699743943 ], [ 21.147774401209567, 53.859065135709763 ], [ 21.159892334768784, 53.870348390066908 ], [ 21.159960345871209, 53.870410778783807 ], [ 21.173020201783576, 53.881739396961564 ], [ 21.181908942614221, 53.888963390221761 ], [ 21.187049870634798, 53.893048963539584 ], [ 21.202164459769236, 53.904337033511744 ], [ 21.2038369723426, 53.905518130673862 ], [ 21.218560184811412, 53.915599578517273 ], [ 21.225682176931276, 53.920184801025513 ], [ 21.23640739343384, 53.926832909659367 ], [ 21.247458562286557, 53.933281594269694 ], [ 21.255979690464446, 53.938031249516861 ], [ 21.269171960743222, 53.944963029272579 ], [ 21.277662148921301, 53.949186463476494 ], [ 21.290827771523464, 53.955369351351756 ], [ 21.302002203533746, 53.960286931340555 ], [ 21.312430915332644, 53.964626488743711 ], [ 21.329791731696137, 53.971315698054902 ], [ 21.333985804629712, 53.972846274276108 ], [ 21.355493408357919, 53.980075162181414 ], [ 21.362583849987924, 53.982239855529428 ], [ 21.376957384366751, 53.986404945230625 ], [ 21.398381710303781, 53.991929493738027 ], [ 21.403060837588932, 53.993001715059897 ], [ 21.419764779379328, 53.99664293545792 ], [ 21.441111193316988, 54.000645571617483 ], [ 21.458847392472677, 54.003437750778055 ], [ 21.462422011072032, 54.003974101459931 ], [ 21.483695740993184, 54.006621066886083 ], [ 21.504936185296145, 54.008667293287481 ], [ 21.526143805177298, 54.010135672252737 ], [ 21.547319088086919, 54.011048702670116 ], [ 21.568462536201917, 54.01142832476333 ], [ 21.589574655540428, 54.01129577248507 ], [ 21.610655945782764, 54.010671444146659 ], [ 21.631706890842516, 54.009574790861429 ], [ 21.652727950213038, 54.008024222134907 ], [ 21.673719551098493, 54.006037027743304 ], [ 21.694682081324995, 54.003629314901289 ], [ 21.715615883016323, 54.000815959625172 ], [ 21.736521247010199, 53.997610571146403 ], [ 21.737699399427246, 53.997406328990827 ], [ 21.757396740723653, 53.994000253306282 ], [ 21.77824419200428, 53.990021401861753 ], [ 21.799063884904221, 53.985686307670747 ], [ 21.805266696560082, 53.984281270790078 ], [ 21.819854459005125, 53.980982544874522 ], [ 21.840616983477087, 53.975933701254952 ], [ 21.857784904069387, 53.971476802543847 ], [ 21.861351776031078, 53.970551704608837 ], [ 21.88205741008705, 53.964822855101843 ], [ 21.902554270921545, 53.958836562394822 ], [ 21.902735915453366, 53.95878351885883 ], [ 21.923384867008757, 53.952405395145803 ], [ 21.942229739155255, 53.946304255601177 ], [ 21.944006606666694, 53.945728560946982 ], [ 21.964598966893778, 53.938728433974902 ], [ 21.978366969577934, 53.933846390986247 ], [ 21.985163446237006, 53.931432383812727 ], [ 22.005699145326368, 53.923833681346231 ], [ 22.011918915274784, 53.921442285846162 ], [ 22.026205805865391, 53.915934604695721 ], [ 22.043360217762025, 53.909082096316475 ], [ 22.046684084180086, 53.907749902798543 ], [ 22.067132738096362, 53.899268023723167 ], [ 22.072989903491571, 53.896759843415801 ], [ 22.087551902913145, 53.890496353587409 ], [ 22.101151756794163, 53.884467999472207 ], [ 22.107941751829863, 53.881442577368922 ], [ 22.128098098460566, 53.872201031632024 ], [ 22.1283019243496, 53.872107018805742 ], [ 22.148630902167394, 53.862474562899635 ], [ 22.153804888559691, 53.859960403872272 ], [ 22.168929232518298, 53.852557751541532 ], [ 22.178540856452905, 53.847739801254718 ], [ 22.189196413264174, 53.842355002904192 ], [ 22.202386422365542, 53.83553768585768 ], [ 22.209431818193142, 53.831863124665368 ], [ 22.225406569870817, 53.823352849115345 ], [ 22.229634720445588, 53.821077664854045 ], [ 22.247657564890456, 53.811184250024475 ], [ 22.249804275860008, 53.809992732185179 ], [ 22.269187945795132, 53.799031000403382 ], [ 22.269939503785647, 53.798600789557021 ], [ 22.290039264904195, 53.786892415804587 ], [ 22.290039372915373, 53.786892351893094 ], [ 22.310102175423115, 53.774855266959676 ], [ 22.310245963642416, 53.774767723073474 ], [ 22.329841928795624, 53.762656495717536 ], [ 22.330126879157394, 53.762477589753253 ], [ 22.348848095974429, 53.75055839341325 ], [ 22.350111409284949, 53.749740187877258 ], [ 22.367286409507283, 53.738473085986072 ], [ 22.370053752330755, 53.736623663460549 ], [ 22.385173322826041, 53.726400376503875 ], [ 22.389951499296266, 53.723104083161289 ], [ 22.402521555692001, 53.714340156421486 ], [ 22.409801851245941, 53.709153161136982 ], [ 22.419340400767343, 53.702292400257861 ], [ 22.429601554789652, 53.694737571930737 ], [ 22.435635989191137, 53.690257160931466 ], [ 22.449346825866254, 53.679818138711639 ], [ 22.451411520410289, 53.678234565679077 ], [ 22.466672315220745, 53.666224671795852 ], [ 22.469030710898341, 53.664317875608347 ], [ 22.481427787049135, 53.654227408031339 ], [ 22.488647082896492, 53.648171281115943 ], [ 22.495674311337556, 53.642243073071782 ], [ 22.508191624394627, 53.631335850355647 ], [ 22.5094069793209, 53.630271998691867 ], [ 22.52264774434656, 53.618313720942332 ], [ 22.527648779191018, 53.613635136930746 ], [ 22.535385915421582, 53.606368725146901 ], [ 22.547013290461464, 53.595018769748087 ], [ 22.54760699562009, 53.594437608147707 ], [ 22.559355453621542, 53.582519210050407 ], [ 22.566260794668814, 53.575210369883401 ], [ 22.570593613237811, 53.570614801727061 ], [ 22.581340065238365, 53.558723975855386 ], [ 22.585376969432343, 53.554057050558235 ], [ 22.591605755901533, 53.546846541795077 ], [ 22.601373135611464, 53.534983158397253 ], [ 22.604331300332912, 53.53121787085702 ], [ 22.610679865059517, 53.523132815111985 ], [ 22.619497457456845, 53.51129648868946 ], [ 22.623082247580228, 53.506228229467936 ], [ 22.627861695508262, 53.499473205942898 ], [ 22.635764856317529, 53.48766330279922 ], [ 22.641573009603928, 53.478452552004285 ], [ 22.643205570264776, 53.475866918153784 ], [ 22.650235034397589, 53.464082577998667 ], [ 22.656806551003548, 53.452311791090239 ], [ 22.659705048856424, 53.446779236571508 ], [ 22.662973781794037, 53.440552990989801 ], [ 22.66873969494706, 53.428806153927525 ], [ 22.674089402344791, 53.417071801498835 ], [ 22.677321872380094, 53.409439903528032 ], [ 22.679060023813371, 53.405348849522355 ], [ 22.68367639525913, 53.393636582660079 ], [ 22.687917289861179, 53.381935702852211 ], [ 22.691799272896112, 53.370245741609658 ], [ 22.694094065796758, 53.362688720390778 ], [ 22.695351477228026, 53.35856583505258 ], [ 22.698592747777013, 53.346895431732058 ], [ 22.701510441359886, 53.335234953396849 ], [ 22.704117869338571, 53.323584013793486 ], [ 22.706427208284918, 53.311942258098128 ], [ 22.708449457599553, 53.300309364693341 ], [ 22.709099961827526, 53.295983257533969 ], [ 22.710204828814966, 53.288684721945984 ], [ 22.711692578015604, 53.277068367935414 ], [ 22.712913488430573, 53.265460291361627 ], [ 22.713873982560894, 53.253860303169304 ], [ 22.714579069271398, 53.242268256358329 ], [ 22.715032294493387, 53.230684047714576 ], [ 22.715235686243631, 53.219107619672435 ], [ 22.715189692423344, 53.207538962356452 ], [ 22.714893109666153, 53.195978115854473 ], [ 22.714343001276582, 53.184425172780863 ], [ 22.713534602030446, 53.172880281195276 ], [ 22.712461207285163, 53.161343647951036 ], [ 22.711114043456575, 53.149815542556546 ], [ 22.709482116443791, 53.138296301646434 ], [ 22.707552034002074, 53.126786334173055 ], [ 22.70530779735147, 53.115286127447234 ], [ 22.702730556430318, 53.103796254179478 ], [ 22.699798322117264, 53.092317380699455 ], [ 22.696485627397049, 53.08085027656535 ], [ 22.692763127764547, 53.069395825815199 ], [ 22.688597527835348, 53.057956120907257 ], [ 22.688597124700177, 53.057955040298793 ], [ 22.683891771006053, 53.046530849859245 ], [ 22.678640616876116, 53.035123395672912 ], [ 22.672789137967058, 53.023734296790664 ], [ 22.666274741180928, 53.012365402679812 ], [ 22.663725674047477, 53.008315587346594 ], [ 22.658922357925832, 53.001022004796333 ], [ 22.65065530282871, 52.989706313335056 ], [ 22.641420257286104, 52.978419781345828 ], [ 22.6404866275434, 52.977372800946448 ], [ 22.63079377614779, 52.967175143036954 ], [ 22.618815129416799, 52.955970840682802 ], [ 22.618022373152989, 52.955290659633306 ], [ 22.604789489701485, 52.944827581227997 ], [ 22.596030659368253, 52.938617267259097 ], [ 22.588469550237949, 52.933752135057674 ], [ 22.574353792706702, 52.925551042360084 ], [ 22.568979716570709, 52.922769911564686 ], [ 22.552913955308377, 52.91521399185212 ], [ 22.544871407218018, 52.911922658724158 ], [ 22.531655672778541, 52.906977951008805 ], [ 22.513615392755412, 52.901282522469621 ], [ 22.510539013595587, 52.900389730498674 ], [ 22.489545290606742, 52.895248218279306 ], [ 22.468645138701191, 52.891213208475243 ], [ 22.467676040239496, 52.891064394361294 ], [ 22.447833500925373, 52.888241738548267 ], [ 22.427091734416315, 52.886117469448905 ], [ 22.406411330804684, 52.884747700143976 ], [ 22.385785244130826, 52.884056072424016 ], [ 22.365207365480536, 52.883976338202473 ], [ 22.344672382918681, 52.884450884164096 ], [ 22.324175664639295, 52.885429496332137 ], [ 22.303713161067705, 52.886868321236513 ], [ 22.283281322508838, 52.888728988934162 ], [ 22.262877029605921, 52.890977869847937 ], [ 22.24249753439986, 52.893585442686792 ], [ 22.222140410195081, 52.896525754911252 ], [ 22.211237454243967, 52.898281466570786 ], [ 22.201804679455904, 52.899791826765863 ], [ 22.181488653370725, 52.903366787389636 ] ] ], [ [ [ 18.820892728273403, 54.606509346687901 ], [ 18.820844543019579, 54.606483208214478 ], [ 18.82079612884262, 54.606509203750747 ], [ 18.820812805517274, 54.613709369718187 ], [ 18.820892728273403, 54.606509346687901 ] ] ], [ [ [ 18.777175744295576, 54.629557817524621 ], [ 18.777208048332916, 54.641118360422169 ], [ 18.756309976212052, 54.652154581626498 ], [ 18.755409253638707, 54.652636771353414 ], [ 18.734791348701101, 54.663522829511692 ], [ 18.733616384928641, 54.664151263160946 ], [ 18.733670603604509, 54.675711811865952 ], [ 18.734708247846921, 54.676275118969812 ], [ 18.7357532068465, 54.675716371142258 ], [ 18.756235381700158, 54.664617709546377 ], [ 18.757015035827017, 54.664200447438247 ], [ 18.777750244108844, 54.652946609735316 ], [ 18.778246599527741, 54.652680727212747 ], [ 18.799252827411163, 54.641261867389687 ], [ 18.799448001066342, 54.6411572249241 ], [ 18.799607864045228, 54.6295970116078 ], [ 18.819299157986357, 54.618067496713543 ], [ 18.799368189318511, 54.617828881382323 ], [ 18.798983080028194, 54.618035475989373 ], [ 18.777879833626596, 54.629180444098061 ], [ 18.777175744295576, 54.629557817524621 ] ] ], [ [ [ 17.890295802174251, 54.164933850419693 ], [ 17.869050280961929, 54.166856343859443 ], [ 17.847791891518536, 54.169169171249962 ], [ 17.826519621354603, 54.171886735291899 ], [ 17.818276802989576, 54.173090612879065 ], [ 17.805234450360238, 54.174953242561472 ], [ 17.783935084278177, 54.178394298752778 ], [ 17.762619118254747, 54.182270887219744 ], [ 17.75399306253188, 54.18400487094452 ], [ 17.741288105838649, 54.186509479749454 ], [ 17.719940541065952, 54.191140459314624 ], [ 17.703571321691207, 54.19503494763547 ], [ 17.698574555679166, 54.196203677509835 ], [ 17.677192308194552, 54.201610274225821 ], [ 17.660736516452527, 54.206128613962292 ], [ 17.655789788001247, 54.207467063472897 ], [ 17.634369509847993, 54.213676244357607 ], [ 17.62283768027778, 54.21726366841159 ], [ 17.61292855170894, 54.220308281970496 ], [ 17.591466576812099, 54.227353297192742 ], [ 17.58837672326327, 54.228427213568345 ], [ 17.569984879728434, 54.234754771653584 ], [ 17.556692243282388, 54.239614269323148 ], [ 17.548480102510666, 54.242592058008498 ], [ 17.527043389632365, 54.250817965627533 ], [ 17.526951984163389, 54.250852824950243 ], [ 17.505402334416896, 54.259468150974499 ], [ 17.499290016798227, 54.262038053922822 ], [ 17.483827827256093, 54.26851296870808 ], [ 17.472992127687149, 54.273270265272565 ], [ 17.462227795998171, 54.277986437048938 ], [ 17.447977417378013, 54.28451332994571 ], [ 17.440601441912332, 54.287891182866481 ], [ 17.424107631425937, 54.295766235951753 ], [ 17.418947787843916, 54.298234264921483 ], [ 17.401269569724963, 54.307028159059712 ], [ 17.397265660046099, 54.309027329094441 ], [ 17.379370107360465, 54.318298430908484 ], [ 17.375553664864132, 54.320286878271517 ], [ 17.358332384731238, 54.329576513750993 ], [ 17.353810159257243, 54.332034670888675 ], [ 17.338092860738872, 54.340861980331773 ], [ 17.332033213815972, 54.344298268457464 ], [ 17.318599011280639, 54.352154497765014 ], [ 17.310220566506498, 54.357111760300526 ], [ 17.299807516008311, 54.36345381455299 ], [ 17.288369564808647, 54.370516703906809 ], [ 17.281682818658055, 54.37475975008693 ], [ 17.266477093155686, 54.384563332745245 ], [ 17.26419597620416, 54.386072186124991 ], [ 17.247342830313201, 54.397391337082688 ], [ 17.244539666651953, 54.399307767562227 ], [ 17.231097714130463, 54.408717089821565 ], [ 17.222552443157422, 54.41483443003608 ], [ 17.215427509585286, 54.420049197881745 ], [ 17.200509704249466, 54.431243207846315 ], [ 17.200321077680847, 54.431387716700556 ], [ 17.185801795658243, 54.442733206500066 ], [ 17.178403074650298, 54.448688498272716 ], [ 17.171824565824689, 54.454085193919077 ], [ 17.158393889938221, 54.46544393323628 ], [ 17.156223464529383, 54.467332463864878 ], [ 17.14551883148479, 54.476809743214552 ], [ 17.133956258146494, 54.487450008212079 ], [ 17.133173121768973, 54.488182392971083 ], [ 17.121382646285671, 54.499562444389227 ], [ 17.11157972659252, 54.509455862056171 ], [ 17.110121040259322, 54.510949644910703 ], [ 17.099411459380615, 54.522344503536559 ], [ 17.089235568923588, 54.533746874232698 ], [ 17.089062491714447, 54.533949621101456 ], [ 17.079616142837597, 54.545157250388904 ], [ 17.070541274169937, 54.556575571670827 ], [ 17.066341112378563, 54.562176794762429 ], [ 17.062021983624998, 54.568002134025527 ], [ 17.05406541563557, 54.579437166428853 ], [ 17.046671718351043, 54.590880778872453 ], [ 17.043294192877937, 54.596525596790535 ], [ 17.039852174666954, 54.602333253797241 ], [ 17.033615720067171, 54.613794829812612 ], [ 17.02796653957714, 54.625265661491916 ], [ 17.022913481467828, 54.636745971727215 ], [ 17.019493224475955, 54.645570748945026 ], [ 17.019346664326555, 54.64825039397725 ], [ 17.019362460679925, 54.64825940505056 ], [ 17.039780057654987, 54.660145544948797 ], [ 17.040224839250982, 54.660399049432385 ], [ 17.061651975277901, 54.660941614786303 ], [ 17.081340153169556, 54.672373615598325 ], [ 17.082534530601031, 54.673053338012835 ], [ 17.101866773610983, 54.684259481987851 ], [ 17.10343013328637, 54.685148411346248 ], [ 17.124872414031906, 54.685657846362332 ], [ 17.143573164702754, 54.696468103055338 ], [ 17.145788086099124, 54.69772562834666 ], [ 17.167238324819898, 54.698213655310376 ], [ 17.185367229362662, 54.708663463343861 ], [ 17.188173992248984, 54.710254622353993 ], [ 17.209632102327685, 54.710721844741478 ], [ 17.227246971210604, 54.720845449178974 ], [ 17.230587692882118, 54.722736472950928 ], [ 17.252053590922038, 54.723183472599963 ], [ 17.26921045969717, 54.733013950474785 ], [ 17.27302903477986, 54.735172222901852 ], [ 17.29450264074725, 54.735599554247578 ], [ 17.315977017592054, 54.736017279442919 ], [ 17.337452144470024, 54.736425560102944 ], [ 17.353820554421741, 54.745754217887615 ], [ 17.358461077892464, 54.74836988516136 ], [ 17.379943759814338, 54.748759537329747 ], [ 17.401427134917164, 54.749140141480716 ], [ 17.42291118456377, 54.749511833567261 ], [ 17.444395890667604, 54.749874742659152 ], [ 17.465881235669503, 54.750228991077535 ], [ 17.481357421225479, 54.758980178882773 ], [ 17.486936897968743, 54.762112607187696 ], [ 17.508429594468737, 54.762449479526381 ], [ 17.529922881415768, 54.762777981034915 ], [ 17.551416743033702, 54.763098209291137 ], [ 17.572911163979647, 54.763410255414158 ], [ 17.587902613557436, 54.771828890238126 ], [ 17.594006368260029, 54.775244152941326 ], [ 17.615507993858081, 54.775539531071722 ], [ 17.637010136130993, 54.775826924588081 ], [ 17.65851278120557, 54.776106399530214 ], [ 17.673286163752014, 54.784354014716179 ], [ 17.679640601137816, 54.787899789768282 ], [ 17.701150346526468, 54.788162904955257 ], [ 17.722660555963483, 54.78841821900285 ], [ 17.737384297734934, 54.796599110451787 ], [ 17.743814239901244, 54.800179383726842 ], [ 17.765331478589612, 54.800418377071857 ], [ 17.786849145077291, 54.800649619368109 ], [ 17.808367227492692, 54.800873128889897 ], [ 17.823122723456304, 54.809021893113609 ], [ 17.829553241215109, 54.812592649372625 ], [ 17.851078264505521, 54.812799654534473 ], [ 17.872603670260418, 54.812998878235156 ], [ 17.887509631488086, 54.821190009481143 ], [ 17.893815365884159, 54.824684012695243 ], [ 17.915347651703929, 54.824866321453882 ], [ 17.936880288158733, 54.82504071166278 ], [ 17.958413264673144, 54.825207142811635 ], [ 17.979946570807936, 54.825365565551152 ], [ 18.001480196243403, 54.825515921416056 ], [ 18.023014130762405, 54.825658142523807 ], [ 18.044548364233005, 54.825792151248429 ], [ 18.066082886590682, 54.825917859869428 ], [ 18.087617687819932, 54.826035170195937 ], [ 18.109152757935256, 54.826143973166026 ], [ 18.130688086961353, 54.826244148422077 ], [ 18.152223664912484, 54.826335563862621 ], [ 18.173759481770791, 54.826418075172121 ], [ 18.195295527463607, 54.826491525330347 ], [ 18.216831791839482, 54.826555744103473 ], [ 18.23836826464289, 54.826610547519834 ], [ 18.259904935487516, 54.8266557373341 ], [ 18.281441793827884, 54.826691100484403 ], [ 18.302978828929348, 54.826716408547995 ], [ 18.324516029836197, 54.826731417202701 ], [ 18.346053385337861, 54.826735865701991 ], [ 18.350205117237991, 54.824548542840574 ], [ 18.367769614160299, 54.815288903149096 ], [ 18.371915879659827, 54.813102472859285 ], [ 18.389473700508638, 54.803829252739028 ], [ 18.393598078385892, 54.801652387192718 ], [ 18.411165636887624, 54.792356991317263 ], [ 18.415251869022907, 54.790198300142364 ], [ 18.415601710196565, 54.778639615902875 ], [ 18.41593504281288, 54.767080829722062 ], [ 18.41156731837178, 54.764693219374436 ], [ 18.394963732226916, 54.755417622442543 ], [ 18.395266801920631, 54.743858684076777 ], [ 18.395555903434655, 54.732299653829173 ], [ 18.412164666413666, 54.723466248108295 ], [ 18.417118198626511, 54.720844739116949 ], [ 18.433807650919857, 54.711952722492882 ], [ 18.438653516133325, 54.709385872234314 ], [ 18.455438485951742, 54.700427205371255 ], [ 18.46016169211957, 54.697923065117195 ], [ 18.460394816593389, 54.686363587783916 ], [ 18.460615551658201, 54.674804033151617 ], [ 18.460824294151728, 54.663244403026518 ], [ 18.461021400232859, 54.651684699028543 ], [ 18.461207188316958, 54.640124922605033 ], [ 18.477797295071404, 54.631219893489416 ], [ 18.499231344225446, 54.631199410976528 ], [ 18.50384421931448, 54.628746480870007 ], [ 18.504002464590972, 54.617186508149253 ], [ 18.504149707119378, 54.60562646829591 ], [ 18.521072661030768, 54.596504637513419 ], [ 18.525491617114628, 54.594151339747889 ], [ 18.525614168317595, 54.582591145245338 ], [ 18.54274773413773, 54.573333178318769 ], [ 18.546913524382813, 54.571112064183879 ], [ 18.547011362092789, 54.559551723056245 ], [ 18.547098652659507, 54.547991320379523 ], [ 18.547175515767382, 54.536430856604532 ], [ 18.547242052780916, 54.52487033211078 ], [ 18.547298348893712, 54.513309747214606 ], [ 18.547344475288298, 54.501749102177371 ], [ 18.565015179171315, 54.492143691445463 ], [ 18.568528136094518, 54.490265717345494 ], [ 18.565055315123473, 54.488362711291934 ], [ 18.5474064467634, 54.478627632499816 ], [ 18.547422384066451, 54.467066808182196 ], [ 18.547428340740399, 54.455505924386365 ], [ 18.565508057082354, 54.445651545448584 ], [ 18.568552290675743, 54.44402226654686 ], [ 18.586962272400967, 54.43397188345017 ], [ 18.589644987432671, 54.432534808438994 ], [ 18.589610481792551, 54.420973739721198 ], [ 18.608515378410988, 54.410630518936863 ], [ 18.629834399547772, 54.410568591967824 ], [ 18.631735218806899, 54.409548546230816 ], [ 18.651252295976949, 54.398844677845048 ], [ 18.672565263676169, 54.398763301328032 ], [ 18.673783700627382, 54.398108468443638 ], [ 18.693964968169887, 54.387014899754035 ], [ 18.694732075726918, 54.386602261265814 ], [ 18.715352527427388, 54.375251677121994 ], [ 18.715648482580868, 54.3750923370105 ], [ 18.722598661636077, 54.36354749560315 ], [ 18.715471040638892, 54.358109536124736 ], [ 18.707135903728169, 54.351949936374567 ], [ 18.694292235903148, 54.342968940876972 ], [ 18.690411325671761, 54.340347133393749 ], [ 18.673117923475473, 54.329219732607413 ], [ 18.672341587031578, 54.32873833357435 ], [ 18.652811074341624, 54.317122597432103 ], [ 18.651947927060593, 54.316628378929096 ], [ 18.631729425134754, 54.305498936803581 ], [ 18.630782251632766, 54.304994732154285 ], [ 18.609620704310082, 54.294183005940461 ], [ 18.60897318327488, 54.29386613493795 ], [ 18.588462999262966, 54.284094729473253 ], [ 18.584347591193247, 54.282222569056231 ], [ 18.56730896041703, 54.274640279491337 ], [ 18.557702413802904, 54.270566538480075 ], [ 18.546158313998692, 54.265755678291328 ], [ 18.528851981408387, 54.258895973666043 ], [ 18.525010733186935, 54.257393005582678 ], [ 18.503865949613783, 54.24950768572684 ], [ 18.497369294889847, 54.247207505685545 ], [ 18.482723733535938, 54.242059377452435 ], [ 18.462982833500799, 54.235497855072829 ], [ 18.461583594265711, 54.235034148916078 ], [ 18.440445628929801, 54.228376752257873 ], [ 18.424891453366858, 54.223760706981217 ], [ 18.419309094998034, 54.2220998195425 ], [ 18.398174089856806, 54.216156489451748 ], [ 18.382400680864755, 54.211988978891526 ], [ 18.377039882225489, 54.210561326954824 ], [ 18.355906705514418, 54.205265003620859 ], [ 18.33477336540868, 54.20031333573462 ], [ 18.334120784014747, 54.200170328720297 ], [ 18.313640815647805, 54.195616907067475 ], [ 18.292507471900873, 54.191245570751846 ], [ 18.277040865132165, 54.188279743713835 ], [ 18.271373328692242, 54.187171342400617 ], [ 18.250238680734601, 54.183352795672441 ], [ 18.229102108629885, 54.179845192484251 ], [ 18.207963222483016, 54.176644047823594 ], [ 18.205195510318937, 54.1762654643071 ], [ 18.186822847855517, 54.17368338004492 ], [ 18.165679489943219, 54.171019177554598 ], [ 18.144532531520458, 54.168659378577409 ], [ 18.123381513659986, 54.166603666944347 ], [ 18.10222595734912, 54.164852678899827 ], [ 18.08783051746633, 54.163871988662422 ], [ 18.081065646854594, 54.163395103740143 ], [ 18.059900196742305, 54.162228125262907 ], [ 18.038728445148244, 54.16138266430255 ], [ 18.017549777669, 54.160863855811087 ], [ 17.996363543814919, 54.160677877152366 ], [ 17.975169053734362, 54.160831969832799 ], [ 17.953965574753134, 54.161334465426222 ], [ 17.93275232770943, 54.162194815802138 ], [ 17.926676640343061, 54.162543471786016 ], [ 17.91152940384282, 54.163388547335643 ], [ 17.890295802174251, 54.164933850419693 ] ] ], [ [ [ 18.714461078157949, 54.687228483944409 ], [ 18.713178628392136, 54.686532060990231 ], [ 18.711886400772443, 54.687222390652472 ], [ 18.713168850088344, 54.687918827200306 ], [ 18.714461078157949, 54.687228483944409 ] ] ], [ [ [ 18.672036163399031, 54.698681512003311 ], [ 18.670162861303343, 54.697663274083943 ], [ 18.668273122890845, 54.698671272024391 ], [ 18.670146423881175, 54.699689538977545 ], [ 18.672036163399031, 54.698681512003311 ] ] ], [ [ [ 18.650668602748969, 54.710182208223031 ], [ 18.648595754577226, 54.709055133837829 ], [ 18.646503521802913, 54.710170134786694 ], [ 18.648576368531778, 54.711297244735846 ], [ 18.650668602748969, 54.710182208223031 ] ] ], [ [ [ 18.583940733229127, 54.731610141546554 ], [ 18.581170651954974, 54.733082808570884 ], [ 18.583910360890798, 54.734574442663245 ], [ 18.586680445155189, 54.733101713422535 ], [ 18.583940733229127, 54.731610141546554 ] ] ], [ [ [ 18.454413090341916, 54.776803105640305 ], [ 18.450632442350042, 54.778803285786601 ], [ 18.454358793492361, 54.780837339376347 ], [ 18.45813944876679, 54.778837043803435 ], [ 18.454413090341916, 54.776803105640305 ] ] ] ] } }
]
}
