{
"type": "FeatureCollection",
"name": "istotne_ryzyko_cykl2_ŚW_nasil3",
"crs": { "type": "name", "properties": { "name": "urn:ogc:def:crs:EPSG::2180" } },
"features": [
{ "type": "Feature", "properties": { }, "geometry": { "type": "MultiPolygon", "coordinates": [ [ [ [ 390822.190228212741204, 627332.743096053251065 ], [ 399449.911103212623857, 627332.743096053251065 ], [ 399449.911103212623857, 628936.993171764304861 ], [ 406352.087803212576546, 628936.993171764304861 ], [ 406352.087803212576546, 630541.243246671743691 ], [ 409803.17615321255289, 630541.243246671743691 ], [ 409803.17615321255289, 632145.493321579182521 ], [ 413254.264503212529235, 632145.493321579182521 ], [ 413254.264503212529235, 633749.74339648662135 ], [ 416705.352853212505579, 633749.74339648662135 ], [ 416705.352853212505579, 635353.993469787063077 ], [ 420156.441203212481923, 635353.993469787063077 ], [ 420156.441203212481923, 636958.243546301615424 ], [ 423607.529553212458268, 636958.243546301615424 ], [ 423607.529553212458268, 638562.493621209054254 ], [ 425333.073728212504648, 638562.493621209054254 ], [ 425333.073728212504648, 640166.743696116609499 ], [ 428784.162078212480992, 640166.743696116609499 ], [ 428784.162078212480992, 641770.993771024048328 ], [ 430509.706253212410957, 641770.993771024048328 ], [ 430509.706253212410957, 643375.243846734985709 ], [ 432235.250428212457336, 643375.243846734985709 ], [ 432235.250428212457336, 644979.493920838925987 ], [ 433960.794603212387301, 644979.493920838925987 ], [ 433960.794603212387301, 646583.743994942866266 ], [ 435686.338778212433681, 646583.743994942866266 ], [ 435686.338778212433681, 648187.994071457418613 ], [ 437411.882951605366543, 648187.994071457418613 ], [ 437411.882951605366543, 649792.244146364973858 ], [ 439137.427128212410025, 649792.244146364973858 ], [ 439137.427128212410025, 651396.494221272412688 ], [ 440862.971301605342887, 651396.494221272412688 ], [ 440862.971301605342887, 653000.744296179851517 ], [ 442588.51547821238637, 653000.744296179851517 ], [ 442588.51547821238637, 654604.994371087290347 ], [ 444314.059651605319232, 654604.994371087290347 ], [ 444314.059651605319232, 656209.244445994729176 ], [ 446039.603828212362714, 656209.244445994729176 ], [ 446039.603828212362714, 657813.494521705782972 ], [ 447765.148001605295576, 657813.494521705782972 ], [ 447765.148001605295576, 659417.744596613338217 ], [ 449490.692178212339059, 659417.744596613338217 ], [ 449490.692178212339059, 662626.244746428215876 ], [ 451216.236351605271921, 662626.244746428215876 ], [ 451216.236351605271921, 664230.494821335654706 ], [ 452941.780528212315403, 664230.494821335654706 ], [ 452941.780528212315403, 667438.994971150532365 ], [ 454667.324701605248265, 667438.994971150532365 ], [ 454667.324701605248265, 670647.495121769141406 ], [ 456392.868878212291747, 670647.495121769141406 ], [ 456392.868878212291747, 672251.745196676580235 ], [ 458118.413051605224609, 672251.745196676580235 ], [ 458118.413051605224609, 675460.245346491457894 ], [ 459843.957228212268092, 675460.245346491457894 ], [ 459843.957228212268092, 680272.995571213774383 ], [ 461569.501401605200954, 680272.995571213774383 ], [ 461569.501401605200954, 683481.495721028884873 ], [ 463295.045578212244436, 683481.495721028884873 ], [ 463295.045578212244436, 689898.496021462138742 ], [ 465020.589751605177298, 689898.496021462138742 ], [ 465020.589751605177298, 696315.496321092126891 ], [ 466746.133928212220781, 696315.496321092126891 ], [ 466746.133928212220781, 728400.497827276587486 ], [ 465020.589751605177298, 728400.497827276587486 ], [ 465020.589751605177298, 734817.498127710074186 ], [ 463295.045578212244436, 734817.498127710074186 ], [ 463295.045578212244436, 738025.998277524951845 ], [ 461569.501401605200954, 738025.998277524951845 ], [ 461569.501401605200954, 742838.748503050999716 ], [ 459843.957228212268092, 742838.748503050999716 ], [ 459843.957228212268092, 746047.248652865877375 ], [ 458118.413051605224609, 746047.248652865877375 ], [ 458118.413051605224609, 747651.498727773316205 ], [ 456392.868878212291747, 747651.498727773316205 ], [ 456392.868878212291747, 750859.998876784695312 ], [ 454667.324701605248265, 750859.998876784695312 ], [ 454667.324701605248265, 752464.248952495865524 ], [ 452941.780528212315403, 752464.248952495865524 ], [ 452941.780528212315403, 754068.499028206802905 ], [ 451216.236351605271921, 754068.499028206802905 ], [ 451216.236351605271921, 755672.749103114241734 ], [ 449490.692178212339059, 755672.749103114241734 ], [ 449490.692178212339059, 757276.999178021680564 ], [ 447765.148001605295576, 757276.999178021680564 ], [ 447765.148001605295576, 758881.249252929119393 ], [ 446039.603828212362714, 758881.249252929119393 ], [ 446039.603828212362714, 760485.499327836558223 ], [ 444314.059651605319232, 760485.499327836558223 ], [ 444314.059651605319232, 762089.749402744229883 ], [ 442588.51547821238637, 762089.749402744229883 ], [ 442588.51547821238637, 763693.999477651668712 ], [ 440862.971301605342887, 763693.999477651668712 ], [ 440862.971301605342887, 765298.249552559107542 ], [ 437411.882951605366543, 765298.249552559107542 ], [ 437411.882951605366543, 766902.499627466546372 ], [ 433960.794603212387301, 766902.499627466546372 ], [ 433960.794603212387301, 768506.749703177483752 ], [ 432235.250428212457336, 768506.749703177483752 ], [ 432235.250428212457336, 770110.999778084922582 ], [ 428784.162078212480992, 770110.999778084922582 ], [ 428784.162078212480992, 771715.249852992361411 ], [ 418430.897020980832167, 771715.249852992361411 ], [ 418430.897020980832167, 770110.999778084922582 ], [ 413254.264496784424409, 770110.999778084922582 ], [ 413254.264496784424409, 768506.749703177483752 ], [ 404626.543620980926789, 768506.749703177483752 ], [ 404626.543620980926789, 766902.499627466546372 ], [ 392547.734396784566343, 766902.499627466546372 ], [ 392547.734396784566343, 765298.249552559107542 ], [ 387371.101870177546516, 765298.249552559107542 ], [ 387371.101870177546516, 763693.999477651668712 ], [ 383920.013520177570172, 763693.999477651668712 ], [ 383920.013520177570172, 762089.749402744229883 ], [ 382194.46934678463731, 762089.749402744229883 ], [ 382194.46934678463731, 760485.499327836558223 ], [ 378743.380996784660965, 760485.499327836558223 ], [ 378743.380996784660965, 758881.249252929119393 ], [ 375292.292646784684621, 758881.249252929119393 ], [ 375292.292646784684621, 757276.999178021680564 ], [ 373566.748470177641138, 757276.999178021680564 ], [ 373566.748470177641138, 755672.749103114241734 ], [ 371841.204296784708276, 755672.749103114241734 ], [ 371841.204296784708276, 754068.499028206802905 ], [ 370115.660120177664794, 754068.499028206802905 ], [ 370115.660120177664794, 752464.248952495865524 ], [ 368390.115946784731932, 752464.248952495865524 ], [ 368390.115946784731932, 750859.998876784695312 ], [ 364939.027596784755588, 750859.998876784695312 ], [ 364939.027596784755588, 749255.748802680755034 ], [ 358036.850896784802899, 749255.748802680755034 ], [ 358036.850896784802899, 747651.498727773316205 ], [ 347683.585846784873866, 747651.498727773316205 ], [ 347683.585846784873866, 746047.248652865877375 ], [ 342506.953320177854039, 746047.248652865877375 ], [ 342506.953320177854039, 744442.998577958438545 ], [ 339055.864970177877694, 744442.998577958438545 ], [ 339055.864970177877694, 742838.748503050999716 ], [ 337330.320796784944832, 742838.748503050999716 ], [ 337330.320796784944832, 741234.498428143560886 ], [ 335604.77662017790135, 741234.498428143560886 ], [ 335604.77662017790135, 739630.248352432390675 ], [ 333879.232446784968488, 739630.248352432390675 ], [ 333879.232446784968488, 738025.998277524951845 ], [ 332153.688270177925006, 738025.998277524951845 ], [ 332153.688270177925006, 734817.498127710074186 ], [ 330428.144096784992144, 734817.498127710074186 ], [ 330428.144096784992144, 733213.248052802635357 ], [ 328702.599920177948661, 733213.248052802635357 ], [ 328702.599920177948661, 730004.747902987757698 ], [ 326977.055746785015799, 730004.747902987757698 ], [ 326977.055746785015799, 728400.497827276587486 ], [ 325251.511570177972317, 728400.497827276587486 ], [ 325251.511570177972317, 726796.247753172647208 ], [ 323525.967396785039455, 726796.247753172647208 ], [ 323525.967396785039455, 725191.997677461709827 ], [ 321800.423220177995972, 725191.997677461709827 ], [ 321800.423220177995972, 723587.747602554270998 ], [ 320074.87904678506311, 723587.747602554270998 ], [ 320074.87904678506311, 720379.247452739393339 ], [ 318349.334870178019628, 720379.247452739393339 ], [ 318349.334870178019628, 710753.746996062807739 ], [ 320074.87904678506311, 710753.746996062807739 ], [ 320074.87904678506311, 696315.496321092126891 ], [ 321800.423220177995972, 696315.496321092126891 ], [ 321800.423220177995972, 688294.245946554699913 ], [ 323525.967396785039455, 688294.245946554699913 ], [ 323525.967396785039455, 681877.245646121446043 ], [ 325251.511570177972317, 681877.245646121446043 ], [ 325251.511570177972317, 677064.495421398896724 ], [ 326977.055746785015799, 677064.495421398896724 ], [ 326977.055746785015799, 672251.745196676580235 ], [ 328702.599920177948661, 672251.745196676580235 ], [ 328702.599920177948661, 667438.994971150532365 ], [ 330428.144096784992144, 667438.994971150532365 ], [ 330428.144096784992144, 664230.494821335654706 ], [ 332153.688270177925006, 664230.494821335654706 ], [ 332153.688270177925006, 661021.994671520777047 ], [ 333879.232446784968488, 661021.994671520777047 ], [ 333879.232446784968488, 657813.494521705782972 ], [ 335604.77662017790135, 657813.494521705782972 ], [ 335604.77662017790135, 654604.994371087290347 ], [ 337330.320796784944832, 654604.994371087290347 ], [ 337330.320796784944832, 653000.744296179851517 ], [ 339055.864970177877694, 653000.744296179851517 ], [ 339055.864970177877694, 649792.244146364973858 ], [ 340781.409146784921177, 649792.244146364973858 ], [ 340781.409146784921177, 648187.994071457418613 ], [ 342506.953320177854039, 648187.994071457418613 ], [ 342506.953320177854039, 646583.743994942866266 ], [ 344232.497496784897521, 646583.743994942866266 ], [ 344232.497496784897521, 643375.243846734985709 ], [ 345958.041670177830383, 643375.243846734985709 ], [ 345958.041670177830383, 641770.993771024048328 ], [ 347683.585846784873866, 641770.993771024048328 ], [ 347683.585846784873866, 640166.743696116609499 ], [ 349409.130020177806728, 640166.743696116609499 ], [ 349409.130020177806728, 638562.493621209054254 ], [ 351134.67419678485021, 638562.493621209054254 ], [ 351134.67419678485021, 636958.243546301615424 ], [ 354585.762546784826554, 636958.243546301615424 ], [ 354585.762546784826554, 635353.993469787063077 ], [ 356311.306720177759416, 635353.993469787063077 ], [ 356311.306720177759416, 633749.74339648662135 ], [ 359762.395070177735761, 633749.74339648662135 ], [ 359762.395070177735761, 632145.493321579182521 ], [ 361487.939246784779243, 632145.493321579182521 ], [ 361487.939246784779243, 630541.243246671743691 ], [ 364939.027596784755588, 630541.243246671743691 ], [ 364939.027596784755588, 628936.993171764304861 ], [ 370115.660120177664794, 628936.993171764304861 ], [ 370115.660120177664794, 627332.743096053251065 ], [ 378743.380996784660965, 627332.743096053251065 ], [ 378743.380996784660965, 625728.493021145812236 ], [ 390822.190228212741204, 625728.493021145812236 ], [ 390822.190228212741204, 627332.743096053251065 ] ] ], [ [ [ 609966.300451604183763, 612894.492420278955251 ], [ 615142.93297821120359, 612894.492420278955251 ], [ 615142.93297821120359, 614498.742495990009047 ], [ 616868.477152407635003, 614498.742495990009047 ], [ 616868.477152407635003, 616102.992571700946428 ], [ 618594.021328211179934, 616102.992571700946428 ], [ 618594.021328211179934, 624124.242952666478232 ], [ 616868.477152407635003, 624124.242952666478232 ], [ 616868.477152407635003, 625728.493027573917061 ], [ 606515.212096783099696, 625728.493027573917061 ], [ 606515.212096783099696, 624124.242952666478232 ], [ 604789.667920176056214, 624124.242952666478232 ], [ 604789.667920176056214, 622519.992877759039402 ], [ 603064.123746783123352, 622519.992877759039402 ], [ 603064.123746783123352, 620915.742802851600572 ], [ 601338.579570176079869, 620915.742802851600572 ], [ 601338.579570176079869, 614498.742495990009047 ], [ 603064.123746783123352, 614498.742495990009047 ], [ 603064.123746783123352, 612894.492420278955251 ], [ 604789.667920176056214, 612894.492420278955251 ], [ 604789.667920176056214, 611290.242346175014973 ], [ 609966.300451604183763, 611290.242346175014973 ], [ 609966.300451604183763, 612894.492420278955251 ] ] ], [ [ [ 337330.320802409551106, 253542.475621721183416 ], [ 339055.864978213096038, 253542.475621721183416 ], [ 339055.864978213096038, 255146.725696628651349 ], [ 340781.409152409527451, 255146.725696628651349 ], [ 340781.409152409527451, 256750.975771536119282 ], [ 342506.953328213072382, 256750.975771536119282 ], [ 342506.953328213072382, 259959.475921351055149 ], [ 344232.497502409503795, 259959.475921351055149 ], [ 344232.497502409503795, 261563.725996258523082 ], [ 349409.130028213025071, 261563.725996258523082 ], [ 349409.130028213025071, 263167.976071165991016 ], [ 351134.674202409456484, 263167.976071165991016 ], [ 351134.674202409456484, 264772.226146073488053 ], [ 352860.218370177783072, 264772.226146073488053 ], [ 352860.218370177783072, 263167.976071165991016 ], [ 354585.762552409432828, 263167.976071165991016 ], [ 354585.762552409432828, 266376.476220177428331 ], [ 356311.306720177759416, 266376.476220177428331 ], [ 356311.306720177759416, 263167.976071165991016 ], [ 358036.850902409409173, 263167.976071165991016 ], [ 358036.850902409409173, 272793.476526235463098 ], [ 356311.30672821297776, 272793.476526235463098 ], [ 356311.30672821297776, 274397.726602749957237 ], [ 352860.218378213001415, 274397.726602749957237 ], [ 352860.218378213001415, 280814.72690318338573 ], [ 351134.674202409456484, 280814.72690318338573 ], [ 351134.674202409456484, 282418.976978090824559 ], [ 349409.130028213025071, 282418.976978090824559 ], [ 349409.130028213025071, 284023.227051391266286 ], [ 347683.58585240948014, 284023.227051391266286 ], [ 347683.58585240948014, 285627.477120674098842 ], [ 349409.130028213025071, 285627.477120674098842 ], [ 349409.130028213025071, 288835.977271292591467 ], [ 352860.218370177783072, 288835.977271292591467 ], [ 352860.218370177783072, 287231.72719638509443 ], [ 354585.762546784826554, 287231.72719638509443 ], [ 354585.762546784826554, 285627.477120674098842 ], [ 361487.939246784779243, 285627.477120674098842 ], [ 361487.939246784779243, 284023.227046570158564 ], [ 364939.027596784755588, 284023.227046570158564 ], [ 364939.027596784755588, 282418.976971662719734 ], [ 366664.57177017768845, 282418.976971662719734 ], [ 366664.57177017768845, 280814.726896755222697 ], [ 370115.660128212883137, 280814.726896755222697 ], [ 370115.660128212883137, 282418.976971662719734 ], [ 371841.204296784708276, 282418.976971662719734 ], [ 371841.204296784708276, 279210.476821044227108 ], [ 373566.748470177641138, 279210.476821044227108 ], [ 373566.748470177641138, 276001.976671229291242 ], [ 375292.292646784684621, 276001.976671229291242 ], [ 375292.292646784684621, 274397.726595518295653 ], [ 382194.46934678463731, 274397.726595518295653 ], [ 382194.46934678463731, 267980.726296691922471 ], [ 383920.013528212788515, 267980.726296691922471 ], [ 383920.013528212788515, 269584.976369992364198 ], [ 385645.557696784613654, 269584.976369992364198 ], [ 385645.557696784613654, 267980.726296691922471 ], [ 387371.101870177546516, 267980.726296691922471 ], [ 387371.101870177546516, 266376.476220177428331 ], [ 390822.190228212741204, 266376.476220177428331 ], [ 390822.190228212741204, 267980.726296691922471 ], [ 404626.543628212646581, 267980.726296691922471 ], [ 404626.543628212646581, 269584.976369992364198 ], [ 406352.087803212576546, 269584.976369992364198 ], [ 406352.087803212576546, 274397.726595518295653 ], [ 408077.631970980903134, 274397.726595518295653 ], [ 408077.631970980903134, 272793.476521414355375 ], [ 409803.17615321255289, 272793.476521414355375 ], [ 409803.17615321255289, 276001.976671229291242 ], [ 411528.72032821259927, 276001.976671229291242 ], [ 411528.72032821259927, 311295.478326425305568 ], [ 409803.17615321255289, 311295.478326425305568 ], [ 409803.17615321255289, 319316.728702569729649 ], [ 408077.631978212622926, 319316.728702569729649 ], [ 408077.631978212622926, 325733.729003003099933 ], [ 406352.087803212576546, 325733.729003003099933 ], [ 406352.087803212576546, 330546.479227725532837 ], [ 404626.543628212646581, 330546.479227725532837 ], [ 404626.543628212646581, 333754.979375933413394 ], [ 402900.999453212600201, 333754.979375933413394 ], [ 402900.999453212600201, 338567.7296022628434 ], [ 401175.455278212670237, 338567.7296022628434 ], [ 401175.455278212670237, 341776.229752881336026 ], [ 399449.911103212623857, 341776.229752881336026 ], [ 399449.911103212623857, 344984.729901089216582 ], [ 397724.366928212693892, 344984.729901089216582 ], [ 397724.366928212693892, 346588.97997760376893 ], [ 395998.822753212647513, 346588.97997760376893 ], [ 395998.822753212647513, 349797.480126615148038 ], [ 394273.278578212717548, 349797.480126615148038 ], [ 394273.278578212717548, 351401.730202326143626 ], [ 392547.734402409172617, 351401.730202326143626 ], [ 392547.734402409172617, 354610.230352141079493 ], [ 390822.190228212741204, 354610.230352141079493 ], [ 390822.190228212741204, 356214.480427852075081 ], [ 389096.646052409196272, 356214.480427852075081 ], [ 389096.646052409196272, 359422.980577667010948 ], [ 387371.101878212764859, 359422.980577667010948 ], [ 387371.101878212764859, 361027.230651770951226 ], [ 385645.557702409219928, 361027.230651770951226 ], [ 385645.557702409219928, 362631.480727481946815 ], [ 383920.013528212788515, 362631.480727481946815 ], [ 383920.013528212788515, 364235.730803192942403 ], [ 382194.469352409243584, 364235.730803192942403 ], [ 382194.469352409243584, 365839.980877296882682 ], [ 380468.92517821281217, 365839.980877296882682 ], [ 380468.92517821281217, 367444.23095300787827 ], [ 378743.381002409267239, 367444.23095300787827 ], [ 378743.381002409267239, 369048.481027915375307 ], [ 377017.836828212835826, 369048.481027915375307 ], [ 377017.836828212835826, 370652.731102822814137 ], [ 375292.292652409290895, 370652.731102822814137 ], [ 375292.292652409290895, 372256.981176926754415 ], [ 371841.20430240931455, 372256.981176926754415 ], [ 371841.20430240931455, 373861.231252637750003 ], [ 370115.660128212883137, 373861.231252637750003 ], [ 370115.660128212883137, 375465.481327545247041 ], [ 368390.115952409338206, 375465.481327545247041 ], [ 368390.115952409338206, 377069.73140245268587 ], [ 364939.027602409361862, 377069.73140245268587 ], [ 364939.027602409361862, 378673.981478163681459 ], [ 361487.939252409385517, 378673.981478163681459 ], [ 361487.939252409385517, 380278.231553071178496 ], [ 359762.395078212954104, 380278.231553071178496 ], [ 359762.395078212954104, 381882.481627978617325 ], [ 356311.30672821297776, 381882.481627978617325 ], [ 356311.30672821297776, 383486.731702886114363 ], [ 351134.674202409456484, 383486.731702886114363 ], [ 351134.674202409456484, 385090.9817777936114 ], [ 347683.58585240948014, 385090.9817777936114 ], [ 347683.58585240948014, 386695.231852701050229 ], [ 340781.409152409527451, 386695.231852701050229 ], [ 340781.409152409527451, 388299.481927608489059 ], [ 332153.688278213143349, 388299.481927608489059 ], [ 332153.688278213143349, 389903.732002515986096 ], [ 311447.158170178066939, 389903.732002515986096 ], [ 311447.158170178066939, 388299.481927608489059 ], [ 301093.893120178137906, 388299.481927608489059 ], [ 301093.893120178137906, 386695.231852701050229 ], [ 295917.260596785228699, 386695.231852701050229 ], [ 295917.260596785228699, 385090.9817777936114 ], [ 290740.628070178208873, 385090.9817777936114 ], [ 290740.628070178208873, 383486.731702886114363 ], [ 285563.995546785299666, 383486.731702886114363 ], [ 285563.995546785299666, 381882.481627978617325 ], [ 282112.907196785323322, 381882.481627978617325 ], [ 282112.907196785323322, 380278.231553071178496 ], [ 278661.818846785346977, 380278.231553071178496 ], [ 278661.818846785346977, 378673.981478163681459 ], [ 275210.730496785370633, 378673.981478163681459 ], [ 275210.730496785370633, 377069.73140245268587 ], [ 273485.186320178327151, 377069.73140245268587 ], [ 273485.186320178327151, 375465.481327545247041 ], [ 270034.097970178350806, 375465.481327545247041 ], [ 270034.097970178350806, 373861.231252637750003 ], [ 268308.553796785417944, 373861.231252637750003 ], [ 268308.553796785417944, 372256.981176926754415 ], [ 264857.4654467854416, 372256.981176926754415 ], [ 264857.4654467854416, 370652.731102822814137 ], [ 263131.921270178398117, 370652.731102822814137 ], [ 263131.921270178398117, 369048.481027915375307 ], [ 261406.377096785436152, 369048.481027915375307 ], [ 261406.377096785436152, 367444.23095300787827 ], [ 259680.832921785447979, 367444.23095300787827 ], [ 259680.832921785447979, 365839.980877296882682 ], [ 257955.288746785459807, 365839.980877296882682 ], [ 257955.288746785459807, 364235.730803192942403 ], [ 256229.744571785471635, 364235.730803192942403 ], [ 256229.744571785471635, 362631.480727481946815 ], [ 254504.200396785483463, 362631.480727481946815 ], [ 254504.200396785483463, 361027.230651770951226 ], [ 252778.656221785495291, 361027.230651770951226 ], [ 252778.656221785495291, 359422.980577667010948 ], [ 251053.112046785507118, 359422.980577667010948 ], [ 251053.112046785507118, 357818.730502759572119 ], [ 249327.567871785518946, 357818.730502759572119 ], [ 249327.567871785518946, 356214.480427852075081 ], [ 247602.023696785530774, 356214.480427852075081 ], [ 247602.023696785530774, 354610.230352141079493 ], [ 245876.479521785542602, 354610.230352141079493 ], [ 245876.479521785542602, 353005.980278037139215 ], [ 244150.93534678555443, 353005.980278037139215 ], [ 244150.93534678555443, 349797.480126615148038 ], [ 242425.391171785566257, 349797.480126615148038 ], [ 242425.391171785566257, 348193.230052511207759 ], [ 240699.846996785578085, 348193.230052511207759 ], [ 240699.846996785578085, 344984.729901089216582 ], [ 238974.302821785589913, 344984.729901089216582 ], [ 238974.302821785589913, 340171.979670742177404 ], [ 240699.846996785578085, 340171.979670742177404 ], [ 240699.846996785578085, 338567.729596638237126 ], [ 244150.93534678555443, 338567.729596638237126 ], [ 244150.93534678555443, 328942.229146389872767 ], [ 245876.479528213705635, 328942.229146389872767 ], [ 245876.479528213705635, 330546.479219690314494 ], [ 247602.023703213693807, 330546.479219690314494 ], [ 247602.023703213693807, 332150.729296204808634 ], [ 251053.112046785507118, 332150.729296204808634 ], [ 251053.112046785507118, 330546.479219690314494 ], [ 254504.200396785483463, 330546.479219690314494 ], [ 254504.200396785483463, 328942.229146389872767 ], [ 261406.377096785436152, 328942.229146389872767 ], [ 261406.377096785436152, 327337.979071482433937 ], [ 264857.4654467854416, 327337.979071482433937 ], [ 264857.4654467854416, 325733.7289965749369 ], [ 266583.009620178374462, 325733.7289965749369 ], [ 266583.009620178374462, 324129.478920863941312 ], [ 273485.186328213545494, 324129.478920863941312 ], [ 273485.186328213545494, 325733.7289965749369 ], [ 275210.730496785370633, 325733.7289965749369 ], [ 275210.730496785370633, 324129.478920863941312 ], [ 276936.274670178303495, 324129.478920863941312 ], [ 276936.274670178303495, 319316.728695338009857 ], [ 278661.818846785346977, 319316.728695338009857 ], [ 278661.818846785346977, 316108.228546326630749 ], [ 280387.363028213498183, 316108.228546326630749 ], [ 280387.363028213498183, 317712.478621234069578 ], [ 287289.539720178232528, 317712.478621234069578 ], [ 287289.539720178232528, 314503.978471419133712 ], [ 289015.083896785276011, 314503.978471419133712 ], [ 289015.083896785276011, 311295.478326425305568 ], [ 287289.539720178232528, 311295.478326425305568 ], [ 287289.539720178232528, 308086.978170182206668 ], [ 290740.628078213427216, 308086.978170182206668 ], [ 290740.628078213427216, 309691.228246696759015 ], [ 292466.172252409858629, 309691.228246696759015 ], [ 292466.172252409858629, 312899.728395708138123 ], [ 294191.71642821340356, 312899.728395708138123 ], [ 294191.71642821340356, 314503.978471419133712 ], [ 297642.804770178161561, 314503.978471419133712 ], [ 297642.804770178161561, 312899.728395708138123 ], [ 301093.893120178137906, 312899.728395708138123 ], [ 301093.893120178137906, 311295.478321604197845 ], [ 302819.437302409787662, 311295.478321604197845 ], [ 302819.437302409787662, 312899.728395708138123 ], [ 304544.981478213332593, 312899.728395708138123 ], [ 304544.981478213332593, 314503.978471419133712 ], [ 311447.158170178066939, 314503.978471419133712 ], [ 311447.158170178066939, 312899.728395708138123 ], [ 313172.702346785110421, 312899.728395708138123 ], [ 313172.702346785110421, 311295.478321604197845 ], [ 314898.246520178043284, 311295.478321604197845 ], [ 314898.246520178043284, 309691.228246696759015 ], [ 316623.790696785086766, 309691.228246696759015 ], [ 316623.790696785086766, 308086.978170182206668 ], [ 318349.334870178019628, 308086.978170182206668 ], [ 318349.334870178019628, 303274.227952691493556 ], [ 316623.790696785086766, 303274.227952691493556 ], [ 316623.790696785086766, 298461.477727969060652 ], [ 313172.702346785110421, 298461.477727969060652 ], [ 313172.702346785110421, 295252.977578154124785 ], [ 311447.158178213285282, 295252.977578154124785 ], [ 311447.158178213285282, 296857.227653061621822 ], [ 309721.613996785134077, 296857.227653061621822 ], [ 309721.613996785134077, 295252.977578154124785 ], [ 307996.069820178090595, 295252.977578154124785 ], [ 307996.069820178090595, 293648.727502443129197 ], [ 304544.98147017811425, 293648.727502443129197 ], [ 304544.98147017811425, 292044.477427535690367 ], [ 302819.437296785181388, 292044.477427535690367 ], [ 302819.437296785181388, 290440.22735262819333 ], [ 301093.893120178137906, 290440.22735262819333 ], [ 301093.893120178137906, 285627.477120674098842 ], [ 302819.437302409787662, 285627.477120674098842 ], [ 302819.437302409787662, 287231.72719638509443 ], [ 304544.98147017811425, 287231.72719638509443 ], [ 304544.98147017811425, 284023.227046570158564 ], [ 306270.525646785157733, 284023.227046570158564 ], [ 306270.525646785157733, 280814.726896755222697 ], [ 307996.069828213308938, 280814.726896755222697 ], [ 307996.069828213308938, 282418.976971662719734 ], [ 313172.702346785110421, 282418.976971662719734 ], [ 313172.702346785110421, 276001.976671229291242 ], [ 318349.334870178019628, 276001.976671229291242 ], [ 318349.334870178019628, 272793.476521414355375 ], [ 320074.87904678506311, 272793.476521414355375 ], [ 320074.87904678506311, 269584.976369992364198 ], [ 321800.423220177995972, 269584.976369992364198 ], [ 321800.423220177995972, 267980.726296691922471 ], [ 323525.967396785039455, 267980.726296691922471 ], [ 323525.967396785039455, 266376.476220177428331 ], [ 325251.511570177972317, 266376.476220177428331 ], [ 325251.511570177972317, 258355.225846443587216 ], [ 326977.055746785015799, 258355.225846443587216 ], [ 326977.055746785015799, 255146.725696628651349 ], [ 328702.599920177948661, 255146.725696628651349 ], [ 328702.599920177948661, 253542.475621721183416 ], [ 330428.144096784992144, 253542.475621721183416 ], [ 330428.144096784992144, 251938.225546010187827 ], [ 333879.232446784968488, 251938.225546010187827 ], [ 333879.232446784968488, 250333.975471102719894 ], [ 337330.320802409551106, 250333.975471102719894 ], [ 337330.320802409551106, 253542.475621721183416 ] ] ], [ [ [ 404626.543628212646581, 255146.725696628651349 ], [ 406352.087803212576546, 255146.725696628651349 ], [ 406352.087803212576546, 258355.225852068222594 ], [ 404626.543620980926789, 258355.225852068222594 ], [ 404626.543620980926789, 256750.975777964282315 ], [ 399449.911096784519032, 256750.975777964282315 ], [ 399449.911096784519032, 255146.725696628651349 ], [ 401175.455270980950445, 255146.725696628651349 ], [ 401175.455270980950445, 253542.475621721183416 ], [ 402900.999446784495376, 253542.475621721183416 ], [ 402900.999446784495376, 250333.975471102719894 ], [ 404626.543628212646581, 250333.975471102719894 ], [ 404626.543628212646581, 255146.725696628651349 ] ] ] ] } }
]
}
