{
"type": "FeatureCollection",
"name": "istotne_ryzyko_cykl3_ŚW_nasil3",
"crs": { "type": "name", "properties": { "name": "urn:ogc:def:crs:EPSG::2180" } },
"features": [
{ "type": "Feature", "properties": { }, "geometry": { "type": "Polygon", "coordinates": [ [ [ 409803.17615321255289, 253542.475621721183416 ], [ 411528.72032821259927, 253542.475621721183416 ], [ 411528.72032821259927, 259959.475921351055149 ], [ 413254.264503212529235, 259959.475921351055149 ], [ 413254.264503212529235, 267980.726296691922471 ], [ 414979.808678212575614, 267980.726296691922471 ], [ 414979.808678212575614, 284023.227046570158564 ], [ 416705.352853212505579, 284023.227046570158564 ], [ 416705.352853212505579, 296857.227653061621822 ], [ 414979.808678212575614, 296857.227653061621822 ], [ 414979.808678212575614, 311295.478327228804119 ], [ 413254.264503212529235, 311295.478327228804119 ], [ 413254.264503212529235, 319316.728702569729649 ], [ 411528.72032821259927, 319316.728702569729649 ], [ 411528.72032821259927, 325733.729003003099933 ], [ 409803.17615321255289, 325733.729003003099933 ], [ 409803.17615321255289, 330546.479227725532837 ], [ 408077.631978212622926, 330546.479227725532837 ], [ 408077.631978212622926, 335359.229452447907533 ], [ 406352.087803212576546, 335359.229452447907533 ], [ 406352.087803212576546, 340171.979677973838989 ], [ 404626.543628212646581, 340171.979677973838989 ], [ 404626.543628212646581, 343380.479827788774855 ], [ 402900.999453212600201, 343380.479827788774855 ], [ 402900.999453212600201, 346588.97997760376893 ], [ 401175.455278212670237, 346588.97997760376893 ], [ 401175.455278212670237, 349797.480126615148038 ], [ 399449.911103212623857, 349797.480126615148038 ], [ 399449.911103212623857, 351401.730202326143626 ], [ 397724.366928212693892, 351401.730202326143626 ], [ 397724.366928212693892, 354610.230352141079493 ], [ 395998.822753212647513, 354610.230352141079493 ], [ 395998.822753212647513, 357818.730502759572119 ], [ 394273.278578212717548, 357818.730502759572119 ], [ 394273.278578212717548, 359422.980577667010948 ], [ 392547.734402409172617, 359422.980577667010948 ], [ 392547.734402409172617, 361027.230651770951226 ], [ 390822.190228212741204, 361027.230651770951226 ], [ 390822.190228212741204, 364235.730803192942403 ], [ 389096.646052409196272, 364235.730803192942403 ], [ 389096.646052409196272, 365839.980877296882682 ], [ 387371.101878212764859, 365839.980877296882682 ], [ 387371.101878212764859, 367444.23095300787827 ], [ 385645.557702409219928, 367444.23095300787827 ], [ 385645.557702409219928, 369048.481027915375307 ], [ 383920.013528212788515, 369048.481027915375307 ], [ 383920.013528212788515, 370652.731102822814137 ], [ 382194.469352409243584, 370652.731102822814137 ], [ 382194.469352409243584, 372256.981176926754415 ], [ 380468.92517821281217, 372256.981176926754415 ], [ 380468.92517821281217, 373861.231252637750003 ], [ 378743.381002409267239, 373861.231252637750003 ], [ 378743.381002409267239, 375465.481327545247041 ], [ 377017.836828212835826, 375465.481327545247041 ], [ 377017.836828212835826, 377069.73140245268587 ], [ 375292.292652409290895, 377069.73140245268587 ], [ 375292.292652409290895, 378673.981478163681459 ], [ 373566.748478212859482, 378673.981478163681459 ], [ 373566.748478212859482, 380278.231553071178496 ], [ 371841.20430240931455, 380278.231553071178496 ], [ 371841.20430240931455, 381882.481627978617325 ], [ 370115.660128212883137, 381882.481627978617325 ], [ 370115.660128212883137, 383486.731702886114363 ], [ 366664.571778212906793, 383486.731702886114363 ], [ 366664.571778212906793, 385090.9817777936114 ], [ 364939.027602409361862, 385090.9817777936114 ], [ 364939.027602409361862, 386695.231852701050229 ], [ 361487.939252409385517, 386695.231852701050229 ], [ 361487.939252409385517, 388299.481927608489059 ], [ 359762.395078212954104, 388299.481927608489059 ], [ 359762.395078212954104, 389903.732002515986096 ], [ 356311.30672821297776, 389903.732002515986096 ], [ 356311.30672821297776, 391507.982077423483133 ], [ 352860.218378213001415, 391507.982077423483133 ], [ 352860.218378213001415, 393112.232153134420514 ], [ 349409.130028213025071, 393112.232153134420514 ], [ 349409.130028213025071, 394716.482228041917551 ], [ 345958.041678213048726, 394716.482228041917551 ], [ 345958.041678213048726, 396320.73230214585783 ], [ 342506.953328213072382, 396320.73230214585783 ], [ 342506.953328213072382, 397924.982377856853418 ], [ 337330.320802409551106, 397924.982377856853418 ], [ 337330.320802409551106, 399529.232452764350455 ], [ 332153.688278213143349, 399529.232452764350455 ], [ 332153.688278213143349, 401133.482527671789285 ], [ 325251.51157821319066, 401133.482527671789285 ], [ 325251.51157821319066, 402737.732602579286322 ], [ 314898.246528213261627, 402737.732602579286322 ], [ 314898.246528213261627, 404341.982677486725152 ], [ 285563.995546785299666, 404341.982677486725152 ], [ 285563.995546785299666, 402737.732602579286322 ], [ 275210.730496785370633, 402737.732602579286322 ], [ 275210.730496785370633, 401133.482527671789285 ], [ 268308.553796785417944, 401133.482527671789285 ], [ 268308.553796785417944, 399529.232452764350455 ], [ 263131.921270178398117, 399529.232452764350455 ], [ 263131.921270178398117, 397924.982377856853418 ], [ 257955.288746785459807, 397924.982377856853418 ], [ 257955.288746785459807, 396320.73230214585783 ], [ 254504.200396785483463, 396320.73230214585783 ], [ 254504.200396785483463, 394716.482228041917551 ], [ 251053.112046785507118, 394716.482228041917551 ], [ 251053.112046785507118, 393112.232153134420514 ], [ 247602.023696785530774, 393112.232153134420514 ], [ 247602.023696785530774, 391507.982077423483133 ], [ 244150.93534678555443, 391507.982077423483133 ], [ 244150.93534678555443, 389903.732002515986096 ], [ 240699.846996785578085, 389903.732002515986096 ], [ 240699.846996785578085, 388299.481927608489059 ], [ 238974.302821785589913, 388299.481927608489059 ], [ 238974.302821785589913, 386695.231852701050229 ], [ 235523.214471785613568, 386695.231852701050229 ], [ 235523.214471785613568, 385090.9817777936114 ], [ 233797.670296785625396, 385090.9817777936114 ], [ 233797.670296785625396, 383486.731702886114363 ], [ 232072.126121785637224, 383486.731702886114363 ], [ 232072.126121785637224, 381882.481627978617325 ], [ 230346.581946785649052, 381882.481627978617325 ], [ 230346.581946785649052, 380278.231553071178496 ], [ 226895.493595178646501, 380278.231553071178496 ], [ 226895.493595178646501, 378673.981478163681459 ], [ 225169.949420178658329, 378673.981478163681459 ], [ 225169.949420178658329, 377069.73140245268587 ], [ 223444.405245178670157, 377069.73140245268587 ], [ 223444.405245178670157, 375465.481327545247041 ], [ 221718.861070178681985, 375465.481327545247041 ], [ 221718.861070178681985, 372256.981176926754415 ], [ 219993.316895178693812, 372256.981176926754415 ], [ 219993.316895178693812, 369048.481027915375307 ], [ 218267.77272017870564, 369048.481027915375307 ], [ 218267.77272017870564, 362631.480727481946815 ], [ 216542.228545178717468, 362631.480727481946815 ], [ 216542.228545178717468, 359422.980577667010948 ], [ 214816.684370178729296, 359422.980577667010948 ], [ 214816.684370178729296, 356214.480427852075081 ], [ 213091.140195178741124, 356214.480427852075081 ], [ 213091.140195178741124, 351401.730202326143626 ], [ 211365.596020178752951, 351401.730202326143626 ], [ 211365.596020178752951, 348193.230052511207759 ], [ 209640.051845178764779, 348193.230052511207759 ], [ 209640.051845178764779, 346588.97997760376893 ], [ 207914.507670178776607, 346588.97997760376893 ], [ 207914.507670178776607, 344984.729901089216582 ], [ 206188.963495178788435, 344984.729901089216582 ], [ 206188.963495178788435, 341776.229746453172993 ], [ 214816.684370178729296, 341776.229746453172993 ], [ 214816.684370178729296, 340171.979670742177404 ], [ 216542.228553213906707, 340171.979670742177404 ], [ 216542.228553213906707, 341776.229746453172993 ], [ 218267.772728213894879, 341776.229746453172993 ], [ 218267.772728213894879, 348193.230046083044726 ], [ 219993.316903213883052, 348193.230046083044726 ], [ 219993.316903213883052, 354610.230352141079493 ], [ 218267.772728213894879, 354610.230352141079493 ], [ 218267.772728213894879, 356214.480421423912048 ], [ 219993.316903213883052, 356214.480421423912048 ], [ 219993.316903213883052, 357818.730495527852327 ], [ 221718.861070178681985, 357818.730495527852327 ], [ 221718.861070178681985, 356214.480421423912048 ], [ 223444.405253213859396, 356214.480421423912048 ], [ 223444.405253213859396, 357818.730495527852327 ], [ 225169.949420178658329, 357818.730495527852327 ], [ 225169.949420178658329, 356214.480421423912048 ], [ 226895.493595178646501, 356214.480421423912048 ], [ 226895.493595178646501, 354610.230346516473219 ], [ 228621.037778213823913, 354610.230346516473219 ], [ 228621.037778213823913, 356214.480421423912048 ], [ 230346.581953213812085, 356214.480421423912048 ], [ 230346.581953213812085, 357818.730495527852327 ], [ 232072.126121785637224, 357818.730495527852327 ], [ 232072.126121785637224, 353005.980271608976182 ], [ 233797.670303213788429, 353005.980271608976182 ], [ 233797.670303213788429, 354610.230346516473219 ], [ 235523.214471785613568, 354610.230346516473219 ], [ 235523.214471785613568, 353005.980271608976182 ], [ 238974.302821785589913, 353005.980271608976182 ], [ 238974.302821785589913, 348193.230052511207759 ], [ 237248.758646785601741, 348193.230052511207759 ], [ 237248.758646785601741, 344984.72989626810886 ], [ 238974.302821785589913, 344984.72989626810886 ], [ 238974.302821785589913, 340171.979670742177404 ], [ 240699.846996785578085, 340171.979670742177404 ], [ 240699.846996785578085, 338567.729596638237126 ], [ 244150.93534678555443, 338567.729596638237126 ], [ 244150.93534678555443, 328942.229146389872767 ], [ 245876.479528213705635, 328942.229146389872767 ], [ 245876.479528213705635, 330546.479219690314494 ], [ 247602.023703213693807, 330546.479219690314494 ], [ 247602.023703213693807, 332150.729296204808634 ], [ 251053.112046785507118, 332150.729296204808634 ], [ 251053.112046785507118, 330546.479219690314494 ], [ 254504.200396785483463, 330546.479219690314494 ], [ 254504.200396785483463, 328942.229146389872767 ], [ 261406.377096785436152, 328942.229146389872767 ], [ 261406.377096785436152, 327337.979071482433937 ], [ 264857.4654467854416, 327337.979071482433937 ], [ 264857.4654467854416, 325733.7289965749369 ], [ 266583.009620178374462, 325733.7289965749369 ], [ 266583.009620178374462, 324129.478920863941312 ], [ 273485.186328213545494, 324129.478920863941312 ], [ 273485.186328213545494, 325733.7289965749369 ], [ 275210.730496785370633, 325733.7289965749369 ], [ 275210.730496785370633, 324129.478920863941312 ], [ 276936.274670178303495, 324129.478920863941312 ], [ 276936.274670178303495, 319316.728695338009857 ], [ 278661.818846785346977, 319316.728695338009857 ], [ 278661.818846785346977, 316108.228546326630749 ], [ 280387.363028213498183, 316108.228546326630749 ], [ 280387.363028213498183, 317712.478621234069578 ], [ 287289.539720178232528, 317712.478621234069578 ], [ 287289.539720178232528, 314503.978471419133712 ], [ 289015.083896785276011, 314503.978471419133712 ], [ 289015.083896785276011, 311295.478326425305568 ], [ 287289.539720178232528, 311295.478326425305568 ], [ 287289.539720178232528, 308086.978170182206668 ], [ 290740.628078213427216, 308086.978170182206668 ], [ 290740.628078213427216, 309691.228246696759015 ], [ 292466.172252409858629, 309691.228246696759015 ], [ 292466.172252409858629, 312899.728395708138123 ], [ 294191.71642821340356, 312899.728395708138123 ], [ 294191.71642821340356, 314503.978471419133712 ], [ 297642.804770178161561, 314503.978471419133712 ], [ 297642.804770178161561, 312899.728395708138123 ], [ 301093.893120178137906, 312899.728395708138123 ], [ 301093.893120178137906, 311295.478321604197845 ], [ 302819.437302409787662, 311295.478321604197845 ], [ 302819.437302409787662, 312899.728395708138123 ], [ 304544.981478213332593, 312899.728395708138123 ], [ 304544.981478213332593, 314503.978471419133712 ], [ 311447.158170178066939, 314503.978471419133712 ], [ 311447.158170178066939, 312899.728395708138123 ], [ 313172.702346785110421, 312899.728395708138123 ], [ 313172.702346785110421, 311295.478321604197845 ], [ 314898.246520178043284, 311295.478321604197845 ], [ 314898.246520178043284, 309691.228246696759015 ], [ 316623.790696785086766, 309691.228246696759015 ], [ 316623.790696785086766, 308086.978170182206668 ], [ 318349.334870178019628, 308086.978170182206668 ], [ 318349.334870178019628, 303274.227952691493556 ], [ 316623.790696785086766, 303274.227952691493556 ], [ 316623.790696785086766, 298461.477727969060652 ], [ 313172.702346785110421, 298461.477727969060652 ], [ 313172.702346785110421, 295252.977578154124785 ], [ 311447.158178213285282, 295252.977578154124785 ], [ 311447.158178213285282, 296857.227653061621822 ], [ 309721.613996785134077, 296857.227653061621822 ], [ 309721.613996785134077, 295252.977578154124785 ], [ 307996.069820178090595, 295252.977578154124785 ], [ 307996.069820178090595, 293648.727502443129197 ], [ 304544.98147017811425, 293648.727502443129197 ], [ 304544.98147017811425, 292044.477427535690367 ], [ 302819.437296785181388, 292044.477427535690367 ], [ 302819.437296785181388, 290440.22735262819333 ], [ 301093.893120178137906, 290440.22735262819333 ], [ 301093.893120178137906, 285627.477120674098842 ], [ 302819.437302409787662, 285627.477120674098842 ], [ 302819.437302409787662, 287231.72719638509443 ], [ 304544.98147017811425, 287231.72719638509443 ], [ 304544.98147017811425, 284023.227046570158564 ], [ 306270.525646785157733, 284023.227046570158564 ], [ 306270.525646785157733, 280814.726896755222697 ], [ 307996.069828213308938, 280814.726896755222697 ], [ 307996.069828213308938, 282418.976971662719734 ], [ 313172.702346785110421, 282418.976971662719734 ], [ 313172.702346785110421, 276001.976671229291242 ], [ 318349.334870178019628, 276001.976671229291242 ], [ 318349.334870178019628, 272793.476521414355375 ], [ 320074.87904678506311, 272793.476521414355375 ], [ 320074.87904678506311, 269584.976369992364198 ], [ 321800.423220177995972, 269584.976369992364198 ], [ 321800.423220177995972, 267980.726296691922471 ], [ 323525.967396785039455, 267980.726296691922471 ], [ 323525.967396785039455, 266376.476220177428331 ], [ 325251.511570177972317, 266376.476220177428331 ], [ 325251.511570177972317, 258355.225846443587216 ], [ 326977.055746785015799, 258355.225846443587216 ], [ 326977.055746785015799, 255146.725696628651349 ], [ 328702.599920177948661, 255146.725696628651349 ], [ 328702.599920177948661, 253542.475621721183416 ], [ 330428.144096784992144, 253542.475621721183416 ], [ 330428.144096784992144, 251938.225546010187827 ], [ 333879.232446784968488, 251938.225546010187827 ], [ 333879.232446784968488, 250333.975471102719894 ], [ 337330.320802409551106, 250333.975471102719894 ], [ 337330.320802409551106, 253542.475621721183416 ], [ 339055.864978213096038, 253542.475621721183416 ], [ 339055.864978213096038, 255146.725696628651349 ], [ 340781.409152409527451, 255146.725696628651349 ], [ 340781.409152409527451, 256750.975771536119282 ], [ 342506.953328213072382, 256750.975771536119282 ], [ 342506.953328213072382, 259959.475921351055149 ], [ 344232.497502409503795, 259959.475921351055149 ], [ 344232.497502409503795, 261563.725996258523082 ], [ 349409.130028213025071, 261563.725996258523082 ], [ 349409.130028213025071, 263167.976071165991016 ], [ 351134.674202409456484, 263167.976071165991016 ], [ 351134.674202409456484, 264772.226146073488053 ], [ 352860.218370177783072, 264772.226146073488053 ], [ 352860.218370177783072, 263167.976071165991016 ], [ 354585.762552409432828, 263167.976071165991016 ], [ 354585.762552409432828, 266376.476220177428331 ], [ 356311.306720177759416, 266376.476220177428331 ], [ 356311.306720177759416, 263167.976071165991016 ], [ 358036.850902409409173, 263167.976071165991016 ], [ 358036.850902409409173, 272793.476526235463098 ], [ 356311.30672821297776, 272793.476526235463098 ], [ 356311.30672821297776, 274397.726602749957237 ], [ 352860.218378213001415, 274397.726602749957237 ], [ 352860.218378213001415, 280814.72690318338573 ], [ 351134.674202409456484, 280814.72690318338573 ], [ 351134.674202409456484, 282418.976978090824559 ], [ 349409.130028213025071, 282418.976978090824559 ], [ 349409.130028213025071, 284023.227051391266286 ], [ 347683.58585240948014, 284023.227051391266286 ], [ 347683.58585240948014, 285627.477120674098842 ], [ 349409.130028213025071, 285627.477120674098842 ], [ 349409.130028213025071, 288835.977271292591467 ], [ 352860.218370177783072, 288835.977271292591467 ], [ 352860.218370177783072, 287231.72719638509443 ], [ 354585.762546784826554, 287231.72719638509443 ], [ 354585.762546784826554, 285627.477120674098842 ], [ 361487.939246784779243, 285627.477120674098842 ], [ 361487.939246784779243, 284023.227046570158564 ], [ 364939.027596784755588, 284023.227046570158564 ], [ 364939.027596784755588, 282418.976971662719734 ], [ 366664.57177017768845, 282418.976971662719734 ], [ 366664.57177017768845, 280814.726896755222697 ], [ 370115.660128212883137, 280814.726896755222697 ], [ 370115.660128212883137, 282418.976971662719734 ], [ 371841.204296784708276, 282418.976971662719734 ], [ 371841.204296784708276, 279210.476821044227108 ], [ 373566.748470177641138, 279210.476821044227108 ], [ 373566.748470177641138, 276001.976671229291242 ], [ 375292.292646784684621, 276001.976671229291242 ], [ 375292.292646784684621, 274397.726595518295653 ], [ 382194.46934678463731, 274397.726595518295653 ], [ 382194.46934678463731, 267980.726296691922471 ], [ 383920.013528212788515, 267980.726296691922471 ], [ 383920.013528212788515, 269584.976369992364198 ], [ 385645.557696784613654, 269584.976369992364198 ], [ 385645.557696784613654, 267980.726296691922471 ], [ 387371.101870177546516, 267980.726296691922471 ], [ 387371.101870177546516, 266376.476220177428331 ], [ 390822.190228212741204, 266376.476220177428331 ], [ 390822.190228212741204, 267980.726296691922471 ], [ 404626.543628212646581, 267980.726296691922471 ], [ 404626.543628212646581, 269584.976369992364198 ], [ 406352.087803212576546, 269584.976369992364198 ], [ 406352.087803212576546, 274397.726595518295653 ], [ 408077.631970980903134, 274397.726595518295653 ], [ 408077.631970980903134, 272793.476521414355375 ], [ 409803.176146784448065, 272793.476521414355375 ], [ 409803.176146784448065, 271189.226445703359786 ], [ 411528.720320980879478, 271189.226445703359786 ], [ 411528.720320980879478, 269584.976378027582541 ], [ 409803.176146784448065, 269584.976378027582541 ], [ 409803.176146784448065, 264772.226146073488053 ], [ 411528.720320980879478, 264772.226146073488053 ], [ 411528.720320980879478, 259959.475927779218182 ], [ 408077.631970980903134, 259959.475927779218182 ], [ 408077.631970980903134, 258355.225852068222594 ], [ 404626.543620980926789, 258355.225852068222594 ], [ 404626.543620980926789, 256750.975777964282315 ], [ 399449.911096784519032, 256750.975777964282315 ], [ 399449.911096784519032, 255146.725696628651349 ], [ 401175.455270980950445, 255146.725696628651349 ], [ 401175.455270980950445, 253542.475621721183416 ], [ 402900.999446784495376, 253542.475621721183416 ], [ 402900.999446784495376, 250333.975471102719894 ], [ 408077.631970980903134, 250333.975471102719894 ], [ 408077.631970980903134, 248729.72539619525196 ], [ 409803.17615321255289, 248729.72539619525196 ], [ 409803.17615321255289, 253542.475621721183416 ] ] ] } }
]
}
