{
"type": "FeatureCollection",
"name": "istotne_ryzyko_cykl1_ŚW_nasil3",
"crs": { "type": "name", "properties": { "name": "urn:ogc:def:crs:EPSG::2180" } },
"features": [
{ "type": "Feature", "properties": { }, "geometry": { "type": "MultiPolygon", "coordinates": [ [ [ [ 437411.882951605366543, 653000.744296179851517 ], [ 442588.51547821238637, 653000.744296179851517 ], [ 442588.51547821238637, 654604.994371087290347 ], [ 446039.603828212362714, 654604.994371087290347 ], [ 446039.603828212362714, 656209.244445994729176 ], [ 447765.148001605295576, 656209.244445994729176 ], [ 447765.148001605295576, 657813.494521705782972 ], [ 451216.236351605271921, 657813.494521705782972 ], [ 451216.236351605271921, 659417.744596613338217 ], [ 452941.780528212315403, 659417.744596613338217 ], [ 452941.780528212315403, 661021.994671520777047 ], [ 454667.324701605248265, 661021.994671520777047 ], [ 454667.324701605248265, 662626.244746428215876 ], [ 456392.868878212291747, 662626.244746428215876 ], [ 456392.868878212291747, 664230.494821335654706 ], [ 458118.413051605224609, 664230.494821335654706 ], [ 458118.413051605224609, 667438.994971150532365 ], [ 459843.957228212268092, 667438.994971150532365 ], [ 459843.957228212268092, 669043.245046057971194 ], [ 461569.501401605200954, 669043.245046057971194 ], [ 461569.501401605200954, 670647.495121769141406 ], [ 463295.045578212244436, 670647.495121769141406 ], [ 463295.045578212244436, 673855.995271584019065 ], [ 465020.589751605177298, 673855.995271584019065 ], [ 465020.589751605177298, 677064.495421398896724 ], [ 466746.133928212220781, 677064.495421398896724 ], [ 466746.133928212220781, 680272.995571213774383 ], [ 468471.678101605153643, 680272.995571213774383 ], [ 468471.678101605153643, 683481.495721028884873 ], [ 470197.222278212197125, 683481.495721028884873 ], [ 470197.222278212197125, 686689.995871647261083 ], [ 471922.766451605129987, 686689.995871647261083 ], [ 471922.766451605129987, 691502.746096369577572 ], [ 473648.310628212173469, 691502.746096369577572 ], [ 473648.310628212173469, 696315.496321092126891 ], [ 475373.854801605106331, 696315.496321092126891 ], [ 475373.854801605106331, 701128.246546617941931 ], [ 477099.398978212149814, 701128.246546617941931 ], [ 477099.398978212149814, 707545.24684624793008 ], [ 478824.943151605082676, 707545.24684624793008 ], [ 478824.943151605082676, 715566.497221588855609 ], [ 480550.487328212126158, 715566.497221588855609 ], [ 480550.487328212126158, 726796.247753172647208 ], [ 475373.854801605106331, 726796.247753172647208 ], [ 475373.854801605106331, 728400.497827276587486 ], [ 473648.310628212173469, 728400.497827276587486 ], [ 473648.310628212173469, 730004.747902987757698 ], [ 471922.766451605129987, 730004.747902987757698 ], [ 471922.766451605129987, 738025.998277524951845 ], [ 470197.222278212197125, 738025.998277524951845 ], [ 470197.222278212197125, 739630.248346004402265 ], [ 471922.766451605129987, 739630.248346004402265 ], [ 471922.766451605129987, 744442.998577958438545 ], [ 470197.222278212197125, 744442.998577958438545 ], [ 470197.222278212197125, 747651.498727773316205 ], [ 468471.678101605153643, 747651.498727773316205 ], [ 468471.678101605153643, 752464.248952495865524 ], [ 466746.133928212220781, 752464.248952495865524 ], [ 466746.133928212220781, 754068.499028206802905 ], [ 465020.589751605177298, 754068.499028206802905 ], [ 465020.589751605177298, 760485.499327836558223 ], [ 463295.045578212244436, 760485.499327836558223 ], [ 463295.045578212244436, 762089.749402744229883 ], [ 461569.501401605200954, 762089.749402744229883 ], [ 461569.501401605200954, 766902.499621038325131 ], [ 463295.045578212244436, 766902.499621038325131 ], [ 463295.045578212244436, 770110.999778084922582 ], [ 461569.501401605200954, 770110.999778084922582 ], [ 461569.501401605200954, 771715.249852992361411 ], [ 459843.957228212268092, 771715.249852992361411 ], [ 459843.957228212268092, 773319.499927900033072 ], [ 458118.413051605224609, 773319.499927900033072 ], [ 458118.413051605224609, 774923.750002807471901 ], [ 430509.706246784306131, 774923.750002807471901 ], [ 430509.706246784306131, 773319.499927900033072 ], [ 425333.073720980784856, 773319.499927900033072 ], [ 425333.073720980784856, 771715.249852992361411 ], [ 418430.897020980832167, 771715.249852992361411 ], [ 418430.897020980832167, 770110.999778084922582 ], [ 413254.264496784424409, 770110.999778084922582 ], [ 413254.264496784424409, 768506.749703177483752 ], [ 404626.543620980926789, 768506.749703177483752 ], [ 404626.543620980926789, 766902.499627466546372 ], [ 392547.734396784566343, 766902.499627466546372 ], [ 392547.734396784566343, 765298.249552559107542 ], [ 387371.101870177546516, 765298.249552559107542 ], [ 387371.101870177546516, 763693.999477651668712 ], [ 383920.013520177570172, 763693.999477651668712 ], [ 383920.013520177570172, 762089.749402744229883 ], [ 382194.46934678463731, 762089.749402744229883 ], [ 382194.46934678463731, 760485.499327836558223 ], [ 378743.380996784660965, 760485.499327836558223 ], [ 378743.380996784660965, 758881.249252929119393 ], [ 375292.292646784684621, 758881.249252929119393 ], [ 375292.292646784684621, 757276.999178021680564 ], [ 373566.748470177641138, 757276.999178021680564 ], [ 373566.748470177641138, 755672.749103114241734 ], [ 371841.204296784708276, 755672.749103114241734 ], [ 371841.204296784708276, 754068.499028206802905 ], [ 370115.660120177664794, 754068.499028206802905 ], [ 370115.660120177664794, 752464.248952495865524 ], [ 368390.115946784731932, 752464.248952495865524 ], [ 368390.115946784731932, 750859.998876784695312 ], [ 364939.027596784755588, 750859.998876784695312 ], [ 364939.027596784755588, 749255.748802680755034 ], [ 359762.395070177735761, 749255.748802680755034 ], [ 359762.395070177735761, 728400.497821652097628 ], [ 361487.939246784779243, 728400.497821652097628 ], [ 361487.939246784779243, 720379.247446311172098 ], [ 363213.483420177712105, 720379.247446311172098 ], [ 363213.483420177712105, 715566.497221588855609 ], [ 364939.027596784755588, 715566.497221588855609 ], [ 364939.027596784755588, 710753.746996062807739 ], [ 366664.57177017768845, 710753.746996062807739 ], [ 366664.57177017768845, 705940.99677134049125 ], [ 368390.115946784731932, 705940.99677134049125 ], [ 368390.115946784731932, 702732.49662152538076 ], [ 370115.660120177664794, 702732.49662152538076 ], [ 370115.660120177664794, 697919.746395999565721 ], [ 371841.204296784708276, 697919.746395999565721 ], [ 371841.204296784708276, 694711.246246184688061 ], [ 373566.748470177641138, 694711.246246184688061 ], [ 373566.748470177641138, 691502.746096369577572 ], [ 375292.292646784684621, 691502.746096369577572 ], [ 375292.292646784684621, 689898.496021462138742 ], [ 377017.836820177617483, 689898.496021462138742 ], [ 377017.836820177617483, 686689.995871647261083 ], [ 378743.380996784660965, 686689.995871647261083 ], [ 378743.380996784660965, 683481.495721028884873 ], [ 380468.925170177593827, 683481.495721028884873 ], [ 380468.925170177593827, 681877.245646121446043 ], [ 382194.46934678463731, 681877.245646121446043 ], [ 382194.46934678463731, 678668.745496306335554 ], [ 383920.013520177570172, 678668.745496306335554 ], [ 383920.013520177570172, 677064.495421398896724 ], [ 385645.557696784613654, 677064.495421398896724 ], [ 385645.557696784613654, 673855.995271584019065 ], [ 387371.101870177546516, 673855.995271584019065 ], [ 387371.101870177546516, 672251.745196676580235 ], [ 389096.646046784589998, 672251.745196676580235 ], [ 389096.646046784589998, 670647.495121769141406 ], [ 390822.19022017752286, 670647.495121769141406 ], [ 390822.19022017752286, 669043.245046057971194 ], [ 392547.734396784566343, 669043.245046057971194 ], [ 392547.734396784566343, 667438.994971150532365 ], [ 394273.278570980997756, 667438.994971150532365 ], [ 394273.278570980997756, 665834.744896243093535 ], [ 395998.822746784542687, 665834.744896243093535 ], [ 395998.822746784542687, 664230.494821335654706 ], [ 397724.366920980974101, 664230.494821335654706 ], [ 397724.366920980974101, 662626.244746428215876 ], [ 399449.911096784519032, 662626.244746428215876 ], [ 399449.911096784519032, 661021.994671520777047 ], [ 401175.455270980950445, 661021.994671520777047 ], [ 401175.455270980950445, 659417.744596613338217 ], [ 402900.999446784495376, 659417.744596613338217 ], [ 402900.999446784495376, 657813.494521705782972 ], [ 406352.08779678447172, 657813.494521705782972 ], [ 406352.08779678447172, 656209.244445994729176 ], [ 409803.176146784448065, 656209.244445994729176 ], [ 409803.176146784448065, 654604.994371087290347 ], [ 413254.264496784424409, 654604.994371087290347 ], [ 413254.264496784424409, 653000.744296179851517 ], [ 416705.352846784400754, 653000.744296179851517 ], [ 416705.352846784400754, 651396.494221272412688 ], [ 437411.882951605366543, 651396.494221272412688 ], [ 437411.882951605366543, 653000.744296179851517 ] ] ], [ [ [ 478824.943151605082676, 760485.499327836558223 ], [ 477099.398970176931471, 760485.499327836558223 ], [ 477099.398970176931471, 758881.249246501130983 ], [ 478824.943151605082676, 758881.249246501130983 ], [ 478824.943151605082676, 760485.499327836558223 ] ] ], [ [ [ 578906.505301604396664, 150870.470821214927128 ], [ 580632.049478211440146, 150870.470821214927128 ], [ 580632.049478211440146, 155683.221046740858583 ], [ 582357.593651604373008, 155683.221046740858583 ], [ 582357.593651604373008, 162100.22134476370411 ], [ 584083.137820176198147, 162100.22134476370411 ], [ 584083.137820176198147, 160495.971269856236177 ], [ 585808.682001604349352, 160495.971269856236177 ], [ 585808.682001604349352, 163704.471420474699698 ], [ 587534.226178211392835, 163704.471420474699698 ], [ 587534.226178211392835, 165308.721495382167632 ], [ 596161.947051604278386, 165308.721495382167632 ], [ 596161.947051604278386, 171725.72179581556702 ], [ 599613.035396783147007, 171725.72179581556702 ], [ 599613.035396783147007, 170121.471720104571432 ], [ 604789.667928211274557, 170121.471720104571432 ], [ 604789.667928211274557, 171725.721803047228605 ], [ 603064.123751604231074, 171725.721803047228605 ], [ 603064.123751604231074, 173329.971871526562609 ], [ 606515.212096783099696, 173329.971871526562609 ], [ 606515.212096783099696, 171725.72179581556702 ], [ 609966.30044678307604, 171725.72179581556702 ], [ 609966.30044678307604, 170121.471720104571432 ], [ 613417.388796783052385, 170121.471720104571432 ], [ 613417.388796783052385, 168517.221646000631154 ], [ 615142.93297821120359, 168517.221646000631154 ], [ 615142.93297821120359, 170121.471720908069983 ], [ 616868.477152407635003, 170121.471720908069983 ], [ 616868.477152407635003, 176538.472021341498476 ], [ 618594.021328211179934, 176538.472021341498476 ], [ 618594.021328211179934, 198997.973078081267886 ], [ 616868.477152407635003, 198997.973078081267886 ], [ 616868.477152407635003, 210227.723602433572523 ], [ 615142.93297821120359, 210227.723602433572523 ], [ 615142.93297821120359, 216644.723902063444257 ], [ 613417.388801604160108, 216644.723902063444257 ], [ 613417.388801604160108, 221457.474127589375712 ], [ 611691.844628211227246, 221457.474127589375712 ], [ 611691.844628211227246, 226270.224353115307167 ], [ 609966.300451604183763, 226270.224353115307167 ], [ 609966.300451604183763, 229478.724502930243034 ], [ 608240.756278211250901, 229478.724502930243034 ], [ 608240.756278211250901, 232687.224652745178901 ], [ 606515.212101604207419, 232687.224652745178901 ], [ 606515.212101604207419, 235895.724802560114767 ], [ 604789.667928211274557, 235895.724802560114767 ], [ 604789.667928211274557, 237499.974875860556494 ], [ 603064.123751604231074, 237499.974875860556494 ], [ 603064.123751604231074, 240708.475028086046223 ], [ 601338.579578211298212, 240708.475028086046223 ], [ 601338.579578211298212, 242312.725102993514156 ], [ 599613.03540160425473, 242312.725102993514156 ], [ 599613.03540160425473, 243916.975177097483538 ], [ 597887.491228211321868, 243916.975177097483538 ], [ 597887.491228211321868, 247125.475326912419405 ], [ 596161.947051604278386, 247125.475326912419405 ], [ 596161.947051604278386, 248729.725402623414993 ], [ 594436.402878211345524, 248729.725402623414993 ], [ 594436.402878211345524, 250333.975476727355272 ], [ 592710.858701604302041, 250333.975476727355272 ], [ 592710.858701604302041, 251938.22555243835086 ], [ 590985.314528211369179, 251938.22555243835086 ], [ 590985.314528211369179, 253542.475628149346448 ], [ 589259.770351604325697, 253542.475628149346448 ], [ 589259.770351604325697, 255146.725702253286727 ], [ 587534.226178211392835, 255146.725702253286727 ], [ 587534.226178211392835, 256750.975777964282315 ], [ 584083.13782821141649, 256750.975777964282315 ], [ 584083.13782821141649, 258355.225852068222594 ], [ 582357.593651604373008, 258355.225852068222594 ], [ 582357.593651604373008, 259959.475927779218182 ], [ 580632.049478211440146, 259959.475927779218182 ], [ 580632.049478211440146, 261563.726002686686115 ], [ 577180.961128211463802, 261563.726002686686115 ], [ 577180.961128211463802, 263167.976077594154049 ], [ 575455.416951604420319, 263167.976077594154049 ], [ 575455.416951604420319, 264772.226152501651086 ], [ 572004.328601604443975, 264772.226152501651086 ], [ 572004.328601604443975, 266376.476227409089915 ], [ 568553.24025160446763, 266376.476227409089915 ], [ 568553.24025160446763, 267980.726303120085504 ], [ 565102.151901604491286, 267980.726303120085504 ], [ 565102.151901604491286, 269584.976378027582541 ], [ 561651.063551604514942, 269584.976378027582541 ], [ 561651.063551604514942, 271189.226452935021371 ], [ 556474.431028211605735, 271189.226452935021371 ], [ 556474.431028211605735, 272793.476526235463098 ], [ 553023.342678211629391, 272793.476526235463098 ], [ 553023.342678211629391, 274397.726602749957237 ], [ 547846.710151604609564, 274397.726602749957237 ], [ 547846.710151604609564, 276001.976677657454275 ], [ 540944.533451604656875, 276001.976677657454275 ], [ 540944.533451604656875, 277606.226751761394553 ], [ 534042.356751604704186, 277606.226751761394553 ], [ 534042.356751604704186, 279210.476827472390141 ], [ 521963.547528211842291, 279210.476827472390141 ], [ 521963.547528211842291, 280814.72690318338573 ], [ 485727.119846783927642, 280814.72690318338573 ], [ 485727.119846783927642, 279210.476827472390141 ], [ 456392.868878212291747, 279210.476827472390141 ], [ 456392.868878212291747, 280814.72690318338573 ], [ 449490.692178212339059, 280814.72690318338573 ], [ 449490.692178212339059, 282418.976978090824559 ], [ 444314.059651605319232, 282418.976978090824559 ], [ 444314.059651605319232, 284023.227051391266286 ], [ 442588.51547821238637, 284023.227051391266286 ], [ 442588.51547821238637, 285627.477127905818634 ], [ 439137.427128212410025, 285627.477127905818634 ], [ 439137.427128212410025, 287231.727202813257463 ], [ 437411.882951605366543, 287231.727202813257463 ], [ 437411.882951605366543, 288835.977276917197742 ], [ 435686.338778212433681, 288835.977276917197742 ], [ 435686.338778212433681, 290440.22735262819333 ], [ 433960.794603212387301, 290440.22735262819333 ], [ 433960.794603212387301, 292044.477427535690367 ], [ 432235.250428212457336, 292044.477427535690367 ], [ 432235.250428212457336, 293648.727502443129197 ], [ 430509.706253212410957, 293648.727502443129197 ], [ 430509.706253212410957, 295252.977578154124785 ], [ 428784.162078212480992, 295252.977578154124785 ], [ 428784.162078212480992, 296857.227653061621822 ], [ 427058.617903212434612, 296857.227653061621822 ], [ 427058.617903212434612, 298461.477727969060652 ], [ 425333.073728212504648, 298461.477727969060652 ], [ 425333.073728212504648, 301669.977877783996519 ], [ 423607.529553212458268, 301669.977877783996519 ], [ 423607.529553212458268, 303274.227952691493556 ], [ 421881.985378212528303, 303274.227952691493556 ], [ 421881.985378212528303, 304878.478027598932385 ], [ 420156.441203212481923, 304878.478027598932385 ], [ 420156.441203212481923, 308086.978177413868252 ], [ 418430.897028212551959, 308086.978177413868252 ], [ 418430.897028212551959, 309691.228253124863841 ], [ 416705.352853212505579, 309691.228253124863841 ], [ 416705.352853212505579, 312899.728402939799707 ], [ 414979.808678212575614, 312899.728402939799707 ], [ 414979.808678212575614, 314503.978477847296745 ], [ 413254.264503212529235, 314503.978477847296745 ], [ 413254.264503212529235, 316108.228551951237023 ], [ 411528.72032821259927, 316108.228551951237023 ], [ 411528.72032821259927, 319316.728702569729649 ], [ 409803.17615321255289, 319316.728702569729649 ], [ 409803.17615321255289, 320920.978777477168478 ], [ 408077.631978212622926, 320920.978777477168478 ], [ 408077.631978212622926, 322525.228853188164067 ], [ 406352.087803212576546, 322525.228853188164067 ], [ 406352.087803212576546, 325733.729003003099933 ], [ 404626.543628212646581, 325733.729003003099933 ], [ 404626.543628212646581, 327337.979077107040212 ], [ 402900.999453212600201, 327337.979077107040212 ], [ 402900.999453212600201, 328942.2291528180358 ], [ 401175.455278212670237, 328942.2291528180358 ], [ 401175.455278212670237, 330546.479227725532837 ], [ 399449.911103212623857, 330546.479227725532837 ], [ 399449.911103212623857, 332150.729302632971667 ], [ 397724.366928212693892, 332150.729302632971667 ], [ 397724.366928212693892, 333754.979375933413394 ], [ 395998.822753212647513, 333754.979375933413394 ], [ 395998.822753212647513, 335359.229452447907533 ], [ 394273.278578212717548, 335359.229452447907533 ], [ 394273.278578212717548, 336963.479528158903122 ], [ 392547.734402409172617, 336963.479528158903122 ], [ 392547.734402409172617, 338567.7296022628434 ], [ 390822.190228212741204, 338567.7296022628434 ], [ 390822.190228212741204, 340171.979677973838989 ], [ 387371.101878212764859, 340171.979677973838989 ], [ 387371.101878212764859, 341776.229752881336026 ], [ 385645.557702409219928, 341776.229752881336026 ], [ 385645.557702409219928, 343380.479827788774855 ], [ 382194.469352409243584, 343380.479827788774855 ], [ 382194.469352409243584, 344984.729901089216582 ], [ 380468.92517821281217, 344984.729901089216582 ], [ 380468.92517821281217, 346588.97997760376893 ], [ 377017.836828212835826, 346588.97997760376893 ], [ 377017.836828212835826, 348193.230052511207759 ], [ 373566.748478212859482, 348193.230052511207759 ], [ 373566.748478212859482, 349797.480126615148038 ], [ 368390.115952409338206, 349797.480126615148038 ], [ 368390.115952409338206, 351401.730202326143626 ], [ 361487.939252409385517, 351401.730202326143626 ], [ 361487.939252409385517, 353005.980278037139215 ], [ 335604.77662017790135, 353005.980278037139215 ], [ 335604.77662017790135, 351401.730202326143626 ], [ 328702.599920177948661, 351401.730202326143626 ], [ 328702.599920177948661, 349797.480126615148038 ], [ 323525.967396785039455, 349797.480126615148038 ], [ 323525.967396785039455, 348193.230052511207759 ], [ 318349.334870178019628, 348193.230052511207759 ], [ 318349.334870178019628, 346588.97997760376893 ], [ 314898.246520178043284, 346588.97997760376893 ], [ 314898.246520178043284, 344984.729901089216582 ], [ 311447.158170178066939, 344984.729901089216582 ], [ 311447.158170178066939, 343380.479827788774855 ], [ 309721.613996785134077, 343380.479827788774855 ], [ 309721.613996785134077, 341776.229752881336026 ], [ 306270.525646785157733, 341776.229752881336026 ], [ 306270.525646785157733, 340171.979677973838989 ], [ 302819.437296785181388, 340171.979677973838989 ], [ 302819.437296785181388, 338567.7296022628434 ], [ 301093.893120178137906, 338567.7296022628434 ], [ 301093.893120178137906, 336963.479528158903122 ], [ 299368.348946785205044, 336963.479528158903122 ], [ 299368.348946785205044, 335359.229452447907533 ], [ 295917.260596785228699, 335359.229452447907533 ], [ 295917.260596785228699, 333754.979375933413394 ], [ 294191.716420178185217, 333754.979375933413394 ], [ 294191.716420178185217, 332150.729302632971667 ], [ 292466.172246785252355, 332150.729302632971667 ], [ 292466.172246785252355, 330546.479227725532837 ], [ 290740.628070178208873, 330546.479227725532837 ], [ 290740.628070178208873, 328942.2291528180358 ], [ 289015.083896785276011, 328942.2291528180358 ], [ 289015.083896785276011, 327337.979077107040212 ], [ 287289.539720178232528, 327337.979077107040212 ], [ 287289.539720178232528, 325733.729003003099933 ], [ 285563.995546785299666, 325733.729003003099933 ], [ 285563.995546785299666, 324129.478928095661104 ], [ 283838.451370178256184, 324129.478928095661104 ], [ 283838.451370178256184, 322525.228853188164067 ], [ 282112.907196785323322, 322525.228853188164067 ], [ 282112.907196785323322, 320920.978777477168478 ], [ 280387.363020178279839, 320920.978777477168478 ], [ 280387.363020178279839, 317712.478627662232611 ], [ 278661.818846785346977, 317712.478627662232611 ], [ 278661.818846785346977, 316108.228546326630749 ], [ 280387.363028213498183, 316108.228546326630749 ], [ 280387.363028213498183, 317712.478621234069578 ], [ 287289.539720178232528, 317712.478621234069578 ], [ 287289.539720178232528, 314503.978471419133712 ], [ 289015.083896785276011, 314503.978471419133712 ], [ 289015.083896785276011, 311295.478326425305568 ], [ 287289.539720178232528, 311295.478326425305568 ], [ 287289.539720178232528, 308086.978170182206668 ], [ 290740.628078213427216, 308086.978170182206668 ], [ 290740.628078213427216, 309691.228246696759015 ], [ 292466.172252409858629, 309691.228246696759015 ], [ 292466.172252409858629, 312899.728395708138123 ], [ 294191.71642821340356, 312899.728395708138123 ], [ 294191.71642821340356, 314503.978471419133712 ], [ 297642.804770178161561, 314503.978471419133712 ], [ 297642.804770178161561, 312899.728395708138123 ], [ 301093.893120178137906, 312899.728395708138123 ], [ 301093.893120178137906, 311295.478321604197845 ], [ 302819.437302409787662, 311295.478321604197845 ], [ 302819.437302409787662, 312899.728395708138123 ], [ 304544.981478213332593, 312899.728395708138123 ], [ 304544.981478213332593, 314503.978471419133712 ], [ 311447.158170178066939, 314503.978471419133712 ], [ 311447.158170178066939, 312899.728395708138123 ], [ 313172.702346785110421, 312899.728395708138123 ], [ 313172.702346785110421, 311295.478321604197845 ], [ 314898.246520178043284, 311295.478321604197845 ], [ 314898.246520178043284, 309691.228246696759015 ], [ 316623.790696785086766, 309691.228246696759015 ], [ 316623.790696785086766, 308086.978170182206668 ], [ 318349.334870178019628, 308086.978170182206668 ], [ 318349.334870178019628, 303274.227952691493556 ], [ 316623.790696785086766, 303274.227952691493556 ], [ 316623.790696785086766, 298461.477727969060652 ], [ 313172.702346785110421, 298461.477727969060652 ], [ 313172.702346785110421, 295252.977578154124785 ], [ 311447.158178213285282, 295252.977578154124785 ], [ 311447.158178213285282, 296857.227653061621822 ], [ 309721.613996785134077, 296857.227653061621822 ], [ 309721.613996785134077, 295252.977578154124785 ], [ 307996.069820178090595, 295252.977578154124785 ], [ 307996.069820178090595, 293648.727502443129197 ], [ 304544.98147017811425, 293648.727502443129197 ], [ 304544.98147017811425, 292044.477427535690367 ], [ 302819.437296785181388, 292044.477427535690367 ], [ 302819.437296785181388, 290440.22735262819333 ], [ 301093.893120178137906, 290440.22735262819333 ], [ 301093.893120178137906, 285627.477120674098842 ], [ 302819.437302409787662, 285627.477120674098842 ], [ 302819.437302409787662, 287231.72719638509443 ], [ 304544.98147017811425, 287231.72719638509443 ], [ 304544.98147017811425, 284023.227046570158564 ], [ 306270.525646785157733, 284023.227046570158564 ], [ 306270.525646785157733, 280814.726896755222697 ], [ 307996.069828213308938, 280814.726896755222697 ], [ 307996.069828213308938, 282418.976971662719734 ], [ 313172.702346785110421, 282418.976971662719734 ], [ 313172.702346785110421, 276001.976671229291242 ], [ 318349.334870178019628, 276001.976671229291242 ], [ 318349.334870178019628, 272793.476521414355375 ], [ 320074.87904678506311, 272793.476521414355375 ], [ 320074.87904678506311, 269584.976369992364198 ], [ 321800.423220177995972, 269584.976369992364198 ], [ 321800.423220177995972, 267980.726296691922471 ], [ 323525.967396785039455, 267980.726296691922471 ], [ 323525.967396785039455, 266376.476220177428331 ], [ 325251.511570177972317, 266376.476220177428331 ], [ 325251.511570177972317, 258355.225846443587216 ], [ 326977.055746785015799, 258355.225846443587216 ], [ 326977.055746785015799, 255146.725696628651349 ], [ 328702.599920177948661, 255146.725696628651349 ], [ 328702.599920177948661, 253542.475621721183416 ], [ 330428.144096784992144, 253542.475621721183416 ], [ 330428.144096784992144, 251938.225546010187827 ], [ 333879.232446784968488, 251938.225546010187827 ], [ 333879.232446784968488, 250333.975471102719894 ], [ 337330.320802409551106, 250333.975471102719894 ], [ 337330.320802409551106, 253542.475621721183416 ], [ 339055.864978213096038, 253542.475621721183416 ], [ 339055.864978213096038, 255146.725696628651349 ], [ 340781.409152409527451, 255146.725696628651349 ], [ 340781.409152409527451, 256750.975771536119282 ], [ 342506.953328213072382, 256750.975771536119282 ], [ 342506.953328213072382, 259959.475921351055149 ], [ 344232.497502409503795, 259959.475921351055149 ], [ 344232.497502409503795, 261563.725996258523082 ], [ 349409.130028213025071, 261563.725996258523082 ], [ 349409.130028213025071, 263167.976071165991016 ], [ 351134.674202409456484, 263167.976071165991016 ], [ 351134.674202409456484, 264772.226146073488053 ], [ 352860.218370177783072, 264772.226146073488053 ], [ 352860.218370177783072, 263167.976071165991016 ], [ 354585.762552409432828, 263167.976071165991016 ], [ 354585.762552409432828, 266376.476220177428331 ], [ 356311.306720177759416, 266376.476220177428331 ], [ 356311.306720177759416, 263167.976071165991016 ], [ 358036.850902409409173, 263167.976071165991016 ], [ 358036.850902409409173, 272793.476526235463098 ], [ 356311.30672821297776, 272793.476526235463098 ], [ 356311.30672821297776, 274397.726602749957237 ], [ 352860.218378213001415, 274397.726602749957237 ], [ 352860.218378213001415, 280814.72690318338573 ], [ 351134.674202409456484, 280814.72690318338573 ], [ 351134.674202409456484, 282418.976978090824559 ], [ 349409.130028213025071, 282418.976978090824559 ], [ 349409.130028213025071, 284023.227051391266286 ], [ 347683.58585240948014, 284023.227051391266286 ], [ 347683.58585240948014, 285627.477120674098842 ], [ 349409.130028213025071, 285627.477120674098842 ], [ 349409.130028213025071, 288835.977271292591467 ], [ 352860.218370177783072, 288835.977271292591467 ], [ 352860.218370177783072, 287231.72719638509443 ], [ 354585.762546784826554, 287231.72719638509443 ], [ 354585.762546784826554, 285627.477120674098842 ], [ 361487.939246784779243, 285627.477120674098842 ], [ 361487.939246784779243, 284023.227046570158564 ], [ 364939.027596784755588, 284023.227046570158564 ], [ 364939.027596784755588, 282418.976971662719734 ], [ 366664.57177017768845, 282418.976971662719734 ], [ 366664.57177017768845, 280814.726896755222697 ], [ 370115.660128212883137, 280814.726896755222697 ], [ 370115.660128212883137, 282418.976971662719734 ], [ 371841.204296784708276, 282418.976971662719734 ], [ 371841.204296784708276, 279210.476821044227108 ], [ 373566.748470177641138, 279210.476821044227108 ], [ 373566.748470177641138, 276001.976671229291242 ], [ 375292.292646784684621, 276001.976671229291242 ], [ 375292.292646784684621, 274397.726595518295653 ], [ 382194.46934678463731, 274397.726595518295653 ], [ 382194.46934678463731, 267980.726296691922471 ], [ 383920.013528212788515, 267980.726296691922471 ], [ 383920.013528212788515, 269584.976369992364198 ], [ 385645.557696784613654, 269584.976369992364198 ], [ 385645.557696784613654, 267980.726296691922471 ], [ 387371.101870177546516, 267980.726296691922471 ], [ 387371.101870177546516, 266376.476220177428331 ], [ 390822.190228212741204, 266376.476220177428331 ], [ 390822.190228212741204, 267980.726296691922471 ], [ 404626.543628212646581, 267980.726296691922471 ], [ 404626.543628212646581, 269584.976369992364198 ], [ 406352.087803212576546, 269584.976369992364198 ], [ 406352.087803212576546, 274397.726595518295653 ], [ 408077.631970980903134, 274397.726595518295653 ], [ 408077.631970980903134, 272793.476521414355375 ], [ 409803.176146784448065, 272793.476521414355375 ], [ 409803.176146784448065, 271189.226445703359786 ], [ 411528.720320980879478, 271189.226445703359786 ], [ 411528.720320980879478, 269584.976378027582541 ], [ 409803.176146784448065, 269584.976378027582541 ], [ 409803.176146784448065, 264772.226146073488053 ], [ 411528.720320980879478, 264772.226146073488053 ], [ 411528.720320980879478, 259959.475927779218182 ], [ 408077.631970980903134, 259959.475927779218182 ], [ 408077.631970980903134, 258355.225852068222594 ], [ 404626.543620980926789, 258355.225852068222594 ], [ 404626.543620980926789, 256750.975777964282315 ], [ 399449.911096784519032, 256750.975777964282315 ], [ 399449.911096784519032, 255146.725696628651349 ], [ 401175.455270980950445, 255146.725696628651349 ], [ 401175.455270980950445, 253542.475621721183416 ], [ 402900.999446784495376, 253542.475621721183416 ], [ 402900.999446784495376, 250333.975471102719894 ], [ 408077.631970980903134, 250333.975471102719894 ], [ 408077.631970980903134, 248729.72539619525196 ], [ 409803.176146784448065, 248729.72539619525196 ], [ 409803.176146784448065, 245521.225246380316094 ], [ 411528.720320980879478, 245521.225246380316094 ], [ 411528.720320980879478, 240708.475020854384638 ], [ 413254.264496784424409, 240708.475020854384638 ], [ 413254.264496784424409, 239104.22494675044436 ], [ 416705.352846784400754, 239104.22494675044436 ], [ 416705.352846784400754, 235895.724795328453183 ], [ 418430.897020980832167, 235895.724795328453183 ], [ 418430.897020980832167, 234291.474721224512905 ], [ 420156.441203212481923, 234291.474721224512905 ], [ 420156.441203212481923, 235895.724795328453183 ], [ 423607.529553212458268, 235895.724795328453183 ], [ 423607.529553212458268, 237499.974871039448772 ], [ 425333.073728212504648, 237499.974871039448772 ], [ 425333.073728212504648, 239104.22494675044436 ], [ 430509.706246784306131, 239104.22494675044436 ], [ 430509.706246784306131, 237499.974871039448772 ], [ 432235.250428212457336, 237499.974871039448772 ], [ 432235.250428212457336, 240708.475028086046223 ], [ 428784.162078212480992, 240708.475028086046223 ], [ 428784.162078212480992, 243916.975170669320505 ], [ 433960.794596784282476, 243916.975170669320505 ], [ 433960.794596784282476, 240708.475020854384638 ], [ 435686.338770177215338, 240708.475020854384638 ], [ 435686.338770177215338, 237499.974871039448772 ], [ 437411.88294678425882, 237499.974871039448772 ], [ 437411.88294678425882, 235895.724795328453183 ], [ 440862.971301605342887, 235895.724795328453183 ], [ 440862.971301605342887, 237499.974871039448772 ], [ 442588.515470177168027, 237499.974871039448772 ], [ 442588.515470177168027, 235895.724795328453183 ], [ 444314.059646784211509, 235895.724795328453183 ], [ 444314.059646784211509, 234291.474721224512905 ], [ 447765.147996784187853, 234291.474721224512905 ], [ 447765.147996784187853, 229478.724496502080001 ], [ 449490.692170177120715, 229478.724496502080001 ], [ 449490.692170177120715, 227874.474421594612068 ], [ 451216.236351605271921, 227874.474421594612068 ], [ 451216.236351605271921, 229478.724496502080001 ], [ 452941.780528212315403, 229478.724496502080001 ], [ 452941.780528212315403, 231082.974571409577038 ], [ 454667.324696784140542, 231082.974571409577038 ], [ 454667.324696784140542, 229478.724496502080001 ], [ 459843.957220177049749, 229478.724496502080001 ], [ 459843.957220177049749, 227874.474421594612068 ], [ 463295.045570177026093, 227874.474421594612068 ], [ 463295.045570177026093, 226270.224346687144134 ], [ 466746.133928212220781, 226270.224346687144134 ], [ 466746.133928212220781, 227874.474421594612068 ], [ 470197.222270176978782, 227874.474421594612068 ], [ 470197.222270176978782, 224665.974277404311579 ], [ 468471.67809678404592, 224665.974277404311579 ], [ 468471.67809678404592, 223061.724196068680612 ], [ 470197.222270176978782, 223061.724196068680612 ], [ 470197.222270176978782, 213436.223745820345357 ], [ 471922.766446784022264, 213436.223745820345357 ], [ 471922.766446784022264, 208623.473520294413902 ], [ 473648.310620176955126, 208623.473520294413902 ], [ 473648.310620176955126, 205414.973370479478035 ], [ 475373.854796783998609, 205414.973370479478035 ], [ 475373.854796783998609, 203810.723296375537757 ], [ 478824.943146783974953, 203810.723296375537757 ], [ 478824.943146783974953, 202206.473220664542168 ], [ 480550.487320176907815, 202206.473220664542168 ], [ 480550.487320176907815, 200602.22314656060189 ], [ 482276.03150160505902, 200602.22314656060189 ], [ 482276.03150160505902, 202206.473220664542168 ], [ 485727.119846783927642, 202206.473220664542168 ], [ 485727.119846783927642, 195789.472919427615125 ], [ 487452.664020176860504, 195789.472919427615125 ], [ 487452.664020176860504, 192580.972771219705464 ], [ 489178.208196783903986, 192580.972771219705464 ], [ 489178.208196783903986, 190976.722702740400564 ], [ 487452.664020176860504, 190976.722702740400564 ], [ 487452.664020176860504, 187768.222546497301664 ], [ 489178.208196783903986, 187768.222546497301664 ], [ 489178.208196783903986, 182955.472321774897864 ], [ 497805.929070176789537, 182955.472321774897864 ], [ 497805.929070176789537, 174934.221945630502887 ], [ 499531.473246783833019, 174934.221945630502887 ], [ 499531.473246783833019, 171725.721803047228605 ], [ 497805.929070176789537, 171725.721803047228605 ], [ 497805.929070176789537, 170121.471720104571432 ], [ 502982.561601604917087, 170121.471720104571432 ], [ 502982.561601604917087, 171725.72179581556702 ], [ 508159.19412017671857, 171725.72179581556702 ], [ 508159.19412017671857, 170121.471720104571432 ], [ 511610.282478211913258, 170121.471720104571432 ], [ 511610.282478211913258, 171725.72179581556702 ], [ 513335.82665160484612, 171725.72179581556702 ], [ 513335.82665160484612, 174934.221945630502887 ], [ 515061.370828211889602, 174934.221945630502887 ], [ 515061.370828211889602, 176538.472021341498476 ], [ 516786.915001604822464, 176538.472021341498476 ], [ 516786.915001604822464, 182955.472321774897864 ], [ 518512.459178211865947, 182955.472321774897864 ], [ 518512.459178211865947, 184559.722396682365797 ], [ 521963.547528211842291, 184559.722396682365797 ], [ 521963.547528211842291, 186163.972471589833731 ], [ 523689.09169678366743, 186163.972471589833731 ], [ 523689.09169678366743, 184559.722396682365797 ], [ 525414.635878211818635, 184559.722396682365797 ], [ 525414.635878211818635, 186163.972471589833731 ], [ 527140.180051604751498, 186163.972471589833731 ], [ 527140.180051604751498, 189372.472621404769598 ], [ 528865.72422821179498, 189372.472621404769598 ], [ 528865.72422821179498, 190976.722696312237531 ], [ 530591.268401604727842, 190976.722696312237531 ], [ 530591.268401604727842, 192580.972771219705464 ], [ 532316.812578211771324, 192580.972771219705464 ], [ 532316.812578211771324, 194185.222845323674846 ], [ 534042.356746783596464, 194185.222845323674846 ], [ 534042.356746783596464, 190976.722696312237531 ], [ 537493.445096783572808, 190976.722696312237531 ], [ 537493.445096783572808, 186163.972471589833731 ], [ 539218.98927017650567, 186163.972471589833731 ], [ 539218.98927017650567, 181351.222246063902276 ], [ 540944.533446783549152, 181351.222246063902276 ], [ 540944.533446783549152, 178142.722096248966409 ], [ 542670.077620176482014, 178142.722096248966409 ], [ 542670.077620176482014, 176538.472021341498476 ], [ 546121.165970176458359, 176538.472021341498476 ], [ 546121.165970176458359, 171725.72179581556702 ], [ 549572.254320176434703, 171725.72179581556702 ], [ 549572.254320176434703, 170121.471720104571432 ], [ 551297.798496783478186, 170121.471720104571432 ], [ 551297.798496783478186, 168517.221646000631154 ], [ 553023.342678211629391, 168517.221646000631154 ], [ 553023.342678211629391, 171725.72179581556702 ], [ 556474.431020176387392, 171725.72179581556702 ], [ 556474.431020176387392, 170121.471720104571432 ], [ 558199.975196783430874, 170121.471720104571432 ], [ 558199.975196783430874, 158891.72119655579445 ], [ 559925.519370176363736, 158891.72119655579445 ], [ 559925.519370176363736, 157287.471128076489549 ], [ 558199.975196783430874, 157287.471128076489549 ], [ 558199.975196783430874, 154078.970977458026027 ], [ 556474.431020176387392, 154078.970977458026027 ], [ 556474.431020176387392, 150870.470826839562505 ], [ 554748.88684678345453, 150870.470826839562505 ], [ 554748.88684678345453, 149266.220746307459194 ], [ 556474.431020176387392, 149266.220746307459194 ], [ 556474.431020176387392, 147661.970671399991261 ], [ 558199.975201604538597, 147661.970671399991261 ], [ 558199.975201604538597, 149266.220746307459194 ], [ 559925.519370176363736, 149266.220746307459194 ], [ 559925.519370176363736, 147661.970671399991261 ], [ 563376.607728211558424, 147661.970671399991261 ], [ 563376.607728211558424, 149266.220746307459194 ], [ 565102.151901604491286, 149266.220746307459194 ], [ 565102.151901604491286, 152474.720896122395061 ], [ 572004.328596783336252, 152474.720896122395061 ], [ 572004.328596783336252, 150870.470821214927128 ], [ 573729.872770176269114, 150870.470821214927128 ], [ 573729.872770176269114, 149266.220746307459194 ], [ 575455.416946783312596, 149266.220746307459194 ], [ 575455.416946783312596, 147661.970671399991261 ], [ 577180.961120176245458, 147661.970671399991261 ], [ 577180.961120176245458, 146057.720596492523327 ], [ 578906.505301604396664, 146057.720596492523327 ], [ 578906.505301604396664, 150870.470821214927128 ] ] ] ] } }
]
}
