{
"type": "FeatureCollection",
"name": "istotne_ryzyko_cykl4_ŚW_nasil3",
"crs": { "type": "name", "properties": { "name": "urn:ogc:def:crs:EPSG::2180" } },
"features": [
{ "type": "Feature", "properties": { }, "geometry": { "type": "Polygon", "coordinates": [ [ [ 502982.561601604917087, 171725.72179581556702 ], [ 508159.19412017671857, 171725.72179581556702 ], [ 508159.19412017671857, 170121.471720104571432 ], [ 511610.282478211913258, 170121.471720104571432 ], [ 511610.282478211913258, 171725.72179581556702 ], [ 513335.82665160484612, 171725.72179581556702 ], [ 513335.82665160484612, 174934.221945630502887 ], [ 515061.370828211889602, 174934.221945630502887 ], [ 515061.370828211889602, 176538.472021341498476 ], [ 516786.915001604822464, 176538.472021341498476 ], [ 516786.915001604822464, 182955.472321774897864 ], [ 518512.459178211865947, 182955.472321774897864 ], [ 518512.459178211865947, 184559.722396682365797 ], [ 521963.547528211842291, 184559.722396682365797 ], [ 521963.547528211842291, 186163.972471589833731 ], [ 523689.09169678366743, 186163.972471589833731 ], [ 523689.09169678366743, 184559.722396682365797 ], [ 525414.635878211818635, 184559.722396682365797 ], [ 525414.635878211818635, 186163.972471589833731 ], [ 527140.180051604751498, 186163.972471589833731 ], [ 527140.180051604751498, 189372.472621404769598 ], [ 528865.72422821179498, 189372.472621404769598 ], [ 528865.72422821179498, 190976.722696312237531 ], [ 530591.268401604727842, 190976.722696312237531 ], [ 530591.268401604727842, 192580.972771219705464 ], [ 532316.812578211771324, 192580.972771219705464 ], [ 532316.812578211771324, 194185.222845323674846 ], [ 534042.356746783596464, 194185.222845323674846 ], [ 534042.356746783596464, 190976.722696312237531 ], [ 537493.445096783572808, 190976.722696312237531 ], [ 537493.445096783572808, 186163.972471589833731 ], [ 539218.98927017650567, 186163.972471589833731 ], [ 539218.98927017650567, 181351.222246063902276 ], [ 540944.533446783549152, 181351.222246063902276 ], [ 540944.533446783549152, 178142.722096248966409 ], [ 542670.077620176482014, 178142.722096248966409 ], [ 542670.077620176482014, 176538.472021341498476 ], [ 546121.165978211676702, 176538.472021341498476 ], [ 546121.165978211676702, 181351.222246063902276 ], [ 547846.710151604609564, 181351.222246063902276 ], [ 547846.710151604609564, 187768.222546497301664 ], [ 549572.254328211653046, 187768.222546497301664 ], [ 549572.254328211653046, 195789.472921034641331 ], [ 551297.798503211583011, 195789.472921034641331 ], [ 551297.798503211583011, 216644.723902866942808 ], [ 549572.254328211653046, 216644.723902866942808 ], [ 549572.254328211653046, 226270.224353115307167 ], [ 547846.710151604609564, 226270.224353115307167 ], [ 547846.710151604609564, 231082.974577837710967 ], [ 546121.165978211676702, 231082.974577837710967 ], [ 546121.165978211676702, 235895.724802560114767 ], [ 544395.62180160463322, 235895.724802560114767 ], [ 544395.62180160463322, 239104.224953178578289 ], [ 542670.077628211700357, 239104.224953178578289 ], [ 542670.077628211700357, 242312.725102993514156 ], [ 540944.533451604656875, 242312.725102993514156 ], [ 540944.533451604656875, 245521.225252808479127 ], [ 539218.989278211724013, 245521.225252808479127 ], [ 539218.989278211724013, 248729.725402623414993 ], [ 537493.445101604680531, 248729.725402623414993 ], [ 537493.445101604680531, 250333.975476727355272 ], [ 535767.900928211747669, 250333.975476727355272 ], [ 535767.900928211747669, 253542.475628149346448 ], [ 534042.356751604704186, 253542.475628149346448 ], [ 534042.356751604704186, 255146.725702253286727 ], [ 532316.812578211771324, 255146.725702253286727 ], [ 532316.812578211771324, 256750.975777964282315 ], [ 530591.268401604727842, 256750.975777964282315 ], [ 530591.268401604727842, 258355.225852068222594 ], [ 528865.72422821179498, 258355.225852068222594 ], [ 528865.72422821179498, 259959.475927779218182 ], [ 527140.180051604751498, 259959.475927779218182 ], [ 527140.180051604751498, 261563.726002686686115 ], [ 525414.635878211818635, 261563.726002686686115 ], [ 525414.635878211818635, 263167.976077594154049 ], [ 523689.091701604775153, 263167.976077594154049 ], [ 523689.091701604775153, 264772.226152501651086 ], [ 520238.003351604798809, 264772.226152501651086 ], [ 520238.003351604798809, 266376.476227409089915 ], [ 518512.459178211865947, 266376.476227409089915 ], [ 518512.459178211865947, 267980.726303120085504 ], [ 515061.370828211889602, 267980.726303120085504 ], [ 515061.370828211889602, 269584.976378027582541 ], [ 511610.282478211913258, 269584.976378027582541 ], [ 511610.282478211913258, 271189.226452935021371 ], [ 508159.194128211936913, 271189.226452935021371 ], [ 508159.194128211936913, 272793.476526235463098 ], [ 504708.105778211960569, 272793.476526235463098 ], [ 504708.105778211960569, 274397.726602749957237 ], [ 499531.473251604940742, 274397.726602749957237 ], [ 499531.473251604940742, 276001.976677657454275 ], [ 494354.840728212031536, 276001.976677657454275 ], [ 494354.840728212031536, 277606.226751761394553 ], [ 487452.664028212078847, 277606.226751761394553 ], [ 487452.664028212078847, 279210.476827472390141 ], [ 480550.487328212126158, 279210.476827472390141 ], [ 480550.487328212126158, 280814.72690318338573 ], [ 471922.766451605129987, 280814.72690318338573 ], [ 471922.766451605129987, 282418.976978090824559 ], [ 465020.589751605177298, 282418.976978090824559 ], [ 465020.589751605177298, 284023.227051391266286 ], [ 459843.957228212268092, 284023.227051391266286 ], [ 459843.957228212268092, 285627.477127905818634 ], [ 454667.324701605248265, 285627.477127905818634 ], [ 454667.324701605248265, 287231.727202813257463 ], [ 451216.236351605271921, 287231.727202813257463 ], [ 451216.236351605271921, 288835.977276917197742 ], [ 447765.148001605295576, 288835.977276917197742 ], [ 447765.148001605295576, 290440.22735262819333 ], [ 444314.059651605319232, 290440.22735262819333 ], [ 444314.059651605319232, 292044.477427535690367 ], [ 442588.51547821238637, 292044.477427535690367 ], [ 442588.51547821238637, 293648.727502443129197 ], [ 439137.427128212410025, 293648.727502443129197 ], [ 439137.427128212410025, 295252.977578154124785 ], [ 437411.882951605366543, 295252.977578154124785 ], [ 437411.882951605366543, 296857.227653061621822 ], [ 435686.338778212433681, 296857.227653061621822 ], [ 435686.338778212433681, 298461.477727969060652 ], [ 433960.794603212387301, 298461.477727969060652 ], [ 433960.794603212387301, 300065.72780207300093 ], [ 432235.250428212457336, 300065.72780207300093 ], [ 432235.250428212457336, 301669.977877783996519 ], [ 430509.706253212410957, 301669.977877783996519 ], [ 430509.706253212410957, 303274.227952691493556 ], [ 428784.162078212480992, 303274.227952691493556 ], [ 428784.162078212480992, 304878.478027598932385 ], [ 427058.617903212434612, 304878.478027598932385 ], [ 427058.617903212434612, 306482.728100899374112 ], [ 425333.073728212504648, 306482.728100899374112 ], [ 425333.073728212504648, 308086.978177413868252 ], [ 423607.529553212458268, 308086.978177413868252 ], [ 423607.529553212458268, 311295.478326425305568 ], [ 421881.985378212528303, 311295.478326425305568 ], [ 421881.985378212528303, 312899.728402939799707 ], [ 420156.441203212481923, 312899.728402939799707 ], [ 420156.441203212481923, 314503.978477847296745 ], [ 418430.897028212551959, 314503.978477847296745 ], [ 418430.897028212551959, 316108.228551951237023 ], [ 416705.352853212505579, 316108.228551951237023 ], [ 416705.352853212505579, 317712.478627662232611 ], [ 414979.808678212575614, 317712.478627662232611 ], [ 414979.808678212575614, 320920.978777477168478 ], [ 413254.264503212529235, 320920.978777477168478 ], [ 413254.264503212529235, 322525.228853188164067 ], [ 411528.72032821259927, 322525.228853188164067 ], [ 411528.72032821259927, 324129.478928095661104 ], [ 409803.17615321255289, 324129.478928095661104 ], [ 409803.17615321255289, 325733.729003003099933 ], [ 408077.631978212622926, 325733.729003003099933 ], [ 408077.631978212622926, 327337.979077107040212 ], [ 406352.087803212576546, 327337.979077107040212 ], [ 406352.087803212576546, 330546.479227725532837 ], [ 404626.543628212646581, 330546.479227725532837 ], [ 404626.543628212646581, 332150.729302632971667 ], [ 402900.999453212600201, 332150.729302632971667 ], [ 402900.999453212600201, 333754.979375933413394 ], [ 401175.455278212670237, 333754.979375933413394 ], [ 401175.455278212670237, 335359.229452447907533 ], [ 399449.911103212623857, 335359.229452447907533 ], [ 399449.911103212623857, 336963.479528158903122 ], [ 397724.366928212693892, 336963.479528158903122 ], [ 397724.366928212693892, 338567.7296022628434 ], [ 395998.822753212647513, 338567.7296022628434 ], [ 395998.822753212647513, 340171.979677973838989 ], [ 392547.734402409172617, 340171.979677973838989 ], [ 392547.734402409172617, 341776.229752881336026 ], [ 390822.190228212741204, 341776.229752881336026 ], [ 390822.190228212741204, 343380.479827788774855 ], [ 389096.646052409196272, 343380.479827788774855 ], [ 389096.646052409196272, 344984.729901089216582 ], [ 385645.557702409219928, 344984.729901089216582 ], [ 385645.557702409219928, 346588.97997760376893 ], [ 383920.013528212788515, 346588.97997760376893 ], [ 383920.013528212788515, 348193.230052511207759 ], [ 380468.92517821281217, 348193.230052511207759 ], [ 380468.92517821281217, 349797.480126615148038 ], [ 378743.381002409267239, 349797.480126615148038 ], [ 378743.381002409267239, 351401.730202326143626 ], [ 375292.292652409290895, 351401.730202326143626 ], [ 375292.292652409290895, 353005.980278037139215 ], [ 370115.660128212883137, 353005.980278037139215 ], [ 370115.660128212883137, 354610.230352141079493 ], [ 366664.571778212906793, 354610.230352141079493 ], [ 366664.571778212906793, 356214.480427852075081 ], [ 359762.395078212954104, 356214.480427852075081 ], [ 359762.395078212954104, 357818.730502759572119 ], [ 347683.58585240948014, 357818.730502759572119 ], [ 347683.58585240948014, 359422.980577667010948 ], [ 340781.409146784921177, 359422.980577667010948 ], [ 340781.409146784921177, 357818.730502759572119 ], [ 328702.599920177948661, 357818.730502759572119 ], [ 328702.599920177948661, 356214.480427852075081 ], [ 321800.423220177995972, 356214.480427852075081 ], [ 321800.423220177995972, 354610.230352141079493 ], [ 318349.334870178019628, 354610.230352141079493 ], [ 318349.334870178019628, 353005.980278037139215 ], [ 313172.702346785110421, 353005.980278037139215 ], [ 313172.702346785110421, 351401.730202326143626 ], [ 309721.613996785134077, 351401.730202326143626 ], [ 309721.613996785134077, 349797.480126615148038 ], [ 307996.069820178090595, 349797.480126615148038 ], [ 307996.069820178090595, 348193.230052511207759 ], [ 304544.98147017811425, 348193.230052511207759 ], [ 304544.98147017811425, 346588.97997760376893 ], [ 301093.893120178137906, 346588.97997760376893 ], [ 301093.893120178137906, 344984.729901089216582 ], [ 299368.348946785205044, 344984.729901089216582 ], [ 299368.348946785205044, 343380.479827788774855 ], [ 297642.804770178161561, 343380.479827788774855 ], [ 297642.804770178161561, 341776.229752881336026 ], [ 294191.716420178185217, 341776.229752881336026 ], [ 294191.716420178185217, 340171.979677973838989 ], [ 292466.172246785252355, 340171.979677973838989 ], [ 292466.172246785252355, 338567.7296022628434 ], [ 290740.628070178208873, 338567.7296022628434 ], [ 290740.628070178208873, 336963.479528158903122 ], [ 289015.083896785276011, 336963.479528158903122 ], [ 289015.083896785276011, 335359.229452447907533 ], [ 287289.539720178232528, 335359.229452447907533 ], [ 287289.539720178232528, 333754.979375933413394 ], [ 285563.995546785299666, 333754.979375933413394 ], [ 285563.995546785299666, 332150.729302632971667 ], [ 283838.451370178256184, 332150.729302632971667 ], [ 283838.451370178256184, 330546.479227725532837 ], [ 282112.907196785323322, 330546.479227725532837 ], [ 282112.907196785323322, 327337.979077107040212 ], [ 280387.363020178279839, 327337.979077107040212 ], [ 280387.363020178279839, 325733.729003003099933 ], [ 278661.818846785346977, 325733.729003003099933 ], [ 278661.818846785346977, 324129.478928095661104 ], [ 276936.274670178303495, 324129.478928095661104 ], [ 276936.274670178303495, 319316.728695338009857 ], [ 278661.818846785346977, 319316.728695338009857 ], [ 278661.818846785346977, 316108.228546326630749 ], [ 280387.363028213498183, 316108.228546326630749 ], [ 280387.363028213498183, 317712.478621234069578 ], [ 287289.539720178232528, 317712.478621234069578 ], [ 287289.539720178232528, 314503.978471419133712 ], [ 289015.083896785276011, 314503.978471419133712 ], [ 289015.083896785276011, 311295.478326425305568 ], [ 287289.539720178232528, 311295.478326425305568 ], [ 287289.539720178232528, 308086.978170182206668 ], [ 290740.628078213427216, 308086.978170182206668 ], [ 290740.628078213427216, 309691.228246696759015 ], [ 292466.172252409858629, 309691.228246696759015 ], [ 292466.172252409858629, 312899.728395708138123 ], [ 294191.71642821340356, 312899.728395708138123 ], [ 294191.71642821340356, 314503.978471419133712 ], [ 297642.804770178161561, 314503.978471419133712 ], [ 297642.804770178161561, 312899.728395708138123 ], [ 301093.893120178137906, 312899.728395708138123 ], [ 301093.893120178137906, 311295.478321604197845 ], [ 302819.437302409787662, 311295.478321604197845 ], [ 302819.437302409787662, 312899.728395708138123 ], [ 304544.981478213332593, 312899.728395708138123 ], [ 304544.981478213332593, 314503.978471419133712 ], [ 311447.158170178066939, 314503.978471419133712 ], [ 311447.158170178066939, 312899.728395708138123 ], [ 313172.702346785110421, 312899.728395708138123 ], [ 313172.702346785110421, 311295.478321604197845 ], [ 314898.246520178043284, 311295.478321604197845 ], [ 314898.246520178043284, 309691.228246696759015 ], [ 316623.790696785086766, 309691.228246696759015 ], [ 316623.790696785086766, 308086.978170182206668 ], [ 318349.334870178019628, 308086.978170182206668 ], [ 318349.334870178019628, 303274.227952691493556 ], [ 316623.790696785086766, 303274.227952691493556 ], [ 316623.790696785086766, 298461.477727969060652 ], [ 313172.702346785110421, 298461.477727969060652 ], [ 313172.702346785110421, 295252.977578154124785 ], [ 311447.158178213285282, 295252.977578154124785 ], [ 311447.158178213285282, 296857.227653061621822 ], [ 309721.613996785134077, 296857.227653061621822 ], [ 309721.613996785134077, 295252.977578154124785 ], [ 307996.069820178090595, 295252.977578154124785 ], [ 307996.069820178090595, 293648.727502443129197 ], [ 304544.98147017811425, 293648.727502443129197 ], [ 304544.98147017811425, 292044.477427535690367 ], [ 302819.437296785181388, 292044.477427535690367 ], [ 302819.437296785181388, 290440.22735262819333 ], [ 301093.893120178137906, 290440.22735262819333 ], [ 301093.893120178137906, 285627.477120674098842 ], [ 302819.437302409787662, 285627.477120674098842 ], [ 302819.437302409787662, 287231.72719638509443 ], [ 304544.98147017811425, 287231.72719638509443 ], [ 304544.98147017811425, 284023.227046570158564 ], [ 306270.525646785157733, 284023.227046570158564 ], [ 306270.525646785157733, 280814.726896755222697 ], [ 307996.069828213308938, 280814.726896755222697 ], [ 307996.069828213308938, 282418.976971662719734 ], [ 313172.702346785110421, 282418.976971662719734 ], [ 313172.702346785110421, 276001.976671229291242 ], [ 318349.334870178019628, 276001.976671229291242 ], [ 318349.334870178019628, 272793.476521414355375 ], [ 320074.87904678506311, 272793.476521414355375 ], [ 320074.87904678506311, 269584.976369992364198 ], [ 321800.423220177995972, 269584.976369992364198 ], [ 321800.423220177995972, 267980.726296691922471 ], [ 323525.967396785039455, 267980.726296691922471 ], [ 323525.967396785039455, 266376.476220177428331 ], [ 325251.511570177972317, 266376.476220177428331 ], [ 325251.511570177972317, 258355.225846443587216 ], [ 326977.055746785015799, 258355.225846443587216 ], [ 326977.055746785015799, 255146.725696628651349 ], [ 328702.599920177948661, 255146.725696628651349 ], [ 328702.599920177948661, 253542.475621721183416 ], [ 330428.144096784992144, 253542.475621721183416 ], [ 330428.144096784992144, 251938.225546010187827 ], [ 333879.232446784968488, 251938.225546010187827 ], [ 333879.232446784968488, 250333.975471102719894 ], [ 337330.320802409551106, 250333.975471102719894 ], [ 337330.320802409551106, 253542.475621721183416 ], [ 339055.864978213096038, 253542.475621721183416 ], [ 339055.864978213096038, 255146.725696628651349 ], [ 340781.409152409527451, 255146.725696628651349 ], [ 340781.409152409527451, 256750.975771536119282 ], [ 342506.953328213072382, 256750.975771536119282 ], [ 342506.953328213072382, 259959.475921351055149 ], [ 344232.497502409503795, 259959.475921351055149 ], [ 344232.497502409503795, 261563.725996258523082 ], [ 349409.130028213025071, 261563.725996258523082 ], [ 349409.130028213025071, 263167.976071165991016 ], [ 351134.674202409456484, 263167.976071165991016 ], [ 351134.674202409456484, 264772.226146073488053 ], [ 352860.218370177783072, 264772.226146073488053 ], [ 352860.218370177783072, 263167.976071165991016 ], [ 354585.762552409432828, 263167.976071165991016 ], [ 354585.762552409432828, 266376.476220177428331 ], [ 356311.306720177759416, 266376.476220177428331 ], [ 356311.306720177759416, 263167.976071165991016 ], [ 358036.850902409409173, 263167.976071165991016 ], [ 358036.850902409409173, 272793.476526235463098 ], [ 356311.30672821297776, 272793.476526235463098 ], [ 356311.30672821297776, 274397.726602749957237 ], [ 352860.218378213001415, 274397.726602749957237 ], [ 352860.218378213001415, 280814.72690318338573 ], [ 351134.674202409456484, 280814.72690318338573 ], [ 351134.674202409456484, 282418.976978090824559 ], [ 349409.130028213025071, 282418.976978090824559 ], [ 349409.130028213025071, 284023.227051391266286 ], [ 347683.58585240948014, 284023.227051391266286 ], [ 347683.58585240948014, 285627.477120674098842 ], [ 349409.130028213025071, 285627.477120674098842 ], [ 349409.130028213025071, 288835.977271292591467 ], [ 352860.218370177783072, 288835.977271292591467 ], [ 352860.218370177783072, 287231.72719638509443 ], [ 354585.762546784826554, 287231.72719638509443 ], [ 354585.762546784826554, 285627.477120674098842 ], [ 361487.939246784779243, 285627.477120674098842 ], [ 361487.939246784779243, 284023.227046570158564 ], [ 364939.027596784755588, 284023.227046570158564 ], [ 364939.027596784755588, 282418.976971662719734 ], [ 366664.57177017768845, 282418.976971662719734 ], [ 366664.57177017768845, 280814.726896755222697 ], [ 370115.660128212883137, 280814.726896755222697 ], [ 370115.660128212883137, 282418.976971662719734 ], [ 371841.204296784708276, 282418.976971662719734 ], [ 371841.204296784708276, 279210.476821044227108 ], [ 373566.748470177641138, 279210.476821044227108 ], [ 373566.748470177641138, 276001.976671229291242 ], [ 375292.292646784684621, 276001.976671229291242 ], [ 375292.292646784684621, 274397.726595518295653 ], [ 382194.46934678463731, 274397.726595518295653 ], [ 382194.46934678463731, 267980.726296691922471 ], [ 383920.013528212788515, 267980.726296691922471 ], [ 383920.013528212788515, 269584.976369992364198 ], [ 385645.557696784613654, 269584.976369992364198 ], [ 385645.557696784613654, 267980.726296691922471 ], [ 387371.101870177546516, 267980.726296691922471 ], [ 387371.101870177546516, 266376.476220177428331 ], [ 390822.190228212741204, 266376.476220177428331 ], [ 390822.190228212741204, 267980.726296691922471 ], [ 404626.543628212646581, 267980.726296691922471 ], [ 404626.543628212646581, 269584.976369992364198 ], [ 406352.087803212576546, 269584.976369992364198 ], [ 406352.087803212576546, 274397.726595518295653 ], [ 408077.631970980903134, 274397.726595518295653 ], [ 408077.631970980903134, 272793.476521414355375 ], [ 409803.176146784448065, 272793.476521414355375 ], [ 409803.176146784448065, 271189.226445703359786 ], [ 411528.720320980879478, 271189.226445703359786 ], [ 411528.720320980879478, 269584.976378027582541 ], [ 409803.176146784448065, 269584.976378027582541 ], [ 409803.176146784448065, 264772.226146073488053 ], [ 411528.720320980879478, 264772.226146073488053 ], [ 411528.720320980879478, 259959.475927779218182 ], [ 408077.631970980903134, 259959.475927779218182 ], [ 408077.631970980903134, 258355.225852068222594 ], [ 404626.543620980926789, 258355.225852068222594 ], [ 404626.543620980926789, 256750.975777964282315 ], [ 399449.911096784519032, 256750.975777964282315 ], [ 399449.911096784519032, 255146.725696628651349 ], [ 401175.455270980950445, 255146.725696628651349 ], [ 401175.455270980950445, 253542.475621721183416 ], [ 402900.999446784495376, 253542.475621721183416 ], [ 402900.999446784495376, 250333.975471102719894 ], [ 408077.631970980903134, 250333.975471102719894 ], [ 408077.631970980903134, 248729.72539619525196 ], [ 409803.176146784448065, 248729.72539619525196 ], [ 409803.176146784448065, 245521.225246380316094 ], [ 411528.720320980879478, 245521.225246380316094 ], [ 411528.720320980879478, 240708.475020854384638 ], [ 413254.264496784424409, 240708.475020854384638 ], [ 413254.264496784424409, 239104.22494675044436 ], [ 416705.352846784400754, 239104.22494675044436 ], [ 416705.352846784400754, 235895.724795328453183 ], [ 418430.897020980832167, 235895.724795328453183 ], [ 418430.897020980832167, 234291.474721224512905 ], [ 420156.441203212481923, 234291.474721224512905 ], [ 420156.441203212481923, 235895.724795328453183 ], [ 423607.529553212458268, 235895.724795328453183 ], [ 423607.529553212458268, 237499.974871039448772 ], [ 425333.073728212504648, 237499.974871039448772 ], [ 425333.073728212504648, 239104.22494675044436 ], [ 430509.706246784306131, 239104.22494675044436 ], [ 430509.706246784306131, 237499.974871039448772 ], [ 432235.250428212457336, 237499.974871039448772 ], [ 432235.250428212457336, 240708.475028086046223 ], [ 428784.162078212480992, 240708.475028086046223 ], [ 428784.162078212480992, 243916.975170669320505 ], [ 433960.794596784282476, 243916.975170669320505 ], [ 433960.794596784282476, 240708.475020854384638 ], [ 435686.338770177215338, 240708.475020854384638 ], [ 435686.338770177215338, 237499.974871039448772 ], [ 437411.88294678425882, 237499.974871039448772 ], [ 437411.88294678425882, 235895.724795328453183 ], [ 440862.971301605342887, 235895.724795328453183 ], [ 440862.971301605342887, 237499.974871039448772 ], [ 442588.515470177168027, 237499.974871039448772 ], [ 442588.515470177168027, 235895.724795328453183 ], [ 444314.059646784211509, 235895.724795328453183 ], [ 444314.059646784211509, 234291.474721224512905 ], [ 447765.147996784187853, 234291.474721224512905 ], [ 447765.147996784187853, 229478.724496502080001 ], [ 449490.692170177120715, 229478.724496502080001 ], [ 449490.692170177120715, 227874.474421594612068 ], [ 451216.236351605271921, 227874.474421594612068 ], [ 451216.236351605271921, 229478.724496502080001 ], [ 452941.780528212315403, 229478.724496502080001 ], [ 452941.780528212315403, 231082.974571409577038 ], [ 454667.324696784140542, 231082.974571409577038 ], [ 454667.324696784140542, 229478.724496502080001 ], [ 459843.957220177049749, 229478.724496502080001 ], [ 459843.957220177049749, 227874.474421594612068 ], [ 463295.045570177026093, 227874.474421594612068 ], [ 463295.045570177026093, 226270.224346687144134 ], [ 466746.133928212220781, 226270.224346687144134 ], [ 466746.133928212220781, 227874.474421594612068 ], [ 470197.222270176978782, 227874.474421594612068 ], [ 470197.222270176978782, 224665.974277404311579 ], [ 468471.67809678404592, 224665.974277404311579 ], [ 468471.67809678404592, 223061.724196068680612 ], [ 470197.222270176978782, 223061.724196068680612 ], [ 470197.222270176978782, 213436.223745820345357 ], [ 471922.766446784022264, 213436.223745820345357 ], [ 471922.766446784022264, 208623.473520294413902 ], [ 473648.310620176955126, 208623.473520294413902 ], [ 473648.310620176955126, 205414.973370479478035 ], [ 475373.854796783998609, 205414.973370479478035 ], [ 475373.854796783998609, 203810.723296375537757 ], [ 478824.943146783974953, 203810.723296375537757 ], [ 478824.943146783974953, 202206.473220664542168 ], [ 480550.487320176907815, 202206.473220664542168 ], [ 480550.487320176907815, 200602.22314656060189 ], [ 482276.03150160505902, 200602.22314656060189 ], [ 482276.03150160505902, 202206.473220664542168 ], [ 485727.119846783927642, 202206.473220664542168 ], [ 485727.119846783927642, 195789.472919427615125 ], [ 487452.664020176860504, 195789.472919427615125 ], [ 487452.664020176860504, 192580.972771219705464 ], [ 489178.208196783903986, 192580.972771219705464 ], [ 489178.208196783903986, 190976.722702740400564 ], [ 487452.664020176860504, 190976.722702740400564 ], [ 487452.664020176860504, 187768.222546497301664 ], [ 489178.208196783903986, 187768.222546497301664 ], [ 489178.208196783903986, 182955.472321774897864 ], [ 497805.929070176789537, 182955.472321774897864 ], [ 497805.929070176789537, 174934.221945630502887 ], [ 499531.473246783833019, 174934.221945630502887 ], [ 499531.473246783833019, 171725.721803047228605 ], [ 497805.929070176789537, 171725.721803047228605 ], [ 497805.929070176789537, 170121.471720104571432 ], [ 502982.561601604917087, 170121.471720104571432 ], [ 502982.561601604917087, 171725.72179581556702 ] ] ] } }
]
}
