{
"type": "FeatureCollection",
"name": "zasieg_OL_cykl_1_epsg4326",
"crs": { "type": "name", "properties": { "name": "urn:ogc:def:crs:OGC:1.3:CRS84" } },
"features": [
{ "type": "Feature", "properties": { "gatunek": "OL", "cykl": 1, "pokrycie": 0.95, "prog_kde": 1.8812333635849822e-12 }, "geometry": { "type": "MultiPolygon", "coordinates": [ [ [ [ 22.734194285854255, 49.690470316301344 ], [ 22.715303716163799, 49.694391815371574 ], [ 22.696410138552267, 49.698312777254579 ], [ 22.677513623218065, 49.702234137905627 ], [ 22.676608757234185, 49.702421287891042 ], [ 22.65861394031036, 49.706152862273647 ], [ 22.639711396337699, 49.710073022166675 ], [ 22.62080607918729, 49.713995835647246 ], [ 22.610810200984449, 49.716067910832052 ], [ 22.601897985022028, 49.717921307338877 ], [ 22.5829871444191, 49.721849909060928 ], [ 22.564073709152847, 49.725783775788443 ], [ 22.545448342105171, 49.729663306904357 ], [ 22.545157756649065, 49.729724067522625 ], [ 22.526239331526217, 49.733671516419662 ], [ 22.507318502899853, 49.737627209617258 ], [ 22.488395351442637, 49.741592418388322 ], [ 22.480712903456155, 49.743202527661126 ], [ 22.469470033390714, 49.745569499453573 ], [ 22.450542573856684, 49.749559013978235 ], [ 22.431612996008493, 49.753561507846953 ], [ 22.41691350290532, 49.756677503114837 ], [ 22.412681448482342, 49.757579324631656 ], [ 22.39374815378001, 49.761615916147655 ], [ 22.374812953218747, 49.765669325501385 ], [ 22.355875930830475, 49.769741064355948 ], [ 22.354287163664022, 49.770082935130013 ], [ 22.336937584969238, 49.773838705515317 ], [ 22.317997590118065, 49.777957938659711 ], [ 22.299055991231484, 49.782099807007476 ], [ 22.29306056603161, 49.783414303721301 ], [ 22.280113309318853, 49.786272420186265 ], [ 22.261169365564843, 49.790473660357186 ], [ 22.242224035841783, 49.794702179940437 ], [ 22.233455292527754, 49.796667666925643 ], [ 22.223277853322788, 49.798966492036044 ], [ 22.204330813330582, 49.803267166141715 ], [ 22.185382601281088, 49.807600067611681 ], [ 22.175635422828375, 49.809841055402103 ], [ 22.166433807884644, 49.811974827442867 ], [ 22.147484519625824, 49.81639353728292 ], [ 22.128534263813059, 49.820849675341719 ], [ 22.119724519312573, 49.822933841865321 ], [ 22.109583801518607, 49.825355793471061 ], [ 22.090633093566169, 49.829912197720887 ], [ 22.071681606963708, 49.834511413198193 ], [ 22.065803153377061, 49.835946685131674 ], [ 22.052730465181057, 49.839172069420634 ], [ 22.033779128759001, 49.843886701989881 ], [ 22.014827179754089, 49.848649615930519 ], [ 22.013909875469526, 49.84888138697243 ], [ 21.995876386654089, 49.853490312597408 ], [ 21.976925153879602, 49.858384319948172 ], [ 21.964046624207697, 49.861740648670505 ], [ 21.957974115441733, 49.863343039095376 ], [ 21.939024052044651, 49.868380573620122 ], [ 21.920073569779994, 49.873475350603464 ], [ 21.91618634845868, 49.874527796367026 ], [ 21.901124614051191, 49.878660933698065 ], [ 21.882175771708408, 49.883915382468523 ], [ 21.870277847127856, 49.887246603174624 ], [ 21.863227591413967, 49.889249327485821 ], [ 21.844280770977573, 49.894676211042885 ], [ 21.8262506388735, 49.899901129035896 ], [ 21.825333738099111, 49.900170984145056 ], [ 21.806389283413584, 49.905783082749188 ], [ 21.787444428349357, 49.911463231954642 ], [ 21.784026863874175, 49.912495408113053 ], [ 21.768502004950996, 49.917262252580088 ], [ 21.749559734393205, 49.923142536446292 ], [ 21.743516769754251, 49.925033554064626 ], [ 21.730619593894705, 49.929140738655242 ], [ 21.711680097919992, 49.935232849339847 ], [ 21.704628681383674, 49.937519519331566 ], [ 21.692742648634397, 49.941445975136631 ], [ 21.673806036550943, 49.947760825137223 ], [ 21.667270200840949, 49.949957077484278 ], [ 21.654871680091521, 49.954205340634168 ], [ 21.635937963838533, 49.960752715502906 ], [ 21.631349933806504, 49.962349795517319 ], [ 21.617007078195041, 49.967445536999598 ], [ 21.598076153609728, 49.9742336797527 ], [ 21.596779431925921, 49.974701003805663 ], [ 21.579149071781579, 49.981191792452364 ], [ 21.56346926838464, 49.987013898225918 ], [ 21.560221763925814, 49.988246984756479 ], [ 21.541297681501479, 49.995466863550192 ], [ 21.531336998108923, 49.999291375087701 ], [ 21.522374634169797, 50.002813245683591 ], [ 21.503452665658507, 50.010289814234689 ], [ 21.500309822833326, 50.011535992560852 ], [ 21.484534009121102, 50.017942793132683 ], [ 21.470304369329874, 50.023750422120919 ], [ 21.465615394897313, 50.025712344427696 ], [ 21.446699160632519, 50.033647136202198 ], [ 21.441252813910392, 50.035936892145422 ], [ 21.427785012537953, 50.041745155248677 ], [ 21.413089322311709, 50.048097496142866 ], [ 21.408870917717298, 50.049969605733807 ], [ 21.389958904603613, 50.05836428087855 ], [ 21.385744555426982, 50.060234313536697 ], [ 21.371048918888015, 50.066932098165012 ], [ 21.359154581734717, 50.072349229298865 ], [ 21.352138827629638, 50.075633601644135 ], [ 21.333281043111491, 50.084443539262949 ], [ 21.333228474317774, 50.084468801075666 ], [ 21.31432144416986, 50.093515354441145 ], [ 21.30801628117889, 50.096519869160616 ], [ 21.29541386800005, 50.102697471626399 ], [ 21.283348516636952, 50.108578852857313 ], [ 21.276505443429663, 50.112012142835901 ], [ 21.259221657680548, 50.120621967197437 ], [ 21.257595852165736, 50.121455927005194 ], [ 21.238686846938926, 50.131069645335529 ], [ 21.235546019996303, 50.132651280730002 ], [ 21.219776922337289, 50.140825084681531 ], [ 21.212279310230922, 50.144667878940808 ], [ 21.200864493527543, 50.150691376216841 ], [ 21.189380101178568, 50.156672792060121 ], [ 21.18194895506868, 50.160658134735428 ], [ 21.166789204143406, 50.168667344978509 ], [ 21.163029613445119, 50.170712680470892 ], [ 21.144445084797258, 50.180652856580757 ], [ 21.144105679579912, 50.180839774391565 ], [ 21.125178525334626, 50.191072327890424 ], [ 21.122236214918654, 50.192631509729559 ], [ 21.106245161820969, 50.201345334088622 ], [ 21.100129972168254, 50.204603973518793 ], [ 21.087304244476339, 50.211629203667741 ], [ 21.078055109827311, 50.21657158269943 ], [ 21.068354589080649, 50.221897014748556 ], [ 21.055927371159154, 50.228535847563748 ], [ 21.049394919470405, 50.232118744846773 ], [ 21.033652385784926, 50.240498390676102 ], [ 21.030423878460013, 50.242261385289076 ], [ 21.011440283668417, 50.252294875799045 ], [ 21.011115391879887, 50.252461114254025 ], [ 20.992445100629553, 50.262239515034004 ], [ 20.988108963305212, 50.264427415077058 ], [ 20.973434414234809, 50.271998309384308 ], [ 20.964551948941136, 50.276398385194121 ], [ 20.954406778396951, 50.281530887767154 ], [ 20.940262142830466, 50.288376730650846 ], [ 20.935360785909808, 50.290796284004706 ], [ 20.916295890575086, 50.299773354847702 ], [ 20.914977144928137, 50.300366313763902 ], [ 20.897213579325939, 50.308491185772546 ], [ 20.888248816829563, 50.3123737630997 ], [ 20.8781095977216, 50.316834305560839 ], [ 20.859853412053578, 50.324401658137063 ], [ 20.858983008411833, 50.324767601955529 ], [ 20.839837879597756, 50.332384070597158 ], [ 20.828876056205544, 50.3364631680857 ], [ 20.820669561926426, 50.33955249148238 ], [ 20.80147969395712, 50.346302304151074 ], [ 20.794579433699528, 50.348567602903209 ], [ 20.78226923683513, 50.35264604525053 ], [ 20.763036997134446, 50.358538586711354 ], [ 20.755291291495201, 50.360737270048162 ], [ 20.743785201556957, 50.364026105996572 ], [ 20.724513619661728, 50.369088983647359 ], [ 20.708151256989908, 50.373009143778376 ], [ 20.705222297279143, 50.37371438622985 ], [ 20.68591484126074, 50.37798929481837 ], [ 20.666589286693362, 50.381845674005859 ], [ 20.647247046609145, 50.385309783173085 ], [ 20.646251089463938, 50.385471641533613 ], [ 20.627891356521278, 50.388462295783015 ], [ 20.608521132024528, 50.39126005240351 ], [ 20.589137451949483, 50.393722475426699 ], [ 20.569741414581575, 50.395870501658386 ], [ 20.55033403259144, 50.397723461459194 ], [ 20.541044611726914, 50.398482863108562 ], [ 20.530916615584914, 50.399310856709235 ], [ 20.511489803541636, 50.400642631034266 ], [ 20.492054061410283, 50.401723655625318 ], [ 20.472610159836218, 50.402568908109771 ], [ 20.45315880980883, 50.403192203817447 ], [ 20.433700667907733, 50.403606293575343 ], [ 20.414236341045683, 50.403822952183781 ], [ 20.394766390762221, 50.403853058584907 ], [ 20.375291337116444, 50.40370666864353 ], [ 20.355811662220933, 50.403393081326477 ], [ 20.336327813452854, 50.402920898937545 ], [ 20.316840206377186, 50.402298082096742 ], [ 20.297349227409111, 50.40153199993734 ], [ 20.296039670637114, 50.401470861467949 ], [ 20.277855499062188, 50.40063924959879 ], [ 20.258359112737125, 50.399617400024148 ], [ 20.238860357515815, 50.398471448598244 ], [ 20.219359522881238, 50.397206727834636 ], [ 20.199856880079281, 50.395828194841513 ], [ 20.180352683577812, 50.394340459361885 ], [ 20.16084717241225, 50.392747809936381 ], [ 20.146198455102354, 50.391474629289441 ], [ 20.141340645865881, 50.391057338807286 ], [ 20.121833460633777, 50.389279066734971 ], [ 20.102325578468797, 50.387406692957804 ], [ 20.082817188985018, 50.385443467146324 ], [ 20.063308471856494, 50.383392434771366 ], [ 20.043799597617976, 50.381256454568394 ], [ 20.040647423300292, 50.38089767900675 ], [ 20.024290940505569, 50.379048063328618 ], [ 20.00478246804132, 50.376761524463468 ], [ 19.985274286036674, 50.374397322742062 ], [ 19.96576653700502, 50.371957791647148 ], [ 19.951291918226367, 50.370093700652383 ], [ 19.946259411893408, 50.369447894759872 ], [ 19.926753136906694, 50.366874827422905 ], [ 19.907247675749218, 50.364232640142895 ], [ 19.8877431516412, 50.361523411293511 ], [ 19.871073596927861, 50.359153068424696 ], [ 19.868239708961958, 50.358750568792864 ], [ 19.848737582893303, 50.35592295173236 ], [ 19.829236730693466, 50.353034281485364 ], [ 19.809737261758467, 50.350086619195885 ], [ 19.796930795973104, 50.348115688183299 ], [ 19.790239333420249, 50.347085121075082 ], [ 19.770743092827356, 50.344034840639317 ], [ 19.75124854088444, 50.340932089333329 ], [ 19.731755775996135, 50.337779132633024 ], [ 19.727022392237611, 50.337004688661864 ], [ 19.712264994660181, 50.334585048259441 ], [ 19.692776220321814, 50.331348041366319 ], [ 19.673289511139128, 50.328068567322802 ], [ 19.660151021739857, 50.325834497227071 ], [ 19.653804995764567, 50.324752276659616 ], [ 19.634322803580513, 50.321405574339806 ], [ 19.614842932744676, 50.318025509313841 ], [ 19.595365462244214, 50.314615217046381 ], [ 19.575890590367045, 50.311188138000965 ], [ 19.556418268590249, 50.307738452025873 ], [ 19.536948564851901, 50.304269836714035 ], [ 19.531806211590524, 50.303354259828716 ], [ 19.517481632644852, 50.30079441230464 ], [ 19.498017475224167, 50.297311811394565 ], [ 19.478556114766704, 50.293823493451214 ], [ 19.468669962931475, 50.292056869644881 ], [ 19.459097659661349, 50.290340126713851 ], [ 19.439642154898173, 50.286867392366275 ], [ 19.42018957597697, 50.283404132998903 ], [ 19.405065324788659, 50.280726837656587 ], [ 19.400739979257732, 50.279958595662265 ], [ 19.381293451418852, 50.276544508627424 ], [ 19.361849915799443, 50.273157003864426 ], [ 19.342409379749391, 50.269801816126687 ], [ 19.339843037476165, 50.269366753833673 ], [ 19.322971935676076, 50.266498636270995 ], [ 19.303537489480519, 50.263242856527256 ], [ 19.284106007556765, 50.260038768037198 ], [ 19.271344619981331, 50.257977772174357 ], [ 19.264677493544372, 50.256898637989067 ], [ 19.245251931207815, 50.253834744454288 ], [ 19.22582920797479, 50.250843198952055 ], [ 19.206409264251914, 50.247930896914873 ], [ 19.19694389231082, 50.246558573662078 ], [ 19.186992064443437, 50.245113717690451 ], [ 19.167577515408052, 50.242398473419719 ], [ 19.14816548898569, 50.239784225444943 ], [ 19.12875588074855, 50.237278249432919 ], [ 19.11108534470678, 50.235103258657489 ], [ 19.109348578061024, 50.234889366301644 ], [ 19.089943475396627, 50.232637749464338 ], [ 19.070540394437568, 50.230516377821921 ], [ 19.051139183754373, 50.228532632090406 ], [ 19.031739680033731, 50.22669391561044 ], [ 19.012341708028266, 50.225007635833549 ], [ 18.994281870302519, 50.223587096820573 ], [ 18.992945080433646, 50.223481974183123 ], [ 18.973549592417655, 50.222132937013363 ], [ 18.954155031776306, 50.220957204559596 ], [ 18.934761177559302, 50.219961860303229 ], [ 18.915367797537105, 50.219153897666082 ], [ 18.895974648418996, 50.218540199318426 ], [ 18.87658147612029, 50.218127516206323 ], [ 18.857188016079089, 50.217922446435388 ], [ 18.837793993622519, 50.217931414153583 ], [ 18.81839912438187, 50.2181606485806 ], [ 18.799003114755649, 50.218616163332584 ], [ 18.779605662419137, 50.21930373619297 ], [ 18.760206456878411, 50.220228889477099 ], [ 18.740805180066694, 50.22139687113232 ], [ 18.721401506979884, 50.222812636743761 ], [ 18.716402488083382, 50.223241169807821 ], [ 18.701995049831858, 50.224489902869223 ], [ 18.682585491318633, 50.226428382864441 ], [ 18.663172508258096, 50.228628661576138 ], [ 18.64375575535048, 50.231094134024602 ], [ 18.62433488463347, 50.233827798457213 ], [ 18.61975613266284, 50.23453426664895 ], [ 18.604909431553214, 50.236846135387715 ], [ 18.585479110242716, 50.24014188687412 ], [ 18.566043608111894, 50.243712001509323 ], [ 18.555102069967091, 50.245873883839721 ], [ 18.546602500394322, 50.247565735724422 ], [ 18.527155415150574, 50.251705439159494 ], [ 18.507702121508515, 50.256119356027504 ], [ 18.503076092762441, 50.257232223141422 ], [ 18.488242151360666, 50.260819623178392 ], [ 18.468775290293443, 50.265793740250466 ], [ 18.45833864098757, 50.268601477379917 ], [ 18.44930120521007, 50.271041227320019 ], [ 18.42981960913999, 50.2765577636209 ], [ 18.418277075153515, 50.279977014270173 ], [ 18.41033027513399, 50.282334699493497 ], [ 18.390832954113048, 50.28836618815275 ], [ 18.381540930189182, 50.291356489992339 ], [ 18.371327468418286, 50.294641650040234 ], [ 18.35181364687557, 50.301151268978678 ], [ 18.347220469195001, 50.302737951646534 ], [ 18.332291384201145, 50.307881639403199 ], [ 18.314744851268912, 50.314120175106446 ], [ 18.312760546936222, 50.31482280765178 ], [ 18.293221172193494, 50.321954392015122 ], [ 18.283764761139182, 50.325502554895039 ], [ 18.273673184793164, 50.329265557202774 ], [ 18.254116561010935, 50.336743298605469 ], [ 18.253760570466817, 50.336882952867441 ], [ 18.234551597095724, 50.344356019893674 ], [ 18.224726507532623, 50.348262086435575 ], [ 18.214978181867679, 50.352099992307181 ], [ 18.196206094867293, 50.359637528541903 ], [ 18.195396420554474, 50.359959032589543 ], [ 18.175806809845763, 50.367895895504098 ], [ 18.168250909038939, 50.371010026788312 ], [ 18.156209285956091, 50.375908416325039 ], [ 18.140545336136835, 50.382377657824399 ], [ 18.13660400974312, 50.383982245835298 ], [ 18.116991453648005, 50.392087540780288 ], [ 18.113048486390369, 50.393740289386066 ], [ 18.097371909979714, 50.400206562797017 ], [ 18.085647942978927, 50.40509718714322 ], [ 18.07774538996544, 50.408337579783407 ], [ 18.058161799263335, 50.416446948011206 ], [ 18.058112140094966, 50.416467140404741 ], [ 18.0384730988192, 50.424548735096124 ], [ 18.030658042839946, 50.427790079413043 ], [ 18.018827923322537, 50.432601619891003 ], [ 18.002895136568057, 50.43912450085854 ], [ 17.999176850912264, 50.440616013853123 ], [ 17.979520592875506, 50.448560868217292 ], [ 17.974877333910694, 50.45045006632386 ], [ 17.959859356905824, 50.456430482950637 ], [ 17.946510920313557, 50.461765745414262 ], [ 17.940192991490129, 50.464235664003027 ], [ 17.920522016847176, 50.471956927242523 ], [ 17.917700445226071, 50.473070397875055 ], [ 17.900847091490096, 50.479570247766453 ], [ 17.888432700651176, 50.484363570300964 ], [ 17.881167683903193, 50.487103713483314 ], [ 17.861484303327739, 50.494540151849584 ], [ 17.85857399724468, 50.49564360945795 ], [ 17.841797701684886, 50.501853660378814 ], [ 17.828122190583343, 50.506910041950327 ], [ 17.822107123529847, 50.50908068066893 ], [ 17.80241337398688, 50.516193558113024 ], [ 17.796969676274951, 50.518161293464829 ], [ 17.782716703770248, 50.523188010239956 ], [ 17.765056845537202, 50.529396172610866 ], [ 17.763016425508798, 50.530095910118689 ], [ 17.743314040003316, 50.536864765129437 ], [ 17.732366008649198, 50.540613865216265 ], [ 17.723608519401655, 50.543539042644248 ], [ 17.70390032483937, 50.550106168706755 ], [ 17.698776051674987, 50.551812366379231 ], [ 17.684190056464068, 50.556549346935846 ], [ 17.664476599871705, 50.562913446547107 ], [ 17.664238670817689, 50.56299034812853 ], [ 17.644761994300861, 50.569130776738568 ], [ 17.628739795653882, 50.574146806279714 ], [ 17.625044265202387, 50.57527544925891 ], [ 17.605325162405055, 50.581291245955775 ], [ 17.592172649687601, 50.58527957556521 ], [ 17.585603496024781, 50.587223243518238 ], [ 17.565880276860714, 50.593041587206578 ], [ 17.554477377593717, 50.596386911992802 ], [ 17.54615491825108, 50.598769914624569 ], [ 17.526427954780566, 50.604394688000596 ], [ 17.515592804676857, 50.607466946059212 ], [ 17.506699100017887, 50.609929029708127 ], [ 17.486968727882861, 50.615364790620887 ], [ 17.475453730950015, 50.618517639142304 ], [ 17.467236532445227, 50.620715161540701 ], [ 17.447503054853172, 50.62596693721018 ], [ 17.433991006035068, 50.629536770981275 ], [ 17.42776764115969, 50.63114341037209 ], [ 17.408031332323251, 50.636216539658939 ], [ 17.391131795250427, 50.640521928924819 ], [ 17.388292796410845, 50.641229038344534 ], [ 17.368553904429302, 50.64612905406252 ], [ 17.348812571592596, 50.650980072791647 ], [ 17.346809116454875, 50.65147062822426 ], [ 17.329071071002826, 50.655719740779439 ], [ 17.309327519077261, 50.660404401573999 ], [ 17.300948494330157, 50.662380119986821 ], [ 17.289583094502625, 50.665003493115627 ], [ 17.269837519151096, 50.669527495215632 ], [ 17.253452196913088, 50.673247131090577 ], [ 17.25009020582484, 50.67399471997647 ], [ 17.230342782237834, 50.678363771227389 ], [ 17.210593344224414, 50.682687947603071 ], [ 17.204246927077843, 50.684068540080027 ], [ 17.190843492918965, 50.686927068200802 ], [ 17.17109248056757, 50.691103104527635 ], [ 17.1532383369154, 50.694840695637374 ], [ 17.151339813638646, 50.695230611895468 ], [ 17.131587356220066, 50.699264207328916 ], [ 17.111833138649249, 50.703255864870336 ], [ 17.100333437258094, 50.705559723226671 ], [ 17.092078095532518, 50.707183842992123 ], [ 17.072322644424222, 50.711039907906063 ], [ 17.052565557381559, 50.714855861573334 ], [ 17.045438106795547, 50.7162214715499 ], [ 17.032808204545191, 50.71860017394156 ], [ 17.01305005695512, 50.722287477370074 ], [ 16.993290383533598, 50.725936550816193 ], [ 16.988459247150011, 50.72682153148488 ], [ 16.973530738582365, 50.72951247892869 ], [ 16.953770136036002, 50.733039998868705 ], [ 16.934008101053362, 50.736531273845415 ], [ 16.929304245575491, 50.737355212678715 ], [ 16.914246134142576, 50.739953549963893 ], [ 16.894483256527675, 50.743330580096647 ], [ 16.874719020420812, 50.746673499003975 ], [ 16.867892175493374, 50.74781773266723 ], [ 16.854954654908013, 50.74995634912824 ], [ 16.835189614153848, 50.753192596569086 ], [ 16.815423266570697, 50.756397055402921 ], [ 16.804168187088813, 50.758204502172617 ], [ 16.795656378899263, 50.759554250926335 ], [ 16.775889212406568, 50.762659924044563 ], [ 16.756120765585631, 50.765736355447522 ], [ 16.738120834929248, 50.7685115191466 ], [ 16.736351184272205, 50.768781274802542 ], [ 16.716581848124186, 50.771767162091308 ], [ 16.696811230068239, 50.774726609948466 ], [ 16.677039316320553, 50.777660555970158 ], [ 16.66973486260159, 50.778734541186139 ], [ 16.657267095476925, 50.780549855524157 ], [ 16.637494142856958, 50.783404043626078 ], [ 16.617719851753396, 50.786235914816459 ], [ 16.59916530641409, 50.788872656965431 ], [ 16.597944287892481, 50.789044723034941 ], [ 16.578168738564198, 50.791806120848314 ], [ 16.558391772666919, 50.794548705484644 ], [ 16.53861335128521, 50.797273655373772 ], [ 16.526541617205993, 50.798924658577242 ], [ 16.518833982298641, 50.799971791716793 ], [ 16.499053934172849, 50.802638712288683 ], [ 16.479272300902757, 50.805291967882276 ], [ 16.459489026217536, 50.807932898616222 ], [ 16.452233201635675, 50.808894790448477 ], [ 16.439704888246776, 50.810547548662882 ], [ 16.419919473736567, 50.813144007222625 ], [ 16.400132230165632, 50.815732620962109 ], [ 16.380343081404359, 50.818314910699158 ], [ 16.376680839669735, 50.818789758434107 ], [ 16.36055295677647, 50.820874528413668 ], [ 16.340760994937334, 50.823427121444425 ], [ 16.320966875515303, 50.825978422937965 ], [ 16.301170499901623, 50.828530152271703 ], [ 16.3004649234264, 50.828620590799233 ], [ 16.281372882763055, 50.831064826649772 ], [ 16.261572843582563, 50.833602962263761 ], [ 16.24177022398241, 50.836147150441491 ], [ 16.224257159636554, 50.83840198435098 ], [ 16.221965026035377, 50.838697207150801 ], [ 16.20215795570093, 50.841241192391507 ], [ 16.182347922385539, 50.843797310940516 ], [ 16.162534781528628, 50.846367668553405 ], [ 16.148823933473714, 50.848152701016843 ], [ 16.142718695495816, 50.848949291337853 ], [ 16.122899900451124, 50.851538089701421 ], [ 16.103077531094289, 50.854147853014283 ], [ 16.083251413015809, 50.856780923356851 ], [ 16.074911044843425, 50.857892956835563 ], [ 16.063421919466705, 50.859430866083265 ], [ 16.043588717057371, 50.862102586026992 ], [ 16.023751208627235, 50.864804994040803 ], [ 16.003909187536685, 50.86754067368696 ], [ 16.003172829715343, 50.867642461144669 ], [ 15.98406331233987, 50.87029874343753 ], [ 15.964212537083165, 50.87309482503553 ], [ 15.944356596898785, 50.875932193434636 ], [ 15.934064831765276, 50.87741720411799 ], [ 15.92449566470297, 50.878807392253158 ], [ 15.904629538972788, 50.881722700429414 ], [ 15.884757525485609, 50.88468771765681 ], [ 15.867966439310115, 50.887232049393795 ], [ 15.864879485094715, 50.887703533221398 ], [ 15.844995722418258, 50.890764644894844 ], [ 15.82510528147278, 50.893884212397055 ], [ 15.805207872087045, 50.897065339058869 ], [ 15.805017799352807, 50.897095950407525 ], [ 15.785303990996283, 50.90029963199035 ], [ 15.765392587644177, 50.903601214411182 ], [ 15.745473342406015, 50.906973383316682 ], [ 15.745233095837843, 50.907014398901985 ], [ 15.725546717461972, 50.910408220994796 ], [ 15.705611671554101, 50.913919276214585 ], [ 15.688524530923267, 50.916989762584997 ], [ 15.685667975053894, 50.917508349123359 ], [ 15.665715879183418, 50.921170473160011 ], [ 15.645754422288077, 50.924917648227805 ], [ 15.634731331645042, 50.927021884254039 ], [ 15.625783618095987, 50.928748114282946 ], [ 15.605803272392452, 50.932663004683974 ], [ 15.585812631006851, 50.93667106096278 ], [ 15.583652939690236, 50.937108917726803 ], [ 15.565812114003071, 50.940764891385022 ], [ 15.545800821591262, 50.944955066296799 ], [ 15.535038203282415, 50.947246963477319 ], [ 15.525778743813154, 50.949239980351187 ], [ 15.505745722598901, 50.953620035421274 ], [ 15.488667620040557, 50.957432489084951 ], [ 15.485701137191111, 50.958101746953503 ], [ 15.465645442883819, 50.96267731004567 ], [ 15.445577607487513, 50.967358564105957 ], [ 15.444295231811701, 50.967660668776873 ], [ 15.425498409904115, 50.972133506778711 ], [ 15.40540679296857, 50.977014159565769 ], [ 15.401690800504806, 50.97792667647056 ], [ 15.385303477747721, 50.981989393799623 ], [ 15.36518765991978, 50.987067837551905 ], [ 15.36064830414106, 50.988226018067586 ], [ 15.345060040759153, 50.992238775551641 ], [ 15.324919907458545, 50.997509609176198 ], [ 15.320966160939927, 50.998553981691593 ], [ 15.304768146897862, 51.002867459608154 ], [ 15.284603937841318, 51.008321085608443 ], [ 15.282456846422718, 51.008905977284243 ], [ 15.264428603325859, 51.013852393440729 ], [ 15.244941997734392, 51.019277423446503 ], [ 15.244241024932974, 51.019473867041839 ], [ 15.224043065436721, 51.025161066604269 ], [ 15.20824393226329, 51.029663503638687 ], [ 15.203833547498373, 51.030927250817719 ], [ 15.18361409989634, 51.036751272873794 ], [ 15.172218689579685, 51.040060264938376 ], [ 15.163384377460496, 51.04263631098177 ], [ 15.143145212571067, 51.04857131443886 ], [ 15.136719223482983, 51.050463461829821 ], [ 15.12289750279573, 51.054544691961418 ], [ 15.10264083369615, 51.060560705006239 ], [ 15.101603624632739, 51.060868833713812 ], [ 15.082377804155261, 51.066587880132268 ], [ 15.066696810313099, 51.0712708272846 ], [ 15.062107039345706, 51.072642168075575 ], [ 15.041830964867861, 51.078694707294801 ], [ 15.031880483048932, 51.081665609393212 ], [ 15.021549472911934, 51.084746737266954 ], [ 15.001263333868323, 51.090789303979932 ], [ 15.001124748520994, 51.092189335049127 ], [ 14.999982817322191, 51.103723555570312 ], [ 14.998841359574953, 51.115257776174232 ], [ 14.997700414055045, 51.126791998222629 ], [ 14.99656002014923, 51.138326223099241 ], [ 14.99712002770627, 51.138691463957812 ], [ 15.015072919896207, 51.150532702017401 ], [ 14.995193774214084, 51.160916651660486 ], [ 14.99428104694115, 51.16139468695313 ], [ 14.995105688933441, 51.161932303525141 ], [ 15.012806701894364, 51.173601833919491 ], [ 15.011674720750717, 51.18513641432304 ], [ 15.012834002666914, 51.185891468834498 ], [ 15.030219826869446, 51.197341260941535 ], [ 15.02909536616993, 51.20887619598372 ], [ 15.027971829984814, 51.220411146464464 ], [ 15.02684925334713, 51.231946113615642 ], [ 15.028579185628498, 51.233071290155848 ], [ 15.045428116288203, 51.244149361184732 ], [ 15.044313585150155, 51.255684698098349 ], [ 15.043200152664999, 51.267220056290689 ], [ 15.0420878490434, 51.278755436828135 ], [ 15.040976703678384, 51.290290840750203 ], [ 15.022818476462831, 51.299754846068126 ], [ 15.020135830435716, 51.301156333128418 ], [ 15.019020898191147, 51.312691449720297 ], [ 15.001019890173884, 51.322062388452615 ], [ 14.998164102922754, 51.323552641851478 ], [ 14.997045372082965, 51.33508747015204 ], [ 14.97919963182048, 51.344366451051584 ], [ 14.97617246353183, 51.345944348640842 ], [ 14.975049946145061, 51.357478888503685 ], [ 14.977888179191336, 51.35932277200088 ], [ 14.993696782576254, 51.369692122386439 ], [ 14.976179239898874, 51.378792811619284 ], [ 14.972808803207785, 51.380548056073813 ], [ 14.971690232051571, 51.392082685749415 ], [ 14.970573028639745, 51.403617347261026 ], [ 14.969457217053947, 51.415152041486934 ], [ 14.968342820103931, 51.426686769262197 ], [ 14.971771336292276, 51.42891136786448 ], [ 14.987036095017812, 51.438902262167289 ], [ 14.970117583711911, 51.447677375377914 ], [ 14.966118354942678, 51.449756328582403 ], [ 14.965008325928281, 51.461291161578309 ], [ 14.948217765484371, 51.469989506085639 ], [ 14.94407447140428, 51.472140899557346 ], [ 14.927321178028407, 51.480811867802885 ], [ 14.923129402006431, 51.482986612181037 ], [ 14.90641481300225, 51.491629502744999 ], [ 14.886534425707435, 51.490956675428279 ], [ 14.86665486084326, 51.490280011282969 ], [ 14.862497033701239, 51.492433021814549 ], [ 14.845730567111838, 51.50108306683849 ], [ 14.841516803273274, 51.50326321171751 ], [ 14.824796491757303, 51.511881428892167 ], [ 14.820525441622198, 51.514089357578321 ], [ 14.803852627593994, 51.522675133905288 ], [ 14.783961710562426, 51.521979786509121 ], [ 14.764071645842602, 51.521280563288606 ], [ 14.759808393389083, 51.523480244414571 ], [ 14.74310988219742, 51.532059782265101 ], [ 14.73878224126002, 51.534290807514516 ], [ 14.73761528904055, 51.54582210715823 ], [ 14.721059145439961, 51.554318661534758 ], [ 14.716573856496652, 51.556628309286012 ], [ 14.715404332064363, 51.568159357342118 ], [ 14.719506165644477, 51.570831555870498 ], [ 14.734125396008281, 51.580416321901737 ], [ 14.738328675045077, 51.583152509430263 ], [ 14.752860651053252, 51.592670653521211 ], [ 14.757161592949009, 51.595468268426892 ], [ 14.771610051611734, 51.604922344278364 ], [ 14.770466473235134, 51.61645466396493 ], [ 14.754432260993859, 51.624683154891954 ], [ 14.749411550600325, 51.627266569075978 ], [ 14.753916786689944, 51.630195253908887 ], [ 14.768184841388125, 51.639519461501649 ], [ 14.752280791595549, 51.647677688667137 ], [ 14.747121513430182, 51.650330784056237 ], [ 14.751750673798925, 51.653338782251431 ], [ 14.76591060604969, 51.66258447139824 ], [ 14.75012588882832, 51.670678162555674 ], [ 14.744839005465499, 51.673395218021298 ], [ 14.74370057571578, 51.68492751730075 ], [ 14.728004170418224, 51.692967501873312 ], [ 14.722614978127602, 51.695733948677827 ], [ 14.706951225839147, 51.703750483048275 ], [ 14.701519602990325, 51.706536351073368 ], [ 14.685888301855128, 51.714529643137546 ], [ 14.680414581632638, 51.717334725310039 ], [ 14.679266280136289, 51.728866237898828 ], [ 14.663712304681605, 51.736812079768825 ], [ 14.658147969761503, 51.739660308080772 ], [ 14.656997862158994, 51.75119160387711 ], [ 14.655849708141529, 51.762722959220838 ], [ 14.65470348977143, 51.774254373508889 ], [ 14.653559186591639, 51.785785846044256 ], [ 14.652416775546797, 51.797317376032971 ], [ 14.637065194427082, 51.805147168633297 ], [ 14.617056083080943, 51.804404459078157 ], [ 14.611265668341462, 51.807359741982523 ], [ 14.595923442917531, 51.815173913584353 ], [ 14.590105608425191, 51.818140665041774 ], [ 14.588952434824336, 51.829671388386394 ], [ 14.594174837595085, 51.833067045237392 ], [ 14.607822347333418, 51.841952887163977 ], [ 14.606678225196681, 51.853484047675167 ], [ 14.611946875626938, 51.856906414891483 ], [ 14.631978665376399, 51.857655320149689 ], [ 14.64560040261391, 51.866507704940616 ], [ 14.650896244074422, 51.869943120325381 ], [ 14.664508335287477, 51.878781005057093 ], [ 14.66982426585999, 51.882226778676483 ], [ 14.683428728792364, 51.891051553431325 ], [ 14.688762730675364, 51.894506358431855 ], [ 14.702361474527972, 51.903319340669995 ], [ 14.701251778479755, 51.914852308200203 ], [ 14.700143426563184, 51.926385312490673 ], [ 14.705506680007277, 51.929854915234984 ], [ 14.719101467514117, 51.938651012574056 ], [ 14.718000783507222, 51.95018438754213 ], [ 14.716901218741992, 51.961717790887043 ], [ 14.715802700820989, 51.973251220013012 ], [ 14.714705153206685, 51.984784672171514 ], [ 14.720075473140977, 51.98825323347851 ], [ 14.733699551057027, 51.997048875597358 ], [ 14.732608733139044, 52.008582661298519 ], [ 14.731518604045172, 52.020116459666923 ], [ 14.736877489651826, 52.0235734831532 ], [ 14.750535605079545, 52.032378445623934 ], [ 14.749451542876535, 52.043912551213651 ], [ 14.748367855131645, 52.055446657992078 ], [ 14.753705159521298, 52.058885620789418 ], [ 14.767406310486907, 52.067706372648622 ], [ 14.752126226285434, 52.075499122235257 ], [ 14.746201181826093, 52.078514860005455 ], [ 14.745117975610954, 52.090048947316049 ], [ 14.729786355095809, 52.097859873503403 ], [ 14.709643919733683, 52.097131669703778 ], [ 14.703763148089118, 52.100119742991822 ], [ 14.688387354386148, 52.107942593010343 ], [ 14.682530167782307, 52.110916128507604 ], [ 14.681431926769669, 52.122449297107622 ], [ 14.680333289967598, 52.133982439314863 ], [ 14.679234122864216, 52.145515550209659 ], [ 14.68442848733722, 52.148862506175668 ], [ 14.698293298251055, 52.157786867970074 ], [ 14.70348143859751, 52.161127193041047 ], [ 14.717361783920992, 52.170055267702494 ], [ 14.7018591975961, 52.17793381160768 ], [ 14.696100598025373, 52.180853460468754 ], [ 14.695002672839168, 52.192386681303901 ], [ 14.693903507647336, 52.203919844927 ], [ 14.699028847550787, 52.207216946860591 ], [ 14.712986393644405, 52.216189167979344 ], [ 14.711889085941388, 52.227722487188394 ], [ 14.71079011190082, 52.239255733779139 ], [ 14.709689331712832, 52.250788902657597 ], [ 14.694038628916482, 52.258723962910047 ], [ 14.673824043063963, 52.257991142053207 ], [ 14.668182197338638, 52.260843797570232 ], [ 14.65247984924399, 52.268793482648121 ], [ 14.632261793582364, 52.268053426326318 ], [ 14.626656445537783, 52.270883618777823 ], [ 14.61090297099363, 52.278847512034638 ], [ 14.590681463487536, 52.278100196268767 ], [ 14.585111895253037, 52.280908343022176 ], [ 14.583973760382618, 52.292439402862364 ], [ 14.582833067786583, 52.303970355555421 ], [ 14.581689687372288, 52.315501196207329 ], [ 14.565845502149248, 52.323489154444033 ], [ 14.560316073348355, 52.326272031967427 ], [ 14.559162110720559, 52.337802335592393 ], [ 14.558005087437303, 52.349332512710141 ], [ 14.556844900675758, 52.360862559419438 ], [ 14.555681456432691, 52.37239247214891 ], [ 14.554514670054942, 52.383922247677155 ], [ 14.538630614270865, 52.391904154079839 ], [ 14.533088320666268, 52.394686708186356 ], [ 14.538028177310018, 52.397865895047609 ], [ 14.552170781779703, 52.406981376099665 ], [ 14.55099356120359, 52.418510724449867 ], [ 14.54981276171428, 52.430039926533127 ], [ 14.554815076773963, 52.433255408695729 ], [ 14.57510482446768, 52.43402765580403 ], [ 14.589182970406695, 52.443091390514823 ], [ 14.59424203415357, 52.44633889679865 ], [ 14.608288637600994, 52.455377225361339 ], [ 14.607112355045542, 52.466906925104006 ], [ 14.612239683165079, 52.470194948775031 ], [ 14.626227071416777, 52.479189931225498 ], [ 14.631402230895166, 52.482505998964854 ], [ 14.645349401718732, 52.491469942836552 ], [ 14.644172932387338, 52.50299984244888 ], [ 14.628590400836567, 52.510813443588283 ], [ 14.622682006860801, 52.513778686517568 ], [ 14.621493398888859, 52.525307991457311 ], [ 14.620301402843481, 52.536837158919958 ], [ 14.619106074769098, 52.548366190948137 ], [ 14.624508451884859, 52.551823435083151 ], [ 14.638239731615009, 52.560647284761174 ], [ 14.637043302571849, 52.572176375926261 ], [ 14.621714101197728, 52.579840123752497 ], [ 14.615500774270478, 52.582952499153699 ], [ 14.614292828326073, 52.594481015453923 ], [ 14.613081937611046, 52.606009410525409 ], [ 14.597891021587081, 52.613588698466977 ], [ 14.591509768103077, 52.616780374309833 ], [ 14.576354838280269, 52.624333797572213 ], [ 14.555975158546563, 52.623579654940087 ], [ 14.549562512352882, 52.626782434620516 ], [ 14.534424222755518, 52.634315375476518 ], [ 14.527960116091069, 52.637541028261673 ], [ 14.512862913605657, 52.645045709553919 ], [ 14.506345033175222, 52.648295344418003 ], [ 14.491291222752404, 52.655770706272065 ], [ 14.470899340779471, 52.655001057066698 ], [ 14.464341859451686, 52.658265741500962 ], [ 14.463077168451191, 52.669791136287088 ], [ 14.448116659865715, 52.677204904872106 ], [ 14.441424585461853, 52.680532608872504 ], [ 14.440150036951227, 52.692057470048944 ], [ 14.425310742571771, 52.699400487941013 ], [ 14.418477683025698, 52.702794225697154 ], [ 14.403691359350356, 52.710103678695404 ], [ 14.396793270946525, 52.713526699336541 ], [ 14.395502084038316, 52.72505061595465 ], [ 14.380845572300359, 52.732285686155059 ], [ 14.373798607526814, 52.735778383621778 ], [ 14.359199177490339, 52.742978193617198 ], [ 14.35208343405821, 52.746501871384531 ], [ 14.337542301247169, 52.753665939685938 ], [ 14.330356686249431, 52.757221079159223 ], [ 14.315874931988269, 52.764348992068903 ], [ 14.308618486641192, 52.767936006948119 ], [ 14.294197058043594, 52.775027417912703 ], [ 14.273755323477975, 52.774220896018356 ], [ 14.26644038515084, 52.777831604600024 ], [ 14.265108217160172, 52.789353022821437 ], [ 14.250809749254126, 52.79637065330607 ], [ 14.243336385180397, 52.800055111065006 ], [ 14.22910029103733, 52.807035590760336 ], [ 14.221553575869116, 52.810752919584708 ], [ 14.207380281472579, 52.817696156808793 ], [ 14.18692117458113, 52.816873582553676 ], [ 14.179312741713963, 52.820615889941301 ], [ 14.16518626440536, 52.827525827847836 ], [ 14.144723842041087, 52.826695568531456 ], [ 14.137052638328777, 52.830463288332275 ], [ 14.135683989665996, 52.841982338842953 ], [ 14.134314730662094, 52.853501354829021 ], [ 14.141227424760203, 52.857956099397839 ], [ 14.153411968866152, 52.865859385703047 ], [ 14.152046988972836, 52.877378699407373 ], [ 14.159122287616627, 52.881933630401164 ], [ 14.171159998576686, 52.889734218725216 ], [ 14.157506659613752, 52.896399840257729 ], [ 14.149315733455348, 52.900417245338055 ], [ 14.147949544125524, 52.911936481145545 ], [ 14.146583029531067, 52.923455694226128 ], [ 14.145216220490425, 52.934974885868392 ], [ 14.143849143259001, 52.946494057174888 ], [ 14.142481819751296, 52.95801320907114 ], [ 14.150063265423565, 52.962886814624852 ], [ 14.161629790643364, 52.970371072531613 ], [ 14.169296394029844, 52.975295464183183 ], [ 14.189828071171535, 52.976137587864962 ], [ 14.201311371074969, 52.983558092191195 ], [ 14.20907868163278, 52.988540208328423 ], [ 14.229617811988682, 52.989375884078257 ], [ 14.241017251985989, 52.996732341410109 ], [ 14.248885917202863, 53.001772421879238 ], [ 14.260211124165304, 53.009075268282047 ], [ 14.268165083371125, 53.014165882072447 ], [ 14.288718108774397, 53.014992005119559 ], [ 14.299958944670244, 53.022230675681364 ], [ 14.308014795295939, 53.027379294561278 ], [ 14.319181668325003, 53.03456467609783 ], [ 14.327322565467094, 53.039763456259983 ], [ 14.338415779657391, 53.046895804736629 ], [ 14.346641429399597, 53.052144471648162 ], [ 14.357661314058564, 53.059224058212237 ], [ 14.356350620664555, 53.070746893960525 ], [ 14.364727180855144, 53.076086398789577 ], [ 14.375612788906045, 53.083072593543662 ], [ 14.374307085126542, 53.094595736355281 ], [ 14.373001193471767, 53.106118861497194 ], [ 14.371695109581724, 53.117641968826568 ], [ 14.380349392703749, 53.123150501818657 ], [ 14.39098434797264, 53.129965755672849 ], [ 14.389683253258141, 53.141489168317491 ], [ 14.377750607608998, 53.147318939188196 ], [ 14.367775645598169, 53.152211181913472 ], [ 14.366468729925574, 53.163734215812433 ], [ 14.365161587201404, 53.175257230675605 ], [ 14.374127220219849, 53.180957814778203 ], [ 14.384476755838763, 53.187582633432129 ], [ 14.383174563468605, 53.199105951987093 ], [ 14.392279350914894, 53.204889072271385 ], [ 14.402506594199018, 53.21142878199008 ], [ 14.401209363456303, 53.222952403005728 ], [ 14.410451272729622, 53.228816586583761 ], [ 14.420558345855513, 53.23527265556136 ], [ 14.429877437706953, 53.241181006077461 ], [ 14.439919128453161, 53.247590005668656 ], [ 14.449314844778492, 53.253542090678046 ], [ 14.459291765913765, 53.259904450461597 ], [ 14.44805432091545, 53.265391119298677 ], [ 14.437344877653047, 53.270638471910473 ], [ 14.426145649763955, 53.27610188415531 ], [ 14.415387800405409, 53.281368224333754 ], [ 14.4140945031491, 53.292892065374602 ], [ 14.412800930697985, 53.304415885587403 ], [ 14.411507078476332, 53.315939684820918 ], [ 14.410212942441362, 53.327463462944301 ], [ 14.408918519102999, 53.338987219848008 ], [ 14.407623805536925, 53.350510955444157 ], [ 14.396793916135044, 53.355780495917536 ], [ 14.385621334670939, 53.361234239013307 ], [ 14.395527607431463, 53.367503671429631 ], [ 14.405033498882613, 53.3735583624726 ], [ 14.39430944482271, 53.378773328887171 ], [ 14.383019175252024, 53.384280910244229 ], [ 14.381717630821058, 53.395804212991258 ], [ 14.38041577621658, 53.407327493845202 ], [ 14.379113611855161, 53.418850752847085 ], [ 14.377811138670904, 53.430373990058023 ], [ 14.376508358084939, 53.441897205558114 ], [ 14.375205271971145, 53.453420399445015 ], [ 14.364814033115378, 53.458460145396565 ], [ 14.353144477044644, 53.464136417174572 ], [ 14.351835043210407, 53.475659216309204 ], [ 14.350525298599717, 53.487181993762704 ], [ 14.349215246723455, 53.498704749697268 ], [ 14.338994065949491, 53.50365322331438 ], [ 14.327125611036269, 53.509415322608675 ], [ 14.325809163281285, 53.520937680896992 ], [ 14.32449240780368, 53.532460017786505 ], [ 14.314388846160893, 53.537344293174399 ], [ 14.302379832921293, 53.543165503855647 ], [ 14.301056648582732, 53.55468744067155 ], [ 14.311722313869119, 53.561424751293572 ], [ 14.320540341715152, 53.567026902148996 ], [ 14.319222402398159, 53.57854915554524 ], [ 14.317904179105307, 53.590071388603 ], [ 14.316585676573435, 53.601593601534262 ], [ 14.315266899443595, 53.613115794547454 ], [ 14.305459229468521, 53.617846982224712 ], [ 14.293111309290451, 53.623818625055463 ], [ 14.291786093789524, 53.635340418448607 ], [ 14.290460607341844, 53.646862192216091 ], [ 14.289134854228077, 53.658383946553471 ], [ 14.279466892554924, 53.663039358960447 ], [ 14.266949818591097, 53.669081277050026 ], [ 14.278008507177699, 53.67605587083662 ], [ 14.286482563857707, 53.681427397670916 ], [ 14.276888602916889, 53.686044384378363 ], [ 14.2642851310144, 53.692123963716419 ], [ 14.262952395482955, 53.703645278487286 ], [ 14.261619403118894, 53.715166574424622 ], [ 14.260286156737861, 53.726687851667506 ], [ 14.271528242287969, 53.733770369936622 ], [ 14.279847417692293, 53.739035697052167 ], [ 14.270426509255158, 53.743562579715714 ], [ 14.257618911380495, 53.749730350554948 ], [ 14.268930109113672, 53.756853291629021 ], [ 14.277191643028129, 53.762078888061758 ], [ 14.27586339427379, 53.773600456338826 ], [ 14.274534905575145, 53.785122006540519 ], [ 14.273206177217885, 53.796643538705801 ], [ 14.263940922916056, 53.801088955175089 ], [ 14.250946478753717, 53.807336277553183 ], [ 14.24961125707871, 53.818857408489983 ], [ 14.248275789899422, 53.830378521319396 ], [ 14.239085034415348, 53.834781581787965 ], [ 14.225992473833127, 53.841066101477487 ], [ 14.224650485787132, 53.852586810874477 ], [ 14.223308244505811, 53.864107502017411 ], [ 14.221965748197409, 53.875628174862882 ], [ 14.2206229947246, 53.887148829353656 ], [ 14.219279981615488, 53.898669465419069 ], [ 14.210233553919197, 53.902992983554142 ], [ 14.196954063526814, 53.909350711048816 ], [ 14.208660330939098, 53.916708836362282 ], [ 14.216593164997036, 53.921710681927209 ], [ 14.228334447194547, 53.929084668634623 ], [ 14.249333690513874, 53.929922119320885 ], [ 14.270334002332923, 53.930755842927994 ], [ 14.29133537853086, 53.931585834085581 ], [ 14.304657919232012, 53.925193738640928 ], [ 14.313633028732351, 53.920876529568801 ], [ 14.326930370386894, 53.914490653975221 ], [ 14.335919335195968, 53.910162719595853 ], [ 14.356912341528236, 53.910981126437761 ], [ 14.377906394338838, 53.911795779454238 ], [ 14.385840468165579, 53.916773528000533 ], [ 14.397630209270178, 53.924143342216738 ], [ 14.418632112063333, 53.924950644630229 ], [ 14.439635049674161, 53.925754174758971 ], [ 14.44754717917143, 53.93070657613783 ], [ 14.459384211133573, 53.938090717725977 ], [ 14.467278998929077, 53.943027328122852 ], [ 14.479145115466675, 53.950423426728655 ], [ 14.487023896898805, 53.955345099660917 ], [ 14.498917770814517, 53.962752299436033 ], [ 14.519942147445489, 53.963541199490479 ], [ 14.527806816984029, 53.968445820866194 ], [ 14.539733366692261, 53.975862603399385 ], [ 14.560765560863342, 53.976644060090472 ], [ 14.568618687908566, 53.981533248550591 ], [ 14.580575350631491, 53.988957972466189 ], [ 14.601615352253015, 53.98973195752167 ], [ 14.622656354868147, 53.990502108455686 ], [ 14.63050293477219, 53.995375658522171 ], [ 14.642491518068114, 54.002804839337379 ], [ 14.663540310349157, 54.003567474725969 ], [ 14.684590091787138, 54.00432625398485 ], [ 14.692434821486552, 54.009187067327652 ], [ 14.704450626424075, 54.016617741099623 ], [ 14.725508179627688, 54.017368959105248 ], [ 14.733351245969782, 54.022220473837969 ], [ 14.74538729932104, 54.029652851341147 ], [ 14.766452613996769, 54.030396476590631 ], [ 14.774296933611573, 54.035240488363733 ], [ 14.786350325157688, 54.042672747817178 ], [ 14.807423390942562, 54.043408748084161 ], [ 14.828497418449563, 54.044140837261729 ], [ 14.849572403427086, 54.044869007503522 ], [ 14.857434969497083, 54.049709240795003 ], [ 14.869502266711685, 54.057130128833933 ], [ 14.890584976668215, 54.0578506080426 ], [ 14.911668631955267, 54.058567143628267 ], [ 14.932753228276407, 54.059279727499259 ], [ 14.940643277234066, 54.064121729413209 ], [ 14.952715224590825, 54.071525568552168 ], [ 14.97380751935523, 54.072230393383336 ], [ 14.981712674349042, 54.077073276452793 ], [ 14.993788114692748, 54.084468463441503 ], [ 15.014888097014085, 54.08516549466443 ], [ 15.035989000016441, 54.085858531534839 ], [ 15.043924910471086, 54.090708398092424 ], [ 15.055994955984875, 54.098084969167701 ], [ 15.077103527379284, 54.098770160430618 ], [ 15.098213006911292, 54.099451331589101 ], [ 15.106186416212827, 54.10431218954475 ], [ 15.118244319147566, 54.11166606666449 ], [ 15.139361447542795, 54.112339340347987 ], [ 15.160479471363566, 54.11300856813925 ], [ 15.168497447809761, 54.117884600371653 ], [ 15.180536134792659, 54.1252115328477 ], [ 15.20166178753653, 54.125872811954466 ], [ 15.209713403602162, 54.13076076192381 ], [ 15.221737061744578, 54.138067852398315 ], [ 15.24287033152803, 54.13872114980115 ], [ 15.264004475324882, 54.139370358714913 ], [ 15.272113472489846, 54.144281035006969 ], [ 15.284105095628721, 54.151553529215668 ], [ 15.305246835715645, 54.15219470785712 ], [ 15.326389436565655, 54.152831773150176 ], [ 15.347532893531126, 54.153464716869053 ], [ 15.368677201945635, 54.154093530806207 ], [ 15.389822357123849, 54.15471820677439 ], [ 15.398067733483417, 54.159688450298482 ], [ 15.409968460099838, 54.166877565844601 ], [ 15.431121163656149, 54.167494117933956 ], [ 15.452274700299256, 54.168106508402857 ], [ 15.473429065256845, 54.168714729273049 ], [ 15.494584253737123, 54.169318772599055 ], [ 15.515740260928796, 54.169918630469631 ], [ 15.524152665078551, 54.174966188686746 ], [ 15.535931748439602, 54.182053959016166 ], [ 15.557095254049967, 54.182645608780874 ], [ 15.57825956424429, 54.183233051189752 ], [ 15.586769703197232, 54.188326771258787 ], [ 15.59847631792098, 54.195356286418452 ], [ 15.619648103007046, 54.195935486937017 ], [ 15.640820678300388, 54.196510459538068 ], [ 15.661994038830631, 54.197081196885122 ], [ 15.670647046965467, 54.202244162409869 ], [ 15.682242710597773, 54.2091882995337 ], [ 15.7034235121964, 54.209750754499986 ], [ 15.724605084336559, 54.21030895546361 ], [ 15.745787421959646, 54.210862895460664 ], [ 15.754599287688007, 54.216104277658545 ], [ 15.766067971873328, 54.222953864580127 ], [ 15.787257715699722, 54.223499490113042 ], [ 15.796157757531805, 54.228784441784114 ], [ 15.807556825862875, 54.235582444675273 ], [ 15.828753960170971, 54.23611974988178 ], [ 15.849951834902017, 54.236652768654594 ], [ 15.858989244960565, 54.242006638055962 ], [ 15.870276137932857, 54.248723714918384 ], [ 15.891481376949807, 54.249248403585277 ], [ 15.912687340983764, 54.249768792315507 ], [ 15.933894024781081, 54.250284875246521 ], [ 15.95510142307071, 54.250796646583673 ], [ 15.976309530564235, 54.251304100601907 ], [ 15.99751834195593, 54.251807231647611 ], [ 16.018727851922769, 54.252306034140922 ], [ 16.028167687635616, 54.257866189411409 ], [ 16.039110366303369, 54.264344903698031 ], [ 16.060327161553424, 54.264835347228491 ], [ 16.081544639464784, 54.265321452647981 ], [ 16.091155403046525, 54.270969514617626 ], [ 16.101952248640607, 54.2773485477557 ], [ 16.123176983902646, 54.277826304806936 ], [ 16.132907829606165, 54.283536035048648 ], [ 16.143603092344556, 54.289845733014822 ], [ 16.153397015484927, 54.29558743795603 ], [ 16.164041124779569, 54.301861547877245 ], [ 16.185279671560441, 54.302327009046557 ], [ 16.195198292880448, 54.308132971310805 ], [ 16.205736203021925, 54.314335313343072 ], [ 16.215719473620759, 54.3201741330912 ], [ 16.226204666780152, 54.326340122392438 ], [ 16.236252814124565, 54.332211925095471 ], [ 16.246685067921103, 54.338341485683216 ], [ 16.256798224771661, 54.344246340333157 ], [ 16.26717741166344, 54.35033945222964 ], [ 16.277355617254855, 54.356277371908156 ], [ 16.287681703377874, 54.362334070266549 ], [ 16.297924905141997, 54.368305013030316 ], [ 16.308197948605624, 54.374325386945102 ], [ 16.318506004429192, 54.380329257026006 ], [ 16.317748790124924, 54.39187743586124 ], [ 16.327975255769946, 54.397863826772443 ], [ 16.338346256393542, 54.403898429596964 ], [ 16.348520837753028, 54.409849287142507 ], [ 16.358955344247814, 54.415916011287948 ], [ 16.35820658302984, 54.42746446005291 ], [ 16.36833780123952, 54.433383330668569 ], [ 16.37883179643833, 54.439478773101506 ], [ 16.388912778448844, 54.445363182383737 ], [ 16.399468474266573, 54.451489660189353 ], [ 16.398728048672353, 54.463038371552102 ], [ 16.408769502883032, 54.468893141287921 ], [ 16.419380672348485, 54.475045973285766 ], [ 16.429373938260756, 54.480867580031237 ], [ 16.440044641693852, 54.487050136200935 ], [ 16.439312504918956, 54.498599104466372 ], [ 16.449270535657707, 54.504393672434176 ], [ 16.459992308410222, 54.510599967008041 ], [ 16.469904496759721, 54.516362835619546 ], [ 16.491259414670136, 54.516773015058504 ], [ 16.50210423870346, 54.523041939132916 ], [ 16.511911990619755, 54.528735596538837 ], [ 16.522813234995571, 54.535032294619946 ], [ 16.532576622605784, 54.540695253337567 ], [ 16.553945235654524, 54.541093965606798 ], [ 16.564969003415534, 54.547452762012675 ], [ 16.574628493840212, 54.553047104603593 ], [ 16.596004218965778, 54.553438003773522 ], [ 16.617380489189753, 54.553824692574601 ], [ 16.628595432907947, 54.560281159568206 ], [ 16.638088928243018, 54.565767765482285 ], [ 16.659472283820474, 54.566146670418341 ], [ 16.680856168061187, 54.566521372933046 ], [ 16.702240575267904, 54.566891874403623 ], [ 16.723625499724182, 54.567258176598763 ], [ 16.745010935693781, 54.567620281708223 ], [ 16.766396877420053, 54.567978192373822 ], [ 16.778093896023268, 54.574683443908242 ], [ 16.787156598059941, 54.57989710243438 ], [ 16.808549554929549, 54.58024730186375 ], [ 16.82994300082839, 54.580593322454554 ], [ 16.841841101438177, 54.587400752832629 ], [ 16.850727839719294, 54.592502383613493 ], [ 16.872128273771434, 54.592840736382016 ], [ 16.893529180005839, 54.593174930027509 ], [ 16.914930552535946, 54.593504970950832 ], [ 16.927107475354383, 54.600454608671065 ], [ 16.935746994465187, 54.605400775392418 ], [ 16.94797314769227, 54.612373167557806 ], [ 16.956575550409646, 54.617293759230932 ], [ 16.96884978519352, 54.624288188774756 ], [ 16.977416230768686, 54.62918390629001 ], [ 16.989737419158168, 54.636199668586102 ], [ 16.998269045982223, 54.641071199162198 ], [ 17.010636082762236, 54.64810760326759 ], [ 17.019134006516403, 54.652955619439055 ], [ 17.031545810646545, 54.66001198909828 ], [ 17.040011122850306, 54.664837147934399 ], [ 17.061451896571992, 54.665142420332337 ], [ 17.073982774276732, 54.672256853168989 ], [ 17.082347670177416, 54.677017622304305 ], [ 17.094920845005358, 54.684150455097118 ], [ 17.10325562079651, 54.688889898454136 ], [ 17.124709789770648, 54.689184309475657 ], [ 17.137399264643477, 54.696373355286113 ], [ 17.145636414189021, 54.701050250136845 ], [ 17.167097471284809, 54.70133726340498 ], [ 17.179901745103887, 54.708581502140099 ], [ 17.188042775243659, 54.713196875910619 ], [ 17.209510704275001, 54.713476544700129 ], [ 17.222428120334911, 54.720774874887546 ], [ 17.230474693449658, 54.725329838973153 ], [ 17.251949478189573, 54.725602221597292 ], [ 17.264978208823848, 54.73295345276469 ], [ 17.272932158181696, 54.737449210681469 ], [ 17.294413782371691, 54.737714370878933 ], [ 17.315895768404069, 54.737975650556152 ], [ 17.33737811015552, 54.738233073400274 ], [ 17.350664654092153, 54.745711330710776 ], [ 17.35839240395325, 54.750067250253551 ], [ 17.379881546229001, 54.750317612161425 ], [ 17.401371026759151, 54.750564192223436 ], [ 17.422860839400663, 54.750807019864119 ], [ 17.444350978006831, 54.751046126225631 ], [ 17.465841436429539, 54.751281544229116 ], [ 17.479526751478115, 54.758957241254571 ], [ 17.486900175144061, 54.763096888699756 ], [ 17.508397372633329, 54.763325563385223 ], [ 17.529894872537344, 54.763550650349337 ], [ 17.551392668740494, 54.763772189402545 ], [ 17.572890755139888, 54.763990222389019 ], [ 17.586886122707021, 54.771817052682067 ], [ 17.59398741825207, 54.775790506986567 ], [ 17.615492194229063, 54.776002128877217 ], [ 17.636997243266965, 54.776210369469474 ], [ 17.658502559360453, 54.776415278249331 ], [ 17.672720037194118, 54.784347822549414 ], [ 17.679630688625775, 54.788203982645541 ], [ 17.701142656908296, 54.788402789614096 ], [ 17.722654875512863, 54.788598409622587 ], [ 17.737013237950606, 54.796595248879967 ], [ 17.743808057843367, 54.800378702044036 ], [ 17.765326902996414, 54.800568471376963 ], [ 17.786845982168632, 54.800755213119565 ], [ 17.808365289697228, 54.800938990309596 ], [ 17.822906986706332, 54.809019800912601 ], [ 17.829549891815464, 54.812708498633747 ], [ 17.851075791066137, 54.812886808677781 ], [ 17.872601903152646, 54.813062332804442 ], [ 17.887248780158622, 54.821187618502883 ], [ 17.893811537906092, 54.824824045800938 ], [ 17.91534421855965, 54.824994403925245 ], [ 17.93687709727606, 54.825162166883253 ], [ 17.958410169013504, 54.825327409296783 ], [ 17.979943428851048, 54.825490207290684 ], [ 18.001476871996928, 54.82565063831985 ], [ 18.023010493796839, 54.825808780972899 ], [ 18.044544289742166, 54.825964714751066 ], [ 18.066078255478114, 54.826118519821826 ], [ 18.087612386811607, 54.826270276746904 ], [ 18.109146679718918, 54.82642006618407 ], [ 18.130681130352876, 54.826567968563012 ], [ 18.152215735049619, 54.826714063735544 ], [ 18.173750490334683, 54.826858430600822 ], [ 18.195285392928415, 54.827001146706678 ], [ 18.216820439750535, 54.827142287828522 ], [ 18.238355627923724, 54.827281927527828 ], [ 18.259890954776161, 54.827420136692439 ], [ 18.28142641784282, 54.82755698306179 ], [ 18.302962014865489, 54.827692530740187 ], [ 18.32449774379139, 54.82782683970202 ], [ 18.346033602770191, 54.827959965293317 ], [ 18.352485547480555, 54.82456072743966 ], [ 18.367750611539183, 54.816505651243517 ], [ 18.374181969217013, 54.813114177359374 ], [ 18.389455284794661, 54.805050863440002 ], [ 18.395872576534671, 54.801663730358811 ], [ 18.411147633950964, 54.793595744931764 ], [ 18.417557628847405, 54.790209389091942 ], [ 18.417674040069141, 54.778649579692349 ], [ 18.41778987649182, 54.767089745641911 ], [ 18.411581783131105, 54.763696149553496 ], [ 18.396357510257527, 54.755424566751891 ], [ 18.396477306319582, 54.743864714009192 ], [ 18.396596564895958, 54.732304836710405 ], [ 18.412155868943877, 54.724074182471902 ], [ 18.418247834581045, 54.720850164599611 ], [ 18.433798344842515, 54.712620671334015 ], [ 18.439894315901199, 54.709391611464127 ], [ 18.455428572479669, 54.701167330736347 ], [ 18.461536178654558, 54.697929178939766 ], [ 18.461638680339451, 54.686369119656398 ], [ 18.461740804266118, 54.674809036738125 ], [ 18.461842575301581, 54.663248930292198 ], [ 18.461944019319862, 54.651688800430314 ], [ 18.462045163192048, 54.640128647268611 ], [ 18.477790122141158, 54.6317797833455 ], [ 18.499222538473518, 54.631916170740396 ], [ 18.505173038476308, 54.628751917540129 ], [ 18.505264035143998, 54.617191669116899 ], [ 18.505354834542356, 54.605631397875236 ], [ 18.521063402056193, 54.597293672506702 ], [ 18.526953180627459, 54.59415705989008 ], [ 18.527038885052956, 54.58259672074378 ], [ 18.542737366094929, 54.574259402247257 ], [ 18.548628234518986, 54.571118471637391 ], [ 18.548708971097366, 54.559558066250453 ], [ 18.548789662884928, 54.547997638634591 ], [ 18.548870339815384, 54.536437188898155 ], [ 18.548951032276026, 54.524876717151123 ], [ 18.549031771049336, 54.513316223505015 ], [ 18.549112587250075, 54.501755708072487 ], [ 18.565002876863133, 54.493302446217861 ], [ 18.57066906484815, 54.490273338813566 ], [ 18.565067613709292, 54.487203955558613 ], [ 18.549274577645125, 54.478634612303637 ], [ 18.54935581510108, 54.467074032196471 ], [ 18.549437256350839, 54.455513430760647 ], [ 18.565494159055032, 54.446964337186586 ], [ 18.570975067686998, 54.444030892874885 ], [ 18.586946659976629, 54.43552387852084 ], [ 18.592508410892975, 54.432544499965665 ], [ 18.592580809844435, 54.420983794009011 ], [ 18.608497561908599, 54.412500723071588 ], [ 18.629815713990379, 54.41264298126432 ], [ 18.635560301262721, 54.409560147966566 ], [ 18.651232297942183, 54.401202122295139 ], [ 18.672544727927047, 54.40134170142251 ], [ 18.678536824400943, 54.398121213768121 ], [ 18.69394350899865, 54.389898875094772 ], [ 18.700047011186854, 54.386615580610432 ], [ 18.715330367241336, 54.378455002338626 ], [ 18.721550291359808, 54.375106092320436 ], [ 18.736705316270548, 54.367009816347952 ], [ 18.758000318644644, 54.367142268045278 ], [ 18.779295460667768, 54.367272235948782 ], [ 18.800590740167934, 54.367399567491034 ], [ 18.807419987729062, 54.363712606011006 ], [ 18.821936237834585, 54.35594561674548 ], [ 18.843225795905827, 54.356067415864331 ], [ 18.8503555261643, 54.352212462615221 ], [ 18.864553562371327, 54.344607984873463 ], [ 18.885837391509217, 54.344723549316697 ], [ 18.90712134272113, 54.344835697502887 ], [ 18.928405411887795, 54.344944293840442 ], [ 18.94170352849304, 54.352291146333172 ], [ 18.949675450690435, 54.356626946429053 ], [ 18.957657961724223, 54.352297797390733 ], [ 18.97097388619099, 54.345150311127753 ], [ 18.992258281706427, 54.345247484394719 ], [ 19.01354277595987, 54.345340610986412 ], [ 19.034827363525523, 54.345429580430093 ], [ 19.056112038756922, 54.345514287923571 ], [ 19.0773967958018, 54.345594634446613 ], [ 19.098681628617172, 54.345670526831782 ], [ 19.119966530984566, 54.345741877796769 ], [ 19.141251496525204, 54.345808605941485 ], [ 19.162536518715065, 54.345870635712082 ], [ 19.183821590899679, 54.345927897335315 ], [ 19.195143182719121, 54.352147479919161 ], [ 19.205164372852817, 54.357558481279575 ], [ 19.226455509717951, 54.357606116294384 ], [ 19.247746676133758, 54.35764881171508 ], [ 19.269037865060678, 54.357686518758236 ], [ 19.290329069394573, 54.357719193798729 ], [ 19.300867695904238, 54.363491291743244 ], [ 19.311707935983588, 54.369325235745507 ], [ 19.333005139547311, 54.369347837833281 ], [ 19.354302337057575, 54.369365306371023 ], [ 19.375599521254678, 54.369377615713368 ], [ 19.385546707132754, 54.374811598983477 ], [ 19.397008376043242, 54.380963336147815 ], [ 19.418311506225134, 54.380965361440367 ], [ 19.427962478266494, 54.386229749712086 ], [ 19.439738366460933, 54.392540690238711 ], [ 19.461047417905707, 54.392532363789037 ], [ 19.470412099260603, 54.397632888082853 ], [ 19.482492275516279, 54.404097221690407 ], [ 19.503807223461568, 54.404078499379239 ], [ 19.512895715362312, 54.409020983854823 ], [ 19.525270070300493, 54.415632829560202 ], [ 19.546590890034853, 54.41560368855631 ], [ 19.555413395069234, 54.420394006915735 ], [ 19.568071717968824, 54.427147454548994 ], [ 19.576749916495803, 54.431855067247326 ], [ 19.589564596459518, 54.438685819763364 ], [ 19.598101172822592, 54.443312292469528 ], [ 19.611069530748868, 54.450218775281371 ], [ 19.619467176910305, 54.454765676320427 ], [ 19.632586526098887, 54.461746314685833 ], [ 19.645488475917137, 54.4546294900452 ], [ 19.653746441788257, 54.450113700946844 ], [ 19.675084730219893, 54.450053346040526 ], [ 19.696422898022956, 54.449987798673348 ], [ 19.717760938341716, 54.449917075303553 ], [ 19.73909884437921, 54.449841193748512 ], [ 19.760436609398059, 54.449760173037632 ], [ 19.781774226720977, 54.449674033273503 ], [ 19.803111689731011, 54.449582795501485 ], [ 19.816729374991485, 54.442032299379576 ], [ 19.824216459966781, 54.437908533095545 ], [ 19.845547576794303, 54.437807168539727 ], [ 19.866878520004153, 54.437700778732612 ], [ 19.888209283229379, 54.437589387320074 ], [ 19.909539860161068, 54.437473018344633 ], [ 19.930870244547453, 54.437351696161471 ], [ 19.95220043019296, 54.437225445361115 ], [ 19.966308771309439, 54.429367235725401 ], [ 19.973255945854408, 54.425516179076077 ], [ 19.994579703334441, 54.425380183456433 ], [ 20.015903244067129, 54.42523933855378 ], [ 20.037226562078764, 54.425093669170387 ], [ 20.058549651445528, 54.424943200040595 ], [ 20.079872506292126, 54.424787955786201 ], [ 20.101195120790425, 54.424627960876144 ], [ 20.122517489158064, 54.424463239589997 ], [ 20.137064017494236, 54.41631906017772 ], [ 20.143517270483063, 54.412715846748036 ], [ 20.164833123483941, 54.412541819331345 ], [ 20.186148713586132, 54.412363141190987 ], [ 20.207464035183584, 54.412179835483904 ], [ 20.228779082708879, 54.411991925047317 ], [ 20.250093850631853, 54.411799432380533 ], [ 20.271408333458204, 54.411602379628569 ], [ 20.292722525728163, 54.411400788568208 ], [ 20.307594491291493, 54.403031349958788 ], [ 20.313666302170851, 54.399617129648895 ], [ 20.3349738980098, 54.399406633050937 ], [ 20.356281187483326, 54.399191664986617 ], [ 20.377588165263578, 54.398972245613422 ], [ 20.398894826050665, 54.39874839467749 ], [ 20.420201164571381, 54.39852013150773 ], [ 20.435246939646532, 54.390019500682691 ], [ 20.441101344916941, 54.38671032823185 ], [ 20.462401030597224, 54.386473427071628 ], [ 20.483700378761217, 54.386232172823114 ], [ 20.504999384237877, 54.385986583094606 ], [ 20.526298041876835, 54.385736675064152 ], [ 20.547596346547238, 54.385482465477892 ], [ 20.568894293136566, 54.385223970648696 ], [ 20.590191876549479, 54.384961206455444 ], [ 20.60541810121433, 54.376314152658608 ], [ 20.611035642932894, 54.373117890839737 ], [ 20.632326499897545, 54.372846794157311 ], [ 20.653616978980523, 54.372571476895651 ], [ 20.674907075152763, 54.372291953212681 ], [ 20.696196783396957, 54.372008236835462 ], [ 20.71748609870642, 54.371720341061085 ], [ 20.738775016084066, 54.371428278757612 ], [ 20.760063530541323, 54.37113206236544 ], [ 20.781351637097135, 54.370831703898951 ], [ 20.802639330776898, 54.370527214948211 ], [ 20.818020422871442, 54.361736305736834 ], [ 20.823413683343713, 54.358643793704033 ], [ 20.844694560927159, 54.358331276765931 ], [ 20.865975011324206, 54.35801466563403 ], [ 20.887255029586246, 54.357693970255987 ], [ 20.908534610766409, 54.35736920016889 ], [ 20.929813749918679, 54.357040364502815 ], [ 20.951092442097011, 54.35670747198462 ], [ 20.972370682354494, 54.356370530942236 ], [ 20.993648465742559, 54.356029549309355 ], [ 21.014925787310204, 54.355684534630456 ], [ 21.036202642103259, 54.35533549406631 ], [ 21.057479025163694, 54.354982434399879 ], [ 21.07875493152897, 54.354625362042675 ], [ 21.100030356231404, 54.354264283041495 ], [ 21.115536114904248, 54.345323514953499 ], [ 21.120709180442667, 54.342327293465686 ], [ 21.141977664711984, 54.341958478552016 ], [ 21.163245653106326, 54.341585677439987 ], [ 21.184513140641933, 54.341208894804176 ], [ 21.205780122327418, 54.340828134992336 ], [ 21.22704659316345, 54.340443402034715 ], [ 21.242556041012328, 54.331465273386641 ], [ 21.247681105698984, 54.32848415737341 ], [ 21.268940586318184, 54.328091778320086 ], [ 21.274350488220861, 54.330869923512388 ], [ 21.290842890456457, 54.339265400032673 ], [ 21.312107267733179, 54.338864808790447 ], [ 21.333371109036104, 54.338460260142313 ], [ 21.354634409313874, 54.338051756429103 ], [ 21.375897163506213, 54.337639299748901 ], [ 21.39143663580985, 54.328605107269965 ], [ 21.396486266518824, 54.325654468768818 ], [ 21.417741965524542, 54.325234432001885 ], [ 21.438997104056458, 54.324810451603305 ], [ 21.460251677027351, 54.324382528795077 ], [ 21.481505679341669, 54.323950664614742 ], [ 21.502759105895827, 54.323514859927798 ], [ 21.524011951578498, 54.323075115440112 ], [ 21.545264211271007, 54.322631431710469 ], [ 21.56651587984771, 54.322183809162901 ], [ 21.571843390043682, 54.324892564751927 ], [ 21.588493551360258, 54.333297631907165 ], [ 21.609749962238265, 54.3328417737374 ], [ 21.631005765679099, 54.33238197325646 ], [ 21.652260956527758, 54.331918230511747 ], [ 21.673515529624794, 54.331450545476628 ], [ 21.694769479806904, 54.330978918061597 ], [ 21.716022801907432, 54.330503348124928 ], [ 21.737275490756979, 54.330023835483409 ], [ 21.758527541183948, 54.329540379922328 ], [ 21.779778948015146, 54.329052981205457 ], [ 21.785067655175094, 54.33172137018957 ], [ 21.801816206598136, 54.340123058768057 ], [ 21.823072245603015, 54.339627378208554 ], [ 21.844327624530091, 54.339127750122998 ], [ 21.865582338200763, 54.33862417432367 ], [ 21.886836381437881, 54.338116650644409 ], [ 21.908089749066296, 54.33760517894796 ], [ 21.929342435913444, 54.337089759132901 ], [ 21.950594436809912, 54.336570391140249 ], [ 21.971845746589999, 54.336047074959502 ], [ 21.993096360092238, 54.335519810634338 ], [ 22.014346272159944, 54.334988598268048 ], [ 22.035595477641721, 54.334453438028319 ], [ 22.056843971391977, 54.333914330151778 ], [ 22.062157886276829, 54.336568476913385 ], [ 22.078955925854647, 54.34492712909968 ], [ 22.100208907085293, 54.3443796911112 ], [ 22.121461160168803, 54.343828303538501 ], [ 22.142712679982818, 54.343272966964115 ], [ 22.163963461413069, 54.342713682055411 ], [ 22.185213499353736, 54.342150449566986 ], [ 22.206462788707885, 54.341583270342554 ], [ 22.22771132438778, 54.341012145316824 ], [ 22.248959101315268, 54.340437075516796 ], [ 22.270206114422106, 54.33985806206303 ], [ 22.291452358650258, 54.339275106170412 ], [ 22.312697828952214, 54.33868820914887 ], [ 22.318103372997548, 54.341362724778776 ], [ 22.334878397624419, 54.349647665138818 ], [ 22.356128223099574, 54.349052421442799 ], [ 22.377377258495336, 54.348453238302739 ], [ 22.398625498803778, 54.347850117428962 ], [ 22.419872939028696, 54.347243060625715 ], [ 22.441119574185805, 54.346632069790729 ], [ 22.446589843599643, 54.349325304907538 ], [ 22.463337447181409, 54.35756446583212 ], [ 22.484588373188959, 54.356945129997357 ], [ 22.505838478140333, 54.35632186362723 ], [ 22.52708775709517, 54.355694668996861 ], [ 22.548336205125739, 54.355063548468898 ], [ 22.569583817317042, 54.354428504492148 ], [ 22.590830588766917, 54.353789539599923 ], [ 22.612076514586118, 54.353146656408633 ], [ 22.633321589898351, 54.352499857615825 ], [ 22.63892872766046, 54.355240919865977 ], [ 22.655591777610994, 54.363391919155539 ], [ 22.676841047342243, 54.362736792357438 ], [ 22.698089450856809, 54.362077755837454 ], [ 22.719336983325228, 54.361414812608452 ], [ 22.740583639931131, 54.360747965754484 ], [ 22.761829415871262, 54.360077218428735 ], [ 22.767546266455263, 54.362858472991739 ], [ 22.784136460209773, 54.370942185532442 ], [ 22.805386367714068, 54.370263127716377 ], [ 22.811140492257525, 54.37305725786333 ], [ 22.812204654170742, 54.38459280381764 ], [ 22.813269665001915, 54.396128310320869 ], [ 22.829861799114571, 54.404195358693478 ], [ 22.83562559060676, 54.406988561596826 ], [ 22.852210553421454, 54.415044652475508 ], [ 22.873481415551741, 54.414351834594605 ], [ 22.888433826791463, 54.405297449361456 ], [ 22.893656618344224, 54.402118467977921 ], [ 22.914919726792174, 54.40141839148307 ], [ 22.936181911712627, 54.400714431250343 ], [ 22.957443168396846, 54.400006590989271 ], [ 22.972285157036808, 54.390994609946723 ], [ 22.977585866709052, 54.387760259946972 ], [ 22.998839343736122, 54.387045209023213 ], [ 23.013622888770708, 54.378055459506818 ], [ 23.012493985621859, 54.366522950518387 ], [ 23.011365809697192, 54.354990405649232 ], [ 23.016708304493356, 54.351725245570471 ], [ 23.037942200538108, 54.351004106185151 ], [ 23.059175150009665, 54.350279116383184 ], [ 23.073865142270218, 54.341323349446903 ], [ 23.057511285618599, 54.333415226280685 ], [ 23.051519750671556, 54.330506507110286 ], [ 23.050382880000242, 54.318974423363933 ], [ 23.055763379675966, 54.31568073471027 ], [ 23.070438222455284, 54.306727957644874 ], [ 23.075836192391193, 54.303421193145901 ], [ 23.097043716647949, 54.302690748010434 ], [ 23.103121246171046, 54.305618895401111 ], [ 23.119403567663735, 54.313487723069315 ], [ 23.140615047336457, 54.3127490587827 ], [ 23.155192737724555, 54.303833490278059 ], [ 23.160660538746409, 54.300476452729178 ], [ 23.175210641904329, 54.291570182935722 ], [ 23.180694144274028, 54.288201103141283 ], [ 23.201890983035746, 54.287452122686126 ], [ 23.216390108102416, 54.278564007008633 ], [ 23.221905879101371, 54.275170808822708 ], [ 23.236379186077322, 54.266290980506348 ], [ 23.241908912983831, 54.262886783699642 ], [ 23.263091101501129, 54.262127549435156 ], [ 23.284272302078552, 54.261364523293061 ], [ 23.305452510228168, 54.260597709151007 ], [ 23.326631721469735, 54.259827110880053 ], [ 23.340984833573913, 54.250991698670475 ], [ 23.34659555000405, 54.247527573672883 ], [ 23.360925748052953, 54.238698787220088 ], [ 23.366547545735845, 54.235225373841402 ], [ 23.38085562164969, 54.226402747253637 ], [ 23.386487719049196, 54.222920518318112 ], [ 23.400774467579428, 54.214103582726665 ], [ 23.399552943015255, 54.202576193535037 ], [ 23.405187624827931, 54.199089367144133 ], [ 23.419456225313045, 54.190274176826854 ], [ 23.418230967986709, 54.178747016554979 ], [ 23.423866673600763, 54.175256548165081 ], [ 23.444999042637559, 54.17446746982349 ], [ 23.466130392111559, 54.173674643684137 ], [ 23.480339776118093, 54.164875760246744 ], [ 23.486011605372465, 54.161356579386364 ], [ 23.500203619108124, 54.15256103439436 ], [ 23.498959378141699, 54.141034999865653 ], [ 23.497715946753747, 54.129508925952585 ], [ 23.496473321489443, 54.117982812768645 ], [ 23.502124173646205, 54.114472469221298 ], [ 23.516312544429315, 54.105665812520421 ], [ 23.5150661717751, 54.094139935363032 ], [ 23.513820595480475, 54.082614019239458 ], [ 23.519457076377947, 54.079108954817762 ], [ 23.533639716437008, 54.070294481677109 ], [ 23.532390372990818, 54.058768803574921 ], [ 23.531141815459915, 54.047243086839593 ], [ 23.529894040398748, 54.035717331584856 ], [ 23.528647044444206, 54.02419153792129 ], [ 23.512654149102826, 54.016496187027002 ], [ 23.506363670321623, 54.013457710481639 ], [ 23.505123574502939, 54.001931524676991 ], [ 23.48911475217038, 53.994218845748158 ], [ 23.482856697249296, 53.991193006878838 ], [ 23.481623491265516, 53.979666430711113 ], [ 23.487174804516346, 53.976211009303171 ], [ 23.501407898039069, 53.967352738905618 ], [ 23.506959012581611, 53.963894906173948 ], [ 23.521181253805576, 53.955035975083049 ], [ 23.519939625851322, 53.943509915333465 ], [ 23.518698753918788, 53.931983817914443 ], [ 23.517458635703253, 53.920457682896391 ], [ 23.516219269050424, 53.908931510344068 ], [ 23.514980651962187, 53.897405300316294 ], [ 23.520490643686603, 53.893967494315532 ], [ 23.53471989464191, 53.885086868620775 ], [ 23.533477405231942, 53.873560901320069 ], [ 23.532235659064121, 53.862034896726627 ], [ 23.537727271542266, 53.858604735618933 ], [ 23.551954543218724, 53.849713974621366 ], [ 23.550708908106341, 53.83818821468477 ], [ 23.549464011784409, 53.826662417568677 ], [ 23.548219853628527, 53.815136583280008 ], [ 23.546976433225961, 53.803610711817711 ], [ 23.545733750376193, 53.792084803172656 ], [ 23.544491805090527, 53.78055885732774 ], [ 23.54325059759076, 53.769032874257846 ], [ 23.54868585718496, 53.765630882632152 ], [ 23.5629258808092, 53.756710891334386 ], [ 23.568355972376761, 53.753309524506648 ], [ 23.582590007868156, 53.744385878129386 ], [ 23.581340256406854, 53.732860426327967 ], [ 23.586757453645976, 53.729463876226291 ], [ 23.600988582717353, 53.72053267393359 ], [ 23.599734933059761, 53.709007470992702 ], [ 23.598482028553565, 53.697482230426083 ], [ 23.597229871460836, 53.685956952129949 ], [ 23.595978464235131, 53.674431635993159 ], [ 23.601360731994795, 53.671051796117958 ], [ 23.615597102635153, 53.66210201358146 ], [ 23.614341826219849, 53.650576946414645 ], [ 23.613087310052222, 53.639051840948525 ], [ 23.611833557483443, 53.627526697037148 ], [ 23.617187984667776, 53.624159824847347 ], [ 23.631427224581071, 53.615194928152626 ], [ 23.63016964192197, 53.603670032953545 ], [ 23.62891283677255, 53.592145098710269 ], [ 23.634245870334087, 53.588787838156257 ], [ 23.648486226123051, 53.579810903724095 ], [ 23.64722563055274, 53.568286217937199 ], [ 23.645965828729071, 53.556761492412548 ], [ 23.651276881405686, 53.553414274830665 ], [ 23.665519032836464, 53.544424877765159 ], [ 23.664255487462093, 53.532900400140129 ], [ 23.662992753700696, 53.521375882015569 ], [ 23.668281113660075, 53.518039229990734 ], [ 23.682525883591747, 53.509036853351368 ], [ 23.681259458691727, 53.49751258232925 ], [ 23.67999386400853, 53.485988270011809 ], [ 23.685258664458122, 53.482662815104256 ], [ 23.699507045959834, 53.473646832291237 ], [ 23.698237815940363, 53.462122766119954 ], [ 23.696969434425622, 53.450598657864845 ], [ 23.702209632122873, 53.44728515218231 ], [ 23.716462805636969, 53.438254815522114 ], [ 23.715190845421461, 53.426730952396966 ], [ 23.720412548051179, 53.423426165094504 ], [ 23.734668950621124, 53.414384422002328 ], [ 23.733393453914427, 53.402860803594031 ], [ 23.732118834940497, 53.391337141816408 ], [ 23.737313540796265, 53.38804599327343 ], [ 23.751577377277478, 53.378988215159822 ], [ 23.75029927381296, 53.367464797218489 ], [ 23.755473316692679, 53.364183873796804 ], [ 23.769742730311862, 53.355113190833407 ], [ 23.768461179163502, 53.343590016492335 ], [ 23.767180525651519, 53.332066797853223 ], [ 23.772324646707592, 53.328801545738138 ], [ 23.786604656732539, 53.319712803659698 ], [ 23.78532059429844, 53.308189828229537 ], [ 23.784037432917632, 53.296666808288158 ], [ 23.789149836894026, 53.293418462840506 ], [ 23.803442357509169, 53.284310431009089 ], [ 23.802155814320631, 53.272787654339027 ], [ 23.807243491551009, 53.269552315937744 ], [ 23.821545894865778, 53.260428611148093 ], [ 23.820255986225501, 53.24890607829829 ], [ 23.825317699600106, 53.245684584059134 ], [ 23.839631271762773, 53.236544374137303 ], [ 23.844675309936804, 53.233331938033665 ], [ 23.858996044878086, 53.224179724274798 ], [ 23.857698537672455, 53.212657726084309 ], [ 23.862714430201468, 53.209460603893618 ], [ 23.877048580316679, 53.200290425168106 ], [ 23.875747724787118, 53.188768673782342 ], [ 23.880734212807134, 53.185587708588599 ], [ 23.90136503929288, 53.184743646276139 ], [ 23.915717254008158, 53.175547015251894 ], [ 23.914407938162739, 53.164025849343204 ], [ 23.91309949085797, 53.152504639872284 ], [ 23.911791899784614, 53.140983387331993 ], [ 23.910485152024965, 53.129462092240075 ], [ 23.894151606296361, 53.121509192909471 ], [ 23.888570483473487, 53.118790785345496 ], [ 23.887270450830258, 53.107269071178699 ], [ 23.885971213589173, 53.09574731640177 ], [ 23.88467275694812, 53.084225521606633 ], [ 23.88337506567759, 53.07270368740248 ], [ 23.888249135872417, 53.069588279238054 ], [ 23.902661583652247, 53.060333459873654 ], [ 23.901360333595978, 53.048811883202738 ], [ 23.906201159862889, 53.045715135963988 ], [ 23.920632053044201, 53.036439038518587 ], [ 23.919327196577918, 53.024917722633553 ], [ 23.924134027934056, 53.021840124984131 ], [ 23.938584078544192, 53.012542269425545 ], [ 23.937275562992443, 53.001021217813474 ], [ 23.93596770931536, 52.989500130953047 ], [ 23.934660499709768, 52.977979009565317 ], [ 23.939413422209114, 52.974932269277751 ], [ 23.953893727114654, 52.96560156385987 ], [ 23.952582736681933, 52.95408071309086 ], [ 23.936113275371728, 52.94603585810065 ], [ 23.930742556639732, 52.943415445469626 ], [ 23.929437744702053, 52.931894193199298 ], [ 23.928133487729948, 52.920372910004467 ], [ 23.926829768161895, 52.908851596593685 ], [ 23.925526568613837, 52.897330253667697 ], [ 23.92422387191753, 52.885808881917875 ], [ 23.922921661158767, 52.87428748202467 ], [ 23.921619919715514, 52.862766054655971 ], [ 23.920318631296034, 52.851244600465549 ], [ 23.924987094494735, 52.848245495226287 ], [ 23.939502560770297, 52.838870538120602 ], [ 23.938197139829832, 52.827349369101462 ], [ 23.936892126608704, 52.815828175125588 ], [ 23.935587506352348, 52.804306956783883 ], [ 23.94021563021467, 52.801329522134196 ], [ 23.954746902664152, 52.79193096736369 ], [ 23.953438036399419, 52.780410040416413 ], [ 23.952129522668244, 52.768889090777698 ], [ 23.950821348867702, 52.757368118949437 ], [ 23.94951350307721, 52.745847125404737 ], [ 23.948205974102397, 52.734326110586018 ], [ 23.946898751520294, 52.722805074903214 ], [ 23.945591825725959, 52.711284018731774 ], [ 23.929097558744473, 52.703176394437918 ], [ 23.923861464250486, 52.700614980444932 ], [ 23.907402078829445, 52.692517351223849 ], [ 23.902140161179005, 52.689941744159903 ], [ 23.885717198529548, 52.681854897350298 ], [ 23.88042791167744, 52.679264313578109 ], [ 23.864042911963022, 52.671189038026398 ], [ 23.858724713779377, 52.668582692281014 ], [ 23.842379213063385, 52.660519776835024 ], [ 23.837030568562621, 52.657896883725506 ], [ 23.820726095572688, 52.649847115630983 ], [ 23.815345480319394, 52.647206891239676 ], [ 23.799083553035338, 52.639171054442613 ], [ 23.793669456717513, 52.636512718019183 ], [ 23.792399665257967, 52.62498915643863 ], [ 23.77619455811951, 52.616971770852558 ], [ 23.770737994249789, 52.61429045473254 ], [ 23.754579359279941, 52.606289028738551 ], [ 23.734219307519933, 52.607122441947126 ], [ 23.713858274788855, 52.607952475630327 ], [ 23.693496265053543, 52.60877912939992 ], [ 23.673133282282446, 52.609602402872554 ], [ 23.652769330445743, 52.6104222956711 ], [ 23.647126092719489, 52.607640466587533 ], [ 23.631186433629818, 52.599718458411999 ], [ 23.610825882184344, 52.600531440052734 ], [ 23.605110322981226, 52.597710607474191 ], [ 23.589257896746975, 52.589820637346463 ], [ 23.568900760309056, 52.590626709044571 ], [ 23.563110326461231, 52.587765468423505 ], [ 23.547347685359188, 52.579908923575111 ], [ 23.541512249321624, 52.577023392662596 ], [ 23.525805141283659, 52.569187667346355 ], [ 23.519923467034737, 52.566277166138669 ], [ 23.504273119694535, 52.558462920071463 ], [ 23.483928170431501, 52.559255011144153 ], [ 23.47796577060134, 52.556300843533691 ], [ 23.476773965040195, 52.544772268630425 ], [ 23.461240609580543, 52.537002860497275 ], [ 23.455213343248808, 52.534013601307826 ], [ 23.439740103477227, 52.52626749712352 ], [ 23.433662211755657, 52.5232507905665 ], [ 23.418250084735536, 52.515528540769161 ], [ 23.412120627479023, 52.512483838034001 ], [ 23.396770544261187, 52.504785961290736 ], [ 23.390588650023538, 52.50171274528018 ], [ 23.389419718573478, 52.490182772705609 ], [ 23.374156226450648, 52.482519227603987 ], [ 23.367903124730962, 52.479407198205799 ], [ 23.366740557387672, 52.467876846834727 ], [ 23.351565283192055, 52.46024855426959 ], [ 23.345239543868377, 52.457096789968773 ], [ 23.344083493922088, 52.445566055520615 ], [ 23.328997652256295, 52.437973731857738 ], [ 23.322598264820947, 52.434781515578493 ], [ 23.321448891402536, 52.42325039365052 ], [ 23.320300337817518, 52.411719229685147 ], [ 23.305329243963417, 52.404173371558365 ], [ 23.298837118008453, 52.400929856212962 ], [ 23.283932077993938, 52.393410767015091 ], [ 23.27738407592069, 52.39013634852266 ], [ 23.276248537765223, 52.378604438631839 ], [ 23.26143401122059, 52.37112218520241 ], [ 23.254811888158347, 52.367806447010217 ], [ 23.253683500900237, 52.356274137110013 ], [ 23.238959010899279, 52.348828586219582 ], [ 23.232263427237534, 52.345471662329949 ], [ 23.231142334015061, 52.333938948968637 ], [ 23.216507018842272, 52.326529771759226 ], [ 23.209739001099511, 52.32313199263686 ], [ 23.208625330456943, 52.311598872968652 ], [ 23.194077979166757, 52.304225562058022 ], [ 23.18723887936904, 52.300787437685479 ], [ 23.186132741278229, 52.289253909600674 ], [ 23.192289953285368, 52.285325390641873 ], [ 23.20529129087322, 52.2769991891887 ], [ 23.20418234141054, 52.265465850388559 ], [ 23.203074622444909, 52.253932455006328 ], [ 23.201968150146488, 52.242399002462754 ], [ 23.200862938494364, 52.230865492257159 ], [ 23.207047291637302, 52.22691454732584 ], [ 23.227251342193139, 52.226212868636658 ], [ 23.247454546228049, 52.225507634577859 ], [ 23.260465084800199, 52.217152273316209 ], [ 23.266548842385976, 52.213258280404268 ], [ 23.273261398110101, 52.216688809953077 ], [ 23.287858397474, 52.224086495694991 ], [ 23.300930570843022, 52.215681897325318 ], [ 23.306940565097911, 52.211830622750526 ], [ 23.327135133866886, 52.211111454385389 ], [ 23.347328835185269, 52.210388725120346 ], [ 23.367521664766414, 52.209662434145713 ], [ 23.380699142303474, 52.201168837824667 ], [ 23.386575125212701, 52.197394075544608 ], [ 23.399767248814165, 52.18888436127699 ], [ 23.405618107093566, 52.185123021236429 ], [ 23.418825137323132, 52.17659700505574 ], [ 23.424650618380969, 52.172849272519002 ], [ 23.431104504789758, 52.17613555111469 ], [ 23.445976805604619, 52.183646673407381 ], [ 23.459241941649612, 52.175073301179054 ], [ 23.464997154051648, 52.171366378006617 ], [ 23.471379921853028, 52.174612978299123 ], [ 23.486331936488359, 52.182156062548394 ], [ 23.506508153468218, 52.18140540767471 ], [ 23.519858757962925, 52.172761908669273 ], [ 23.50486804843208, 52.165204714624366 ], [ 23.498477299568812, 52.162006674804388 ], [ 23.497301681443037, 52.150477469308754 ], [ 23.503006473323421, 52.146797690489706 ], [ 23.516316206251009, 52.138175260988866 ], [ 23.521995459665288, 52.134509297176294 ], [ 23.542149128099378, 52.133752659947881 ], [ 23.555501753568066, 52.125090706116708 ], [ 23.561121590641623, 52.121458280201914 ], [ 23.581268259446205, 52.120694787219229 ], [ 23.601414009554404, 52.119927723149551 ], [ 23.614835662737182, 52.111204179774475 ], [ 23.613634147869657, 52.099676675415786 ], [ 23.61916972369696, 52.096091326215017 ], [ 23.63259491009757, 52.087356867883145 ], [ 23.638104828873018, 52.083785522094253 ], [ 23.651545406215462, 52.075034229382609 ], [ 23.650337584385316, 52.063507192865757 ], [ 23.655827588630931, 52.059945684866115 ], [ 23.669273949988757, 52.051181996672518 ], [ 23.668063638527407, 52.039655164091535 ], [ 23.666854674523723, 52.028128267581089 ], [ 23.665647036555807, 52.01660130798885 ], [ 23.671123883414548, 52.013044279519214 ], [ 23.684561441689642, 52.004274104380166 ], [ 23.68335118023386, 51.992747354729616 ], [ 23.682142169909504, 51.981220544849137 ], [ 23.680934377342531, 51.969693676063891 ], [ 23.66581159332484, 51.962066899618293 ], [ 23.659627766476639, 51.958965602200806 ], [ 23.64454855077356, 51.951354269102836 ], [ 23.638331374974452, 51.948233401368931 ], [ 23.64385407924583, 51.944645492407801 ], [ 23.657228248139443, 51.935910921513042 ], [ 23.642163400646041, 51.928302087874641 ], [ 23.635944282011241, 51.925177957001956 ], [ 23.620922197557217, 51.917584217203121 ], [ 23.614670308113777, 51.914440881849323 ], [ 23.62022752501251, 51.910830807808921 ], [ 23.633561158168511, 51.902122313326245 ], [ 23.632370964411166, 51.890594421469793 ], [ 23.631181615434691, 51.879066485576324 ], [ 23.616184846243986, 51.871476085884574 ], [ 23.609931501390154, 51.868327928963247 ], [ 23.615491089636794, 51.86471339519764 ], [ 23.628805241953025, 51.856010489908151 ], [ 23.613820911835052, 51.848421663206693 ], [ 23.607566680799263, 51.845271207525442 ], [ 23.606385227294929, 51.83374279292704 ], [ 23.611947018743415, 51.830124338645319 ], [ 23.625245679385159, 51.821426218575574 ], [ 23.630777036821684, 51.817824511317333 ], [ 23.644095256034664, 51.809106869820653 ], [ 23.642905281694173, 51.797579008916372 ], [ 23.641715721692758, 51.786051120855348 ], [ 23.626737141746428, 51.778455167996256 ], [ 23.620506577145125, 51.775313430040526 ], [ 23.605572367234313, 51.76773352035913 ], [ 23.599306367082374, 51.764571688656325 ], [ 23.584417628503012, 51.757008418446929 ], [ 23.564437121637685, 51.757806337246016 ], [ 23.558100933876982, 51.754605338517216 ], [ 23.543296587563397, 51.747074456703466 ], [ 23.536921851135642, 51.743851821933831 ], [ 23.535758258923298, 51.732322238665319 ], [ 23.541442547662825, 51.728621441452283 ], [ 23.554595298276922, 51.720017536503462 ], [ 23.553426785653706, 51.70848824524451 ], [ 23.552258197336272, 51.696958945553256 ], [ 23.551089478911084, 51.685429639514496 ], [ 23.549920576553127, 51.673900329188761 ], [ 23.548751437069146, 51.662371016610791 ], [ 23.547582007936292, 51.650841703787918 ], [ 23.54641223733644, 51.639312392698855 ], [ 23.545242074187108, 51.627783085292435 ], [ 23.544071468169705, 51.616253783486563 ], [ 23.542900369755515, 51.604724489167253 ], [ 23.548661675730632, 51.600956385433619 ], [ 23.56167432845017, 51.59242018790323 ], [ 23.560497281586407, 51.580891228111156 ], [ 23.559319608003129, 51.569362281112006 ], [ 23.565099220405088, 51.565575235850012 ], [ 23.578070924775904, 51.557055921383643 ], [ 23.576887060052353, 51.545527320511631 ], [ 23.575702441982404, 51.533998737472757 ], [ 23.581512042873364, 51.530184805662365 ], [ 23.601396163327607, 51.529424891400176 ], [ 23.614343007091342, 51.520907169619548 ], [ 23.613147178101634, 51.50937926220611 ], [ 23.618938046738414, 51.505569511800033 ], [ 23.631851587070191, 51.497065495595585 ], [ 23.637635748772773, 51.49325605117361 ], [ 23.657502167693156, 51.49248625092541 ], [ 23.670437183778251, 51.483956809184711 ], [ 23.676183773964635, 51.480165584227649 ], [ 23.689111153222179, 51.471634680486247 ], [ 23.674548574085069, 51.464203796230606 ], [ 23.668010439051987, 51.460903094464335 ], [ 23.653525734990918, 51.453505709086571 ], [ 23.646916742401636, 51.450167552111843 ], [ 23.652790590864356, 51.446289519418436 ], [ 23.672636205326942, 51.445517717432971 ], [ 23.685452222509682, 51.437055209257075 ], [ 23.684230513540946, 51.425528778928026 ], [ 23.69010930654871, 51.421638885413756 ], [ 23.702869080457578, 51.413205417522633 ], [ 23.701640393381247, 51.401679379352153 ], [ 23.687313063831237, 51.394358940909285 ], [ 23.680558723726193, 51.390949686179127 ], [ 23.67933247170647, 51.37942339188659 ], [ 23.678105012309551, 51.367897134340303 ], [ 23.663978583653279, 51.360668827385261 ], [ 23.657037078376273, 51.357162924299203 ], [ 23.655811855809539, 51.345636418031432 ], [ 23.654585351400097, 51.334109951008777 ], [ 23.640680906167415, 51.326984879472818 ], [ 23.633530780211977, 51.323371242427953 ], [ 23.639888804153859, 51.319152336275906 ], [ 23.652128427660852, 51.311057137243452 ], [ 23.65089798031946, 51.299530791505617 ], [ 23.649666195517643, 51.288004487006638 ], [ 23.65616032062476, 51.283686707532901 ], [ 23.663403558449545, 51.287457002453671 ], [ 23.677113311180541, 51.294484471245973 ], [ 23.689286434853155, 51.286421059964695 ], [ 23.695710375193539, 51.282144251967139 ], [ 23.707846754314801, 51.274099100412485 ], [ 23.714297318743544, 51.269799825284728 ], [ 23.726394593688447, 51.261774535187641 ], [ 23.725139944107312, 51.250249670413289 ], [ 23.73168386191486, 51.245881508306411 ], [ 23.743669221909077, 51.23792288127715 ], [ 23.742407177566477, 51.226398434387853 ], [ 23.741143813583516, 51.214874029309648 ], [ 23.74785924529349, 51.210382797106028 ], [ 23.759648476284035, 51.202545403447431 ], [ 23.766403124646857, 51.198023077739919 ], [ 23.778140627217116, 51.190214195428098 ], [ 23.784936919212704, 51.185659113102297 ], [ 23.804666546859004, 51.184866613606459 ], [ 23.816374883184299, 51.177066941850605 ], [ 23.815087387721359, 51.165544055191475 ], [ 23.821974275784243, 51.160918443658922 ], [ 23.829705762569215, 51.164940031996963 ], [ 23.842907231376355, 51.171695332897905 ], [ 23.854581884500675, 51.163907928646168 ], [ 23.861409165211899, 51.159316082349825 ], [ 23.873023458463873, 51.151563119845584 ], [ 23.871719169149728, 51.140041348967706 ], [ 23.858677576823737, 51.13336823237097 ], [ 23.850683476152639, 51.12934156910633 ], [ 23.849381738159639, 51.117819520503886 ], [ 23.856536304772465, 51.113000756345734 ], [ 23.867799549296144, 51.105476249461972 ], [ 23.866490931116463, 51.09395461328819 ], [ 23.873790692665587, 51.089031521236421 ], [ 23.884890532826109, 51.081609173548827 ], [ 23.89225154383448, 51.076639839167719 ], [ 23.911931402853455, 51.075827902678398 ], [ 23.922978562237049, 51.068431158595445 ], [ 23.921652708092818, 51.056910663933422 ], [ 23.920326115938536, 51.045390188967964 ], [ 23.918998876839339, 51.033869729807911 ], [ 23.917671089654807, 51.022349282236142 ], [ 23.916342861145164, 51.010828841705305 ], [ 23.924217714724641, 51.005496947964581 ], [ 23.943866384064979, 51.004679173806913 ], [ 23.954351413950072, 50.99764286282646 ], [ 23.953012660300502, 50.986123152542156 ], [ 23.961036321111759, 50.980680670855349 ], [ 23.971329677983611, 50.973766503250452 ], [ 23.969985784280905, 50.962247143919782 ], [ 23.96864203184079, 50.950727767097504 ], [ 23.976947836033581, 50.94508703730687 ], [ 23.986937485260405, 50.938369289211209 ], [ 23.995324138145374, 50.932668835562971 ], [ 24.005221387427735, 50.926008274196832 ], [ 24.013690542209307, 50.920246952274994 ], [ 24.023493827185153, 50.913644723276178 ], [ 24.032047060097995, 50.907821441093077 ], [ 24.041754898074995, 50.901278637411281 ], [ 24.050393704055345, 50.895392358440255 ], [ 24.069991735524976, 50.894549859681575 ], [ 24.079614224380776, 50.888056192480434 ], [ 24.088322670120832, 50.882113621394531 ], [ 24.107913855010413, 50.881263750733631 ], [ 24.117446732506924, 50.874822243433428 ], [ 24.126229087803804, 50.868820402540429 ], [ 24.135660339829709, 50.862442844194803 ], [ 24.134276095757524, 50.85092655941542 ], [ 24.123666318887601, 50.845500587095039 ], [ 24.11331005256643, 50.840272200148021 ], [ 24.102839446242115, 50.834912952071136 ], [ 24.083269155157836, 50.835776426098811 ], [ 24.063697954530635, 50.836637081366113 ], [ 24.04412584797355, 50.837494923006524 ], [ 24.024552839098874, 50.83834995622415 ], [ 24.004978931517861, 50.839202186292319 ], [ 23.994430446051801, 50.833856913196087 ], [ 23.984180422393703, 50.828592455679171 ], [ 23.973504065466912, 50.823176155964504 ], [ 23.972170040252816, 50.811656380940057 ], [ 23.970838493045573, 50.800136488512834 ], [ 23.969509620962857, 50.788616470291494 ], [ 23.968183618464458, 50.777096318004446 ], [ 23.977981920374589, 50.770431980517927 ], [ 23.997529593264744, 50.769600668003193 ], [ 24.017076287507582, 50.768765618100048 ], [ 24.025527620579037, 50.763056581459743 ], [ 24.024191304960983, 50.751537313879204 ], [ 24.022858344056779, 50.740017890197542 ], [ 24.021528915212823, 50.728498302805555 ], [ 24.031642276883506, 50.721606515087622 ], [ 24.051167672137218, 50.720763480766834 ], [ 24.070692080070739, 50.719916734128937 ], [ 24.078787790978865, 50.714434767888235 ], [ 24.077449087912886, 50.702916026340496 ], [ 24.07611435193677, 50.691397100713601 ], [ 24.06710883777307, 50.6867669547389 ], [ 24.055274112733827, 50.680727937948554 ], [ 24.065689885223396, 50.673622368708017 ], [ 24.085194016906645, 50.672771209415934 ], [ 24.092959631419973, 50.667505898208169 ], [ 24.091631978966635, 50.655986785057209 ], [ 24.082890215207666, 50.651490472906758 ], [ 24.070817840747896, 50.645319438164968 ], [ 24.081438879258258, 50.63807086359229 ], [ 24.088990207387603, 50.63294793413889 ], [ 24.087676271888515, 50.621428188480664 ], [ 24.086367067701488, 50.609908225178366 ], [ 24.097167631584533, 50.602534286340713 ], [ 24.104529319876804, 50.597534451830889 ], [ 24.096159652906817, 50.593225207532065 ], [ 24.083763054266086, 50.586867637160182 ], [ 24.082468306078429, 50.57534700993218 ], [ 24.081178411109772, 50.563826160044037 ], [ 24.079893360185622, 50.55230508797699 ], [ 24.078613128488939, 50.540783794895695 ], [ 24.07733767587661, 50.529262282633731 ], [ 24.076066947304728, 50.517740553674486 ], [ 24.074800873355141, 50.506218611127544 ], [ 24.066794381380422, 50.502084192204201 ], [ 24.054120869886273, 50.495543340115333 ], [ 24.05286921909109, 50.484020603965192 ], [ 24.051621892023128, 50.472497669536324 ], [ 24.050378766349493, 50.460974542216398 ], [ 24.042444412735804, 50.456870296084524 ], [ 24.029740746399657, 50.450293422670491 ], [ 24.021804462858391, 50.446184818905145 ], [ 24.009115324108858, 50.439608201925367 ], [ 24.007894238877995, 50.428083807774641 ], [ 24.006676665118029, 50.416559251960251 ], [ 23.998740610650842, 50.412444930009229 ], [ 23.979340146360361, 50.413270547448256 ], [ 23.959938825636222, 50.414093413812495 ], [ 23.940536651594218, 50.414913530797875 ], [ 23.92113362734711, 50.415730900095667 ], [ 23.901729756004546, 50.416545523391747 ], [ 23.889144973246985, 50.409993036217493 ], [ 23.881137426976057, 50.405827538715194 ], [ 23.861736525652159, 50.406636146583203 ], [ 23.842334787634456, 50.407442016817086 ], [ 23.822932216004091, 50.408245150972753 ], [ 23.80352881383882, 50.409045550595543 ], [ 23.791010013844218, 50.402508813054254 ], [ 23.782960906752134, 50.398309632567646 ], [ 23.76356051356964, 50.399104086905282 ], [ 23.751072077080781, 50.39257416800492 ], [ 23.743005607984095, 50.388360332690574 ], [ 23.723608240562957, 50.38914889138762 ], [ 23.711148740051989, 50.382625355058018 ], [ 23.703066369749767, 50.37839760081156 ], [ 23.690629459401936, 50.371880356169797 ], [ 23.689504743760963, 50.360349721410927 ], [ 23.688381366177943, 50.348819020978397 ], [ 23.687259143399778, 50.337288262276417 ], [ 23.679122901521911, 50.333025076425223 ], [ 23.666766354528558, 50.326538251239214 ], [ 23.658615611542434, 50.322264002721333 ], [ 23.63924301835895, 50.323039766067204 ], [ 23.626911094777924, 50.316558522864263 ], [ 23.625804518384857, 50.305026719855391 ], [ 23.617628865029669, 50.300732456146726 ], [ 23.60533480137531, 50.294265232490709 ], [ 23.604232941232453, 50.28273309174304 ], [ 23.596035614155312, 50.278422685410348 ], [ 23.583774423303311, 50.271967508147682 ], [ 23.575570940514584, 50.267650375591423 ], [ 23.563322366737523, 50.261198157399221 ], [ 23.555115600405784, 50.256875805362228 ], [ 23.542876474003894, 50.25042505359562 ], [ 23.534669604290418, 50.246099154824748 ], [ 23.522436456784163, 50.239648210269891 ], [ 23.514232961796939, 50.235320598742462 ], [ 23.502002035894026, 50.228867640401234 ], [ 23.493805681738049, 50.224540306581225 ], [ 23.474468841986923, 50.225293745707305 ], [ 23.46222682035145, 50.218829411074928 ], [ 23.46114891090399, 50.207295370274494 ], [ 23.452979240235308, 50.202975166035984 ], [ 23.440729692132368, 50.196503693353201 ], [ 23.432580092561032, 50.192190631218615 ], [ 23.420315039636421, 50.185708336604655 ], [ 23.412190334923483, 50.18140498786822 ], [ 23.39990471582141, 50.174909310511815 ], [ 23.391809972466827, 50.170618381309104 ], [ 23.379498490192418, 50.164106625125932 ], [ 23.371439009702076, 50.15983095274828 ], [ 23.35909613886799, 50.153300290091025 ], [ 23.358026353332406, 50.141765236637838 ], [ 23.350030154256597, 50.13751848980209 ], [ 23.337628984688784, 50.130955072628119 ], [ 23.329683504867937, 50.126731874324136 ], [ 23.317234873111754, 50.120141284063436 ], [ 23.309346266971087, 50.115944950612715 ], [ 23.29684381440121, 50.109323879308498 ], [ 23.289018442611511, 50.105157844720438 ], [ 23.276455608517171, 50.098502866434437 ], [ 23.275387013323581, 50.086967195785299 ], [ 23.267675617120261, 50.082857356782256 ], [ 23.255001906420805, 50.076142425398402 ], [ 23.253930488949404, 50.064606702836201 ], [ 23.246354098007146, 50.060564411887533 ], [ 23.233547781269181, 50.053778199563652 ], [ 23.226065548646883, 50.04978295175971 ], [ 23.21316699143755, 50.04294612286342 ], [ 23.212091942329891, 50.031410232660669 ], [ 23.204780289163885, 50.027501817593986 ], [ 23.191712489014122, 50.020574459767708 ], [ 23.190633091297027, 50.009038567773402 ], [ 23.1835163717498, 50.00523021615038 ], [ 23.170254274767647, 49.998199121754745 ], [ 23.163267116815096, 49.994457117864229 ], [ 23.149876457738358, 49.987356133892831 ], [ 23.148791026080033, 49.97582015125554 ], [ 23.142039497583344, 49.97220041384287 ], [ 23.128412768243461, 49.964973524967604 ], [ 23.121814600720992, 49.961433190635837 ], [ 23.108034954205042, 49.954123374823943 ], [ 23.106941971921081, 49.942587348305089 ], [ 23.100623296723388, 49.939193304331333 ], [ 23.086562618621432, 49.93173359358552 ], [ 23.085462674548751, 49.920197646338607 ], [ 23.07945338135459, 49.916966290033095 ], [ 23.065081039835796, 49.909340309015697 ], [ 23.059267782387188, 49.906211880935935 ], [ 23.044698906237898, 49.898479476196435 ], [ 23.043588773915587, 49.886943563642333 ], [ 23.038134213280756, 49.884004996373044 ], [ 23.023203216949245, 49.876079180923732 ], [ 23.017972964370728, 49.873259219313752 ], [ 23.002816588719252, 49.86521131872103 ], [ 23.001694587678188, 49.853675488918341 ], [ 22.996875755175356, 49.851074545867185 ], [ 22.981303374062875, 49.842804108514024 ], [ 22.976738848403187, 49.84033847316428 ], [ 22.960910516211424, 49.831929263658573 ], [ 22.959774911302897, 49.82039356471207 ], [ 22.958632392071813, 49.808858084362981 ], [ 22.954745651493095, 49.806755709457441 ], [ 22.938229646360792, 49.797979729052742 ], [ 22.934638618544096, 49.796035770668844 ], [ 22.917824484391222, 49.787097928105894 ], [ 22.914540974204559, 49.785319034532328 ], [ 22.897416730528196, 49.776212685321298 ], [ 22.896253515934067, 49.764677392374409 ], [ 22.895082429647079, 49.753142345602178 ], [ 22.892624223523551, 49.751808763623323 ], [ 22.874661823886701, 49.742253663955545 ], [ 22.872556432270393, 49.741110582630306 ], [ 22.85423788816734, 49.731361556043701 ], [ 22.853047854576307, 49.719826780450639 ], [ 22.85159636825929, 49.719037878810241 ], [ 22.83261469252319, 49.708931264493508 ], [ 22.831552857739972, 49.708353688393274 ], [ 22.812177702644842, 49.698032330925763 ], [ 22.811518702381832, 49.697673590737047 ], [ 22.791736744096884, 49.687129981516428 ], [ 22.791493894887452, 49.686997677465577 ], [ 22.771965537826826, 49.682614531150314 ], [ 22.753081551807636, 49.686544436039327 ], [ 22.742545859188237, 49.688732322858364 ], [ 22.734194285854255, 49.690470316301344 ] ] ], [ [ [ 18.79177614151665, 54.61802329790487 ], [ 18.777899741201477, 54.625526393317195 ], [ 18.770401285328937, 54.629545164120032 ], [ 18.770302789576064, 54.64110546265767 ], [ 18.756330955558624, 54.64864766092829 ], [ 18.748903859612174, 54.652623462332379 ], [ 18.734812862840112, 54.660219730024764 ], [ 18.727487338266712, 54.66413763296999 ], [ 18.727375062600064, 54.675697811906083 ], [ 18.734686133668404, 54.679666973957573 ], [ 18.742048754953995, 54.675729935844117 ], [ 18.756213881710298, 54.668208114962603 ], [ 18.763677210901069, 54.664213624947166 ], [ 18.777729496623973, 54.656748378884707 ], [ 18.785298961333073, 54.652693431130096 ], [ 18.7992329919025, 54.645287564925503 ], [ 18.806913628058766, 54.641169355717089 ], [ 18.806936031832986, 54.629608915226228 ], [ 18.820775285462357, 54.622247986449409 ], [ 18.828537800011869, 54.618080930562527 ], [ 18.82855456648733, 54.606520438346607 ], [ 18.820862697876795, 54.602348168373275 ], [ 18.81313429603108, 54.606497621133968 ], [ 18.799387316172989, 54.613940451099722 ], [ 18.79177614151665, 54.61802329790487 ] ] ], [ [ [ 18.720413943895043, 54.687242362705192 ], [ 18.71320123342597, 54.683325744275912 ], [ 18.705933542427388, 54.687208093047403 ], [ 18.713146238665168, 54.691125141459786 ], [ 18.720413943895043, 54.687242362705192 ] ] ], [ [ [ 18.677180645974381, 54.698695322129034 ], [ 18.670185329700708, 54.694893152192634 ], [ 18.663128647990064, 54.698657083858102 ], [ 18.670123948850257, 54.702459658651769 ], [ 18.677180645974381, 54.698695322129034 ] ] ], [ [ [ 18.655533781159182, 54.710196129845016 ], [ 18.648618395765876, 54.706436153469646 ], [ 18.641638351232643, 54.710155850774797 ], [ 18.648553720566632, 54.713916222978554 ], [ 18.655533781159182, 54.710196129845016 ] ] ], [ [ [ 18.590636885095535, 54.73311513407392 ], [ 18.583962539377438, 54.72948155482198 ], [ 18.577214219929569, 54.733069079079925 ], [ 18.583888547901172, 54.736703027574421 ], [ 18.590636885095535, 54.73311513407392 ] ] ], [ [ [ 18.460806213692397, 54.778848924078147 ], [ 18.454432375303192, 54.775369998718261 ], [ 18.447965684946674, 54.778791181915651 ], [ 18.454339502029192, 54.782270444981116 ], [ 18.460806213692397, 54.778848924078147 ] ] ] ] } }
]
}
