{
"type": "FeatureCollection",
"name": "zasieg_JD_cykl_3_epsg4326",
"crs": { "type": "name", "properties": { "name": "urn:ogc:def:crs:OGC:1.3:CRS84" } },
"features": [
{ "type": "Feature", "properties": { "gatunek": "JD", "cykl": 3, "pokrycie": 0.95, "prog_kde": 2.5730539076741476e-12 }, "geometry": { "type": "MultiPolygon", "coordinates": [ [ [ [ 22.834762559002868, 49.014973837813464 ], [ 22.81588230670712, 49.015601371193249 ], [ 22.798817045292463, 49.027138677606878 ], [ 22.797880893588221, 49.027768523760976 ], [ 22.780803094280834, 49.039306190830921 ], [ 22.77987068895504, 49.039933002767199 ], [ 22.762780252907252, 49.051471085784847 ], [ 22.761851686642338, 49.052094804458783 ], [ 22.760832203117591, 49.051534672814988 ], [ 22.742088206375421, 49.041166968507362 ], [ 22.723195995189229, 49.041779222362898 ], [ 22.704303141272934, 49.042388316598242 ], [ 22.703277085313569, 49.041823552114963 ], [ 22.684555715025379, 49.03145019163059 ], [ 22.667453364133006, 49.042969112952278 ], [ 22.666515516866401, 49.043597004905507 ], [ 22.64762075219506, 49.044196588189642 ], [ 22.630500087995106, 49.055713841187149 ], [ 22.631336764979192, 49.067262225074636 ], [ 22.630408707384309, 49.067882484641729 ], [ 22.613265060361925, 49.079404821708962 ], [ 22.612342084893655, 49.080021158260237 ], [ 22.59518442763887, 49.091544773238518 ], [ 22.594266643367941, 49.092157129412954 ], [ 22.575351909979727, 49.092744790051583 ], [ 22.574352448558049, 49.092192536667042 ], [ 22.555610995699556, 49.081783492969691 ], [ 22.538436949066771, 49.093300449819871 ], [ 22.537520583036002, 49.093910491722433 ], [ 22.536524067084923, 49.093359143159297 ], [ 22.517787176453439, 49.082942343878443 ], [ 22.498874347993631, 49.083516943850739 ], [ 22.47996091106755, 49.084088321140129 ], [ 22.462762462712156, 49.095598103543843 ], [ 22.461850573855934, 49.096203293019798 ], [ 22.442931557249388, 49.096768428004623 ], [ 22.424011941202128, 49.097330329948008 ], [ 22.405091728903471, 49.097888995949425 ], [ 22.387856446799127, 49.109397621973031 ], [ 22.388638638969695, 49.120948882064212 ], [ 22.387744892492869, 49.121540169136239 ], [ 22.37048452444245, 49.13305510233144 ], [ 22.371263866719424, 49.144606505617944 ], [ 22.370382005651678, 49.145189565322333 ], [ 22.351442504274768, 49.145739440915541 ], [ 22.350495461213452, 49.145211697199642 ], [ 22.331727298604022, 49.134737145873061 ], [ 22.312791016199146, 49.135280303327491 ], [ 22.293854156512346, 49.135820221730874 ], [ 22.274916722976773, 49.136356901582758 ], [ 22.257598432614056, 49.147872816845499 ], [ 22.256736300167624, 49.148440265067492 ], [ 22.237793343983601, 49.148970723554967 ], [ 22.220448963109487, 49.160489905788779 ], [ 22.221195121520704, 49.172042964932466 ], [ 22.221942125027557, 49.183595982178701 ], [ 22.221099217212981, 49.184150401764008 ], [ 22.220197016057735, 49.183644704811861 ], [ 22.201396065533867, 49.173123909399472 ], [ 22.182442649100839, 49.173645212833442 ], [ 22.165055316043734, 49.185170606197325 ], [ 22.1642257896129, 49.185715132909856 ], [ 22.145266875450506, 49.186230280623015 ], [ 22.127853454791634, 49.197758848712709 ], [ 22.127036218266941, 49.198294838366706 ], [ 22.108071817118184, 49.198803859307795 ], [ 22.089106876582573, 49.199309683914322 ], [ 22.071657397931347, 49.210842084295969 ], [ 22.070857484369771, 49.211366035269712 ], [ 22.051887074611567, 49.211865775270482 ], [ 22.034411949839672, 49.223400981014358 ], [ 22.035119605646248, 49.234955875389943 ], [ 22.035828184914202, 49.246510726617139 ], [ 22.036537698647614, 49.2580655344048 ], [ 22.035749968154672, 49.258582121735451 ], [ 22.018249785908584, 49.270118599884775 ], [ 22.018956940112965, 49.281673517765434 ], [ 22.018171784808331, 49.282188834482668 ], [ 22.000657557184368, 49.293723968230637 ], [ 21.999875068699232, 49.294237659960878 ], [ 21.982350034616744, 49.305771645687571 ], [ 21.981569453507593, 49.306284231824023 ], [ 21.964034394485992, 49.317816546073921 ], [ 21.964732712795776, 49.329371872557552 ], [ 21.965432052916462, 49.340927153735791 ], [ 21.964643986474147, 49.341445569596196 ], [ 21.945621826934357, 49.341929627820669 ], [ 21.926599155261581, 49.342410528314133 ], [ 21.907575975032032, 49.342888275210306 ], [ 21.890006667632608, 49.354412340318753 ], [ 21.889229758993832, 49.35492306868894 ], [ 21.871653890987385, 49.366443153782839 ], [ 21.870874613126546, 49.366955642713748 ], [ 21.851841041480778, 49.367424519335565 ], [ 21.834250596884033, 49.378939949174473 ], [ 21.834924178849263, 49.390496381809285 ], [ 21.834137506251832, 49.391014138097084 ], [ 21.833301922357677, 49.390536179474736 ], [ 21.814433005882645, 49.379914864246558 ], [ 21.813611149560746, 49.379444491422106 ], [ 21.794737366232727, 49.368812277881091 ], [ 21.793928839919889, 49.36834927892312 ], [ 21.77505058263133, 49.35770638308896 ], [ 21.757420376578665, 49.369226522812312 ], [ 21.758075613657518, 49.380783740756193 ], [ 21.757313056194114, 49.381284571255179 ], [ 21.73968258547778, 49.392794209933513 ], [ 21.738915332089768, 49.393298296602936 ], [ 21.72128145505398, 49.404801862595804 ], [ 21.720508653657166, 49.405309755146462 ], [ 21.702872214879434, 49.416806695458121 ], [ 21.702093014170163, 49.417318942107876 ], [ 21.701267818181442, 49.416844212946131 ], [ 21.682406563595208, 49.406195601508053 ], [ 21.66335481707555, 49.406633814973041 ], [ 21.64569227369363, 49.41813002561625 ], [ 21.646325631002384, 49.429688143886395 ], [ 21.645546585459574, 49.43020000858818 ], [ 21.627890380839467, 49.441681402936219 ], [ 21.627103134972455, 49.442198759580542 ], [ 21.626270586875737, 49.441718222684855 ], [ 21.607422920342767, 49.431061581360147 ], [ 21.588360405248938, 49.431487658902363 ], [ 21.569297439862769, 49.431910602974888 ], [ 21.550234027746562, 49.432330418321897 ], [ 21.531170172473374, 49.432747110036345 ], [ 21.530371940343027, 49.432285144980781 ], [ 21.529788753247299, 49.420725458716504 ], [ 21.510924471775905, 49.410026965266574 ], [ 21.493192881576185, 49.421520765590671 ], [ 21.492454716728108, 49.422003929205268 ], [ 21.491676878932815, 49.421553461211523 ], [ 21.472812466957439, 49.410844153916301 ], [ 21.453755821362645, 49.41124811371504 ], [ 21.43469875174987, 49.411648992334996 ], [ 21.415641261699104, 49.412046796417577 ], [ 21.397868274395627, 49.42353788394891 ], [ 21.397147025582647, 49.424009068187495 ], [ 21.378084231511608, 49.424400868359925 ], [ 21.360302492479267, 49.435883389064102 ], [ 21.359576126083926, 49.436357766894496 ], [ 21.341794278224036, 49.447832034884676 ], [ 21.341059032509474, 49.448312234537035 ], [ 21.321986058188479, 49.44869508764026 ], [ 21.302912683295748, 49.449074891260707 ], [ 21.283838911370669, 49.449451652234842 ], [ 21.283074054079986, 49.449006715136512 ], [ 21.264231679896668, 49.438256322117368 ], [ 21.263481258239629, 49.437819938871563 ], [ 21.244633384494087, 49.427058186505789 ], [ 21.225567407309189, 49.427425699597208 ], [ 21.224832086383298, 49.426998244129727 ], [ 21.22431908130887, 49.415436048399506 ], [ 21.223805819886412, 49.403873836797779 ], [ 21.204945368835077, 49.393085630583194 ], [ 21.18589205737457, 49.393446918967733 ], [ 21.168023581104073, 49.404933717217105 ], [ 21.167347636342679, 49.405373221071429 ], [ 21.149478501811025, 49.416852107424766 ], [ 21.148794237795578, 49.41729699597505 ], [ 21.130925007554001, 49.428767609524868 ], [ 21.13023185574896, 49.429218248034381 ], [ 21.12950172776657, 49.428793838877446 ], [ 21.110667123624918, 49.417998953217868 ], [ 21.091603022292027, 49.418345465643036 ], [ 21.07253856248737, 49.418689004857633 ], [ 21.053473747455946, 49.419029573598422 ], [ 21.052751768313659, 49.418610402803267 ], [ 21.052277387439386, 49.407046941336425 ], [ 21.052955830397021, 49.40661774937859 ], [ 21.070859823498918, 49.395143567401064 ], [ 21.071529410635058, 49.394719438597235 ], [ 21.090584632168664, 49.39437684988706 ], [ 21.10848420462947, 49.382891284586549 ], [ 21.107996298498708, 49.371328175801693 ], [ 21.089147824514654, 49.36050587210481 ], [ 21.070105724950729, 49.360849212280719 ], [ 21.05106327223552, 49.361189611945257 ], [ 21.050377709645716, 49.360792921830289 ], [ 21.031543805390168, 49.349959894619275 ], [ 21.03086174360077, 49.349565604265891 ], [ 21.01203323478979, 49.338727447351204 ], [ 21.011353470983568, 49.338334876011814 ], [ 20.992531555278106, 49.327492282777449 ], [ 20.991852868153103, 49.327100740661976 ], [ 20.992499217937112, 49.326691264294212 ], [ 21.010419279858322, 49.315207152548929 ], [ 20.991598258060048, 49.304359480116233 ], [ 20.972576721232805, 49.304688117626483 ], [ 20.971901144459547, 49.30429905294308 ], [ 20.953097565538805, 49.293447779833954 ], [ 20.934079813482317, 49.29377066255573 ], [ 20.915061733341318, 49.294090676910287 ], [ 20.897141044411232, 49.30555097431391 ], [ 20.89758789344906, 49.317115537716077 ], [ 20.896931478823536, 49.317540080672295 ], [ 20.879008485721968, 49.328991068490815 ], [ 20.878343901810258, 49.329420703310845 ], [ 20.860420420693586, 49.340863689567684 ], [ 20.859747376532987, 49.341298585439013 ], [ 20.859030647075258, 49.340886057679143 ], [ 20.840278756694449, 49.330040386199045 ], [ 20.821245711849119, 49.330345904340675 ], [ 20.803326232484025, 49.341768834619288 ], [ 20.802634856181136, 49.342214935325366 ], [ 20.784715464465432, 49.353629506230554 ], [ 20.784015043535572, 49.354081155922493 ], [ 20.76609591756241, 49.365487254981701 ], [ 20.765386267432451, 49.365944547530688 ], [ 20.747467561653394, 49.377342077558865 ], [ 20.747880587485394, 49.388907459762919 ], [ 20.748294390842478, 49.400472808399144 ], [ 20.747569199375636, 49.400939723351144 ], [ 20.729649091943283, 49.412324878869896 ], [ 20.72891406534653, 49.412797777230892 ], [ 20.709847879932781, 49.413085086530671 ], [ 20.690781398695375, 49.413369425614647 ], [ 20.689987249322336, 49.412911509125131 ], [ 20.671321806020519, 49.402083544737479 ], [ 20.670521800090302, 49.401622924630274 ], [ 20.651871153888113, 49.390795337937476 ], [ 20.633964406617192, 49.402145450762021 ], [ 20.633196360866894, 49.40263767572862 ], [ 20.615289825836154, 49.413979370021281 ], [ 20.614512575369698, 49.414476997431876 ], [ 20.613687161407917, 49.414001752173569 ], [ 20.613307822331919, 49.402435586296242 ], [ 20.612928146378614, 49.390869403106855 ], [ 20.594320782889312, 49.380047875856285 ], [ 20.593483539301733, 49.379567608301976 ], [ 20.574896394668734, 49.368749654053858 ], [ 20.555845854694596, 49.36901401184754 ], [ 20.53797164641534, 49.380319579604709 ], [ 20.53715573230706, 49.380840211156894 ], [ 20.519280469004244, 49.392138191544305 ], [ 20.518456625386673, 49.392663245546657 ], [ 20.500579976164154, 49.403953847375142 ], [ 20.499748527994861, 49.404483098234103 ], [ 20.480683476930121, 49.404734702222392 ], [ 20.461618165983474, 49.404983277098701 ], [ 20.44255259811959, 49.405228814957418 ], [ 20.441637438300294, 49.404703916954936 ], [ 20.423152509307773, 49.393907523983003 ], [ 20.42221950176836, 49.39337311254544 ], [ 20.403761363901548, 49.382584215317834 ], [ 20.384704010912028, 49.382821252470343 ], [ 20.366880401949352, 49.394040702604208 ], [ 20.365967005883391, 49.394617624247203 ], [ 20.346904683595739, 49.394848194479842 ], [ 20.327842122423277, 49.395075685928155 ], [ 20.326848839913659, 49.394507107409829 ], [ 20.326525885821795, 49.382939542764085 ], [ 20.326202353368934, 49.371371962282879 ], [ 20.325878246742352, 49.359804365911153 ], [ 20.325553569343825, 49.348236753602926 ], [ 20.307245694552272, 49.33749793205007 ], [ 20.289517603225331, 49.348644444259811 ], [ 20.288506884797272, 49.3492802876589 ], [ 20.287432456575608, 49.348667690406124 ], [ 20.269164172663157, 49.337941307955035 ], [ 20.251457822814725, 49.349062825895672 ], [ 20.250415962864579, 49.349716647248485 ], [ 20.249310206698674, 49.349086060386021 ], [ 20.231081741108589, 49.338372284708306 ], [ 20.212040191741846, 49.338583097170243 ], [ 20.192998424081711, 49.338790780364008 ], [ 20.191825179307862, 49.338121873503397 ], [ 20.173681619002366, 49.3274392292683 ], [ 20.17246970155734, 49.326748579644224 ], [ 20.173647575598583, 49.326007208399012 ], [ 20.191223240721172, 49.314985480164658 ], [ 20.173132543092972, 49.304328649795742 ], [ 20.154103740831246, 49.304531363990016 ], [ 20.152825586535375, 49.303803616388052 ], [ 20.13480939160582, 49.293177357157994 ], [ 20.133485441508956, 49.292423631758595 ], [ 20.133192518533058, 49.280855163641405 ], [ 20.132898821629922, 49.269286680339768 ], [ 20.115003075392597, 49.258718288544621 ], [ 20.113570369199891, 49.257903226654705 ], [ 20.113278648860671, 49.246334641755823 ], [ 20.11298618391745, 49.234766041217682 ], [ 20.112692996560568, 49.223197424819197 ], [ 20.094969673542526, 49.212715218886729 ], [ 20.093378896003369, 49.211810421376839 ], [ 20.093087765535046, 49.200241702646927 ], [ 20.092795982884248, 49.188672967229955 ], [ 20.075224419278062, 49.178267591577224 ], [ 20.056243469309695, 49.178459958512363 ], [ 20.039153420761295, 49.189168124528273 ], [ 20.037503697526446, 49.190194717101086 ], [ 20.02039483306114, 49.200906853511917 ], [ 20.018755038596449, 49.201925671274701 ], [ 20.001626049389689, 49.21264258045673 ], [ 19.999997489149891, 49.213652880432008 ], [ 19.982847167005779, 49.224375300069127 ], [ 19.981231045913749, 49.225376413425167 ], [ 19.962231418605704, 49.225550607658661 ], [ 19.943231612543549, 49.22572161901131 ], [ 19.924231631339602, 49.225889461231105 ], [ 19.905231478632146, 49.226054150638724 ], [ 19.903430373864204, 49.225023757993306 ], [ 19.903174796966926, 49.213454405202079 ], [ 19.885818510108649, 49.203129967977354 ], [ 19.883900953392658, 49.202032146664997 ], [ 19.866625206750946, 49.191747943784407 ], [ 19.847637850858458, 49.191904766935629 ], [ 19.828650337095411, 49.192058519619373 ], [ 19.811781929314996, 49.202561568945917 ], [ 19.809851071072735, 49.203749156459743 ], [ 19.807829049126958, 49.20258928482221 ], [ 19.790674850821542, 49.192356937247069 ], [ 19.773850555242653, 49.202821946717144 ], [ 19.771866436142645, 49.204040593839558 ], [ 19.755009943262312, 49.214517955010166 ], [ 19.75513618259561, 49.226088416121449 ], [ 19.755263772338051, 49.237658845468971 ], [ 19.772551059806933, 49.247970595465297 ], [ 19.774379450574713, 49.249103532729549 ], [ 19.774515076114472, 49.260673849132189 ], [ 19.791931860394939, 49.27105256492208 ], [ 19.793649377197472, 49.272115200673824 ], [ 19.811140495666749, 49.282530432793109 ], [ 19.812795574967147, 49.283553292663917 ], [ 19.81117360685472, 49.284548921520731 ], [ 19.793938209318394, 49.295255569528102 ], [ 19.794084835168221, 49.306825704413775 ], [ 19.794232956937336, 49.318395806113308 ], [ 19.794382586787236, 49.329965874541315 ], [ 19.794533733341261, 49.341535909636562 ], [ 19.794686402022865, 49.353105911359833 ], [ 19.794840595413216, 49.364675879691312 ], [ 19.794996313622232, 49.376245814628206 ], [ 19.793634200011965, 49.377081921338991 ], [ 19.776105906486855, 49.387945153083685 ], [ 19.776259759325946, 49.399515072129482 ], [ 19.776415147201359, 49.41108495794154 ], [ 19.775120319950812, 49.411880274676641 ], [ 19.773769443544939, 49.411102693182066 ], [ 19.755870243782162, 49.400462207664795 ], [ 19.754474968603169, 49.399659281259289 ], [ 19.736629112424804, 49.389042542327779 ], [ 19.735186601707483, 49.388212603398074 ], [ 19.717396919732984, 49.377621342659978 ], [ 19.699918783019072, 49.388431493266502 ], [ 19.698501000967383, 49.389300718161785 ], [ 19.681002672814152, 49.400115376646689 ], [ 19.679596131358849, 49.400977964115988 ], [ 19.660527292348313, 49.40110014579875 ], [ 19.641458335602429, 49.401219700431923 ], [ 19.623971855226163, 49.412008088521844 ], [ 19.624090265493336, 49.423578296666882 ], [ 19.641888211372262, 49.434190696187947 ], [ 19.643273164010676, 49.435044006690958 ], [ 19.641910272754878, 49.435881145456271 ], [ 19.624332085169069, 49.446718616853055 ], [ 19.622974140780624, 49.447553307937667 ], [ 19.603887033541458, 49.447667258044632 ], [ 19.584799818355492, 49.447778706998896 ], [ 19.567243853173526, 49.458583468402054 ], [ 19.567354757919173, 49.470153660685042 ], [ 19.565978630644008, 49.471001123264031 ], [ 19.548389400740547, 49.481815838723833 ], [ 19.548498969740432, 49.493386003484062 ], [ 19.548610204953064, 49.50495613725343 ], [ 19.547268657790188, 49.505784609909888 ], [ 19.529632353048211, 49.516615206685366 ], [ 19.529742296884336, 49.528185312703407 ], [ 19.529853915655337, 49.539755387950429 ], [ 19.529967213672521, 49.551325432405164 ], [ 19.528657178177056, 49.552137835740439 ], [ 19.510974330748894, 49.562981389574425 ], [ 19.511086486444672, 49.574551405878019 ], [ 19.50976981604698, 49.575369918173536 ], [ 19.490632555729729, 49.57546922428174 ], [ 19.472970506402444, 49.586283924132715 ], [ 19.471606673966154, 49.587133206082648 ], [ 19.45395992613431, 49.597930495375898 ], [ 19.454064031095292, 49.609500513516437 ], [ 19.452678840619562, 49.610365388706242 ], [ 19.451214555742034, 49.60951165529714 ], [ 19.451104670542474, 49.597941657864553 ], [ 19.433322663532998, 49.587320906084607 ], [ 19.414180532809816, 49.587411567779526 ], [ 19.412639406750287, 49.586514730978344 ], [ 19.412535165312558, 49.574944640212223 ], [ 19.394851641931016, 49.564366805675789 ], [ 19.37571839742721, 49.564453222575338 ], [ 19.374086061703672, 49.563504823628278 ], [ 19.37398731725602, 49.551934642814238 ], [ 19.37388674149366, 49.540364444716189 ], [ 19.356332661846405, 49.529845699643253 ], [ 19.337212811827833, 49.52992810636507 ], [ 19.318092891109387, 49.530008619625796 ], [ 19.298972901861195, 49.530087286578997 ], [ 19.279852846180788, 49.530164154545339 ], [ 19.277956474265661, 49.529064109167926 ], [ 19.260671252173601, 49.518677584350989 ], [ 19.258706220911321, 49.517538202009995 ], [ 19.241498654656237, 49.507190587159833 ], [ 19.239460205241127, 49.506009065633805 ], [ 19.239382767603409, 49.494438633429098 ], [ 19.239303208068023, 49.482868182358068 ], [ 19.222230407424995, 49.472588974071037 ], [ 19.220065472830154, 49.471335742974581 ], [ 19.222218886698752, 49.47004225270657 ], [ 19.239137696427619, 49.459727223652088 ], [ 19.222125927471634, 49.449479839814778 ], [ 19.203037112727294, 49.449550653463973 ], [ 19.200753540559752, 49.448229533773151 ], [ 19.200673510028665, 49.436658968811841 ], [ 19.20059117616179, 49.425088384563843 ], [ 19.200506513084175, 49.413517781068244 ], [ 19.183775596430241, 49.403419665386018 ], [ 19.164704587973748, 49.403488534997436 ], [ 19.145633524635826, 49.403555947831713 ], [ 19.126562407870377, 49.40362193597462 ], [ 19.107491239077142, 49.403686529467635 ], [ 19.091101300860409, 49.413655729932891 ], [ 19.088440758801546, 49.415295907886389 ], [ 19.085616157047998, 49.413659921221203 ], [ 19.069348750759151, 49.403811642458507 ], [ 19.050277433798758, 49.40387221191861 ], [ 19.047239007662057, 49.402111204221967 ], [ 19.031198756994137, 49.392388275077359 ], [ 19.01213181681258, 49.392446721924948 ], [ 18.99306483176694, 49.392503915013044 ], [ 18.973997802985018, 49.392559869259749 ], [ 18.958239366208755, 49.402113312595013 ], [ 18.958181888029024, 49.413684054750689 ], [ 18.97398157611067, 49.423275626452728 ], [ 18.977111937776787, 49.425260090421339 ], [ 18.977065857405893, 49.436830797333009 ], [ 18.977022836914141, 49.448401481562932 ], [ 18.973967282488204, 49.450288428900343 ], [ 18.957983777833746, 49.459966801939572 ], [ 18.957942092801741, 49.471537433366059 ], [ 18.957903524364617, 49.483108042646627 ], [ 18.957868074766136, 49.494678629786577 ], [ 18.95783575401633, 49.506249194793703 ], [ 18.954824717180593, 49.508117292307823 ], [ 18.938788269709644, 49.517811239212527 ], [ 18.935697600671457, 49.519730558967176 ], [ 18.916581092909425, 49.51978185559777 ], [ 18.913182866688089, 49.517794859562365 ], [ 18.897488711976866, 49.508270428966874 ], [ 18.878376632183393, 49.508319622854934 ], [ 18.862751065905091, 49.517746027217086 ], [ 18.859231334490584, 49.519930576176009 ], [ 18.843701221014499, 49.529292398300107 ], [ 18.843655285047042, 49.540862849687649 ], [ 18.843613425670789, 49.55243328333237 ], [ 18.840001413221596, 49.55468314910253 ], [ 18.824566038071307, 49.563976444682375 ], [ 18.824529623115307, 49.575546835020539 ], [ 18.824497788006074, 49.587117209066221 ], [ 18.824470679363525, 49.598687567045722 ], [ 18.82444846334263, 49.610257909214532 ], [ 18.820659056204367, 49.61263488818674 ], [ 18.805414126852995, 49.62179783410599 ], [ 18.805400579266038, 49.633368142784136 ], [ 18.805392824189664, 49.644938437979846 ], [ 18.805391140485089, 49.656508720162613 ], [ 18.805395838139123, 49.66807898985315 ], [ 18.801270176308265, 49.670688222432183 ], [ 18.786391475397714, 49.679615734771687 ], [ 18.782042433207181, 49.682371641193349 ], [ 18.762861946338919, 49.682444784590778 ], [ 18.7580041756251, 49.679559896066017 ], [ 18.743742464044541, 49.670898012487591 ], [ 18.729390066859999, 49.679496569219232 ], [ 18.724500751419338, 49.682597320646074 ], [ 18.710429780877011, 49.691020941946419 ], [ 18.710463177330901, 49.702591231118795 ], [ 18.70517924748706, 49.70595627767706 ], [ 18.685989213739596, 49.706049262539189 ], [ 18.666799073329791, 49.706146295091351 ], [ 18.647608817924954, 49.706247817475379 ], [ 18.634714962946344, 49.713947305421684 ], [ 18.634791648016488, 49.725517721198258 ], [ 18.628240133749724, 49.729715366183996 ], [ 18.615983521834096, 49.737027053261322 ], [ 18.616101224760197, 49.748597575217417 ], [ 18.616237599107723, 49.760168135717905 ], [ 18.616394100309243, 49.77173873950391 ], [ 18.6086631199171, 49.77673871399049 ], [ 18.59773953843515, 49.783245546969582 ], [ 18.597957621922937, 49.794816347438569 ], [ 18.589244992768677, 49.800480821155922 ], [ 18.579431464807122, 49.80632062020473 ], [ 18.579728270121112, 49.817891698811529 ], [ 18.569806419338278, 49.824377057735248 ], [ 18.561367868057602, 49.829393652731191 ], [ 18.569716863398714, 49.83447316260559 ], [ 18.580427894059319, 49.841034167767766 ], [ 18.580837146131252, 49.85260558068758 ], [ 18.588762498561316, 49.85742257126995 ], [ 18.599927819629059, 49.864242939411675 ], [ 18.588641450487987, 49.871679585057272 ], [ 18.581793338726786, 49.875748829008892 ], [ 18.582349080815888, 49.887320694909668 ], [ 18.582963287954563, 49.898892745049956 ], [ 18.583641704521757, 49.910464999080958 ], [ 18.568954059735489, 49.920236679624246 ], [ 18.566032369205971, 49.921970238123592 ], [ 18.549561083020677, 49.932962544142626 ], [ 18.534801771401302, 49.933418956996725 ], [ 18.549475468551456, 49.942145215646498 ], [ 18.554408914169716, 49.945065695273627 ], [ 18.568658344639065, 49.953373615473538 ], [ 18.574419421767889, 49.956710565734561 ], [ 18.587852033429556, 49.964377787235691 ], [ 18.594878136167907, 49.968353516626422 ], [ 18.607056350653625, 49.975148835357061 ], [ 18.615836265622928, 49.979994480798545 ], [ 18.626271095951417, 49.985678033809144 ], [ 18.637352375922212, 49.991633371088653 ], [ 18.64549605388062, 49.995956729844949 ], [ 18.659493538862836, 50.003270074369361 ], [ 18.664730995032063, 50.005976199921932 ], [ 18.682336658611906, 50.014904443859614 ], [ 18.683975677126849, 50.01572745659206 ], [ 18.703229497077142, 50.025257631052462 ], [ 18.705859134858599, 50.026536008265701 ], [ 18.72249227637721, 50.034553071728261 ], [ 18.730178237955968, 50.038164627813032 ], [ 18.741763968621846, 50.043571334907107 ], [ 18.755476956184385, 50.049790188042699 ], [ 18.761044298092333, 50.05230238891599 ], [ 18.780332833953896, 50.060766502986951 ], [ 18.781831425448591, 50.061412192233362 ], [ 18.799628863428921, 50.069059225000217 ], [ 18.809213384137532, 50.073029875683957 ], [ 18.818932660276829, 50.07705460198472 ], [ 18.838006909345335, 50.084643048874049 ], [ 18.838243922899188, 50.084737538887246 ], [ 18.857561680917986, 50.09231015861279 ], [ 18.868069563295936, 50.096250500858325 ], [ 18.876886314251415, 50.099574080384002 ], [ 18.896217350629197, 50.106577624708486 ], [ 18.899833397786331, 50.107851620668121 ], [ 18.915554271713056, 50.113439150034743 ], [ 18.933388504454907, 50.119445065431975 ], [ 18.934897180159165, 50.119959253173803 ], [ 18.954245414596517, 50.126402653651937 ], [ 18.968933031980796, 50.13102933733888 ], [ 18.973599021120219, 50.13252295238712 ], [ 18.992957581540214, 50.138527136502631 ], [ 19.006823805652697, 50.142602591462207 ], [ 19.012320916164999, 50.144251626370739 ], [ 19.031688800899484, 50.149865892746178 ], [ 19.047392082722567, 50.154162399381164 ], [ 19.051060914902262, 50.155191695835725 ], [ 19.07043725208111, 50.160461332719727 ], [ 19.089817231178817, 50.165399772543381 ], [ 19.091051690943274, 50.165705635111998 ], [ 19.109201219249599, 50.170343592553799 ], [ 19.128588438655918, 50.174999842596208 ], [ 19.13830225970548, 50.177228223110504 ], [ 19.147979038635338, 50.179529335604052 ], [ 19.167372885578853, 50.183937414336697 ], [ 19.186769243177288, 50.188072700201275 ], [ 19.189935476458079, 50.18872449482285 ], [ 19.206168965503263, 50.192210262222744 ], [ 19.225571074648055, 50.196141625806298 ], [ 19.244975134399553, 50.199830325607657 ], [ 19.246916565350865, 50.200186565688973 ], [ 19.264382366997967, 50.203550893088519 ], [ 19.283791426039844, 50.207069504359566 ], [ 19.303201961515182, 50.210369567641983 ], [ 19.310803068203185, 50.211602419497957 ], [ 19.322614891503413, 50.213626577522156 ], [ 19.342029736481859, 50.216780646522757 ], [ 19.361445641171564, 50.21973505722837 ], [ 19.380862445405786, 50.222500156800116 ], [ 19.384186735969433, 50.222952136406086 ], [ 19.400281643843286, 50.225282010774102 ], [ 19.419701849019976, 50.227920095172536 ], [ 19.439122586146738, 50.230381722822877 ], [ 19.45854371894211, 50.232675058372863 ], [ 19.472312938239089, 50.23419653754619 ], [ 19.477965709550425, 50.234866801298011 ], [ 19.497389279599162, 50.23703815851448 ], [ 19.516812893614482, 50.239049345566649 ], [ 19.536236429933648, 50.240906892472012 ], [ 19.555659772098494, 50.242616865747763 ], [ 19.5750828084219, 50.244184910176763 ], [ 19.589223484955365, 50.245231760934765 ], [ 19.594505927058272, 50.245656113602408 ], [ 19.613929795131295, 50.247091565142426 ], [ 19.63335300386526, 50.24838822977371 ], [ 19.652775448468667, 50.249550805117359 ], [ 19.672197027884046, 50.250583711015146 ], [ 19.691617644650613, 50.251491118825307 ], [ 19.711037204809479, 50.252276978800545 ], [ 19.730455617849188, 50.25294504575492 ], [ 19.74987279668964, 50.25349890320868 ], [ 19.769288657703118, 50.253941986192785 ], [ 19.788703120771455, 50.254277602894369 ], [ 19.80811610937922, 50.25450895531845 ], [ 19.827527550742776, 50.254639159129809 ], [ 19.846937375975862, 50.254671262836531 ], [ 19.866345520292477, 50.254608266465866 ], [ 19.885751923248474, 50.254453139883168 ], [ 19.905156529023248, 50.254208840885255 ], [ 19.924559286743403, 50.253878333196255 ], [ 19.94396015085006, 50.253464604467773 ], [ 19.963359081512134, 50.252970684397951 ], [ 19.982756045086905, 50.252399663018466 ], [ 20.002151014629785, 50.251754709220968 ], [ 20.02154397045425, 50.251039089534991 ], [ 20.040934900742634, 50.250256187159806 ], [ 20.060323802207275, 50.249409521195695 ], [ 20.079710680800787, 50.24850276599657 ], [ 20.099095552472587, 50.247539770504922 ], [ 20.118478443967295, 50.246524577385216 ], [ 20.13785939365863, 50.245461441712784 ], [ 20.157238452410102, 50.244354848910504 ], [ 20.176615684451164, 50.243209531558982 ], [ 20.195991168254579, 50.242030484640118 ], [ 20.21536499739781, 50.240822978706305 ], [ 20.223961091039339, 50.240279809280203 ], [ 20.234738668087054, 50.239646246444899 ], [ 20.254112119182686, 50.238496516671248 ], [ 20.273484405241753, 50.237337057046446 ], [ 20.292855673026825, 50.236173712505661 ], [ 20.312226085725705, 50.235012581936928 ], [ 20.331595823107133, 50.233860005446495 ], [ 20.350965081467017, 50.232722545287089 ], [ 20.370334073331104, 50.231606959881887 ], [ 20.389703026880408, 50.230520170449786 ], [ 20.409072185068656, 50.229469219897645 ], [ 20.428441804405107, 50.228461223810292 ], [ 20.447812153382337, 50.227503313603904 ], [ 20.467183510536678, 50.226602572157439 ], [ 20.486556162138889, 50.225765962531796 ], [ 20.491050913799949, 50.225589505398595 ], [ 20.50593156067475, 50.225037118669071 ], [ 20.525308983650362, 50.224389277833133 ], [ 20.544688352176788, 50.22381694062863 ], [ 20.564069925542306, 50.223325218069903 ], [ 20.583453955368874, 50.22291873885424 ], [ 20.602840682212275, 50.222601576805012 ], [ 20.622230332166225, 50.22237718364017 ], [ 20.641623113560495, 50.222248329261888 ], [ 20.661019213847013, 50.222217051671606 ], [ 20.680418796768233, 50.222284618430471 ], [ 20.699821999897747, 50.222451501285363 ], [ 20.709375933206076, 50.222582198083593 ], [ 20.719229965977991, 50.222746104855396 ], [ 20.738643145973185, 50.223176536164225 ], [ 20.758060603245202, 50.223712801818209 ], [ 20.777482353611411, 50.224351839047905 ], [ 20.796908378306764, 50.225089795319782 ], [ 20.816338625057657, 50.225922099093069 ], [ 20.835773009842963, 50.226843544043057 ], [ 20.85521141929193, 50.227848384450667 ], [ 20.87465371364906, 50.228930439146424 ], [ 20.89409973021937, 50.230083201190745 ], [ 20.90934469986842, 50.231037725713556 ], [ 20.913550703867188, 50.231335336784738 ], [ 20.933010476023068, 50.232778799253119 ], [ 20.952473689885117, 50.2342766992424 ], [ 20.971940094925618, 50.235821329049408 ], [ 20.991409438182309, 50.237405224811326 ], [ 21.010881469099314, 50.239021269967409 ], [ 21.029301051758598, 50.240574485056726 ], [ 21.03035645264238, 50.24067475369413 ], [ 21.04984271036448, 50.242558538901896 ], [ 21.06933108646545, 50.244454684332972 ], [ 21.088821342679697, 50.246357376035988 ], [ 21.108313265685062, 50.24826158172462 ], [ 21.127806669827528, 50.25016307597874 ], [ 21.129690870737079, 50.25034789633429 ], [ 21.147312089561012, 50.252296210530481 ], [ 21.166819810562558, 50.254440568063778 ], [ 21.186328559933258, 50.256568027862734 ], [ 21.205838256053116, 50.258677258509465 ], [ 21.220226301023548, 50.260223462517921 ], [ 21.22535254445997, 50.260846935896446 ], [ 21.244878022940014, 50.263215751777459 ], [ 21.264404214977166, 50.265557644545318 ], [ 21.283931177925385, 50.267874492223953 ], [ 21.303459005034188, 50.270168852426863 ], [ 21.303493834185037, 50.270172959830461 ], [ 21.323004278759257, 50.272781917378545 ], [ 21.342550393006682, 50.275367359028344 ], [ 21.362097515505344, 50.277929239376149 ], [ 21.379601962820615, 50.280209787909349 ], [ 21.381647909974433, 50.280513468306808 ], [ 21.401217160241394, 50.283429040438321 ], [ 21.420787678255873, 50.286321278621948 ], [ 21.440359765998128, 50.289196631374779 ], [ 21.448210586652252, 50.2903551764499 ], [ 21.459947667653708, 50.292331589621561 ], [ 21.479546674783894, 50.295629352324887 ], [ 21.49914757321233, 50.298910247965182 ], [ 21.509335403869631, 50.300622061543187 ], [ 21.518764169949748, 50.302435930191116 ], [ 21.538397412070598, 50.306218380526175 ], [ 21.558032708782314, 50.309979759588558 ], [ 21.563388935951803, 50.311013140969159 ], [ 21.577695097419014, 50.314183288005573 ], [ 21.597368548438475, 50.318524712074876 ], [ 21.610992257460349, 50.321524314244598 ], [ 21.617056747681083, 50.323067896661343 ], [ 21.636775263499317, 50.328089332229901 ], [ 21.652840710592763, 50.332147620620489 ], [ 21.656504424660916, 50.333225529785324 ], [ 21.676276078619356, 50.33904025802925 ], [ 21.689446281166692, 50.342877413581945 ], [ 21.696069092457041, 50.345145100330797 ], [ 21.715903702576519, 50.351887947809658 ], [ 21.721285731942185, 50.35370746831844 ], [ 21.735796253473069, 50.359538532866225 ], [ 21.748633176576252, 50.364635203282937 ], [ 21.755745446061475, 50.368053943160525 ], [ 21.771744950134167, 50.375657659888979 ], [ 21.775787872205573, 50.378041192085341 ], [ 21.790755525853193, 50.38677411906346 ], [ 21.795995960568277, 50.390697585444812 ], [ 21.805816799208504, 50.397982908802994 ], [ 21.816532667507129, 50.408708859563589 ], [ 21.817108968039548, 50.409281179108611 ], [ 21.824587123202921, 50.420671100637165 ], [ 21.828439369447718, 50.432148813532805 ], [ 21.828614703501323, 50.443715898943147 ], [ 21.824962902134729, 50.455376001796012 ], [ 21.819780296298934, 50.463366408602049 ], [ 21.817023121464366, 50.467139902333081 ], [ 21.803648803126968, 50.479034339465812 ], [ 21.801299719359104, 50.480584262479844 ], [ 21.782403002797469, 50.490947267655955 ], [ 21.78200298872169, 50.491125289135617 ], [ 21.763292190289118, 50.497783155480917 ], [ 21.744069518508486, 50.502783861004545 ], [ 21.739169757894636, 50.503712913758463 ], [ 21.724742114510558, 50.506035276783962 ], [ 21.705342812081152, 50.508074696433191 ], [ 21.685889040766629, 50.509183107773168 ], [ 21.666391768166832, 50.509534821221472 ], [ 21.646860429356739, 50.509281771334486 ], [ 21.627303037522061, 50.508554743103076 ], [ 21.60772632290853, 50.507465141878598 ], [ 21.600061978129524, 50.506905014058454 ], [ 21.588130647787512, 50.506011318816171 ], [ 21.568521804749096, 50.504291599199746 ], [ 21.548907591383205, 50.502444575795295 ], [ 21.529291272354481, 50.500528359744052 ], [ 21.509675437131438, 50.498590163230588 ], [ 21.499324610449165, 50.4975419456146 ], [ 21.490056798033677, 50.496566978040896 ], [ 21.470436645472258, 50.494481500908165 ], [ 21.450822675932546, 50.49248091228506 ], [ 21.431215767572635, 50.490584405307672 ], [ 21.411616538671502, 50.488806697909624 ], [ 21.402457945379197, 50.48801196904811 ], [ 21.39202003486049, 50.487052671634387 ], [ 21.372427977531704, 50.485357294648843 ], [ 21.352845475993849, 50.48382490434404 ], [ 21.33327247769186, 50.482458583109178 ], [ 21.313708860852479, 50.481260094974481 ], [ 21.294154453503175, 50.480230221670155 ], [ 21.274609048644265, 50.479369036207906 ], [ 21.268241032808941, 50.479135718852298 ], [ 21.255068863741304, 50.47860149822359 ], [ 21.235536411325, 50.477983327183196 ], [ 21.216013185360069, 50.47755043537768 ], [ 21.196498882791769, 50.477301250708337 ], [ 21.176993214515058, 50.477234441600118 ], [ 21.157495908518666, 50.477348997352486 ], [ 21.138006712369943, 50.477644298228995 ], [ 21.118525395200244, 50.478120178182358 ], [ 21.099051749319269, 50.478776982627153 ], [ 21.079585591562466, 50.479615623297306 ], [ 21.060126764458484, 50.480637631989516 ], [ 21.040675137289281, 50.481845214797332 ], [ 21.021230607104965, 50.483241308317929 ], [ 21.014300900278119, 50.483809179592249 ], [ 21.001789945591405, 50.484755005994586 ], [ 20.982353775763482, 50.486404649597795 ], [ 20.962923834689718, 50.488236181463591 ], [ 20.943500120023568, 50.490254982145402 ], [ 20.924082657775816, 50.492467342161014 ], [ 20.904671503717189, 50.494880542702241 ], [ 20.885266744978058, 50.497502946132471 ], [ 20.884971328769751, 50.497545869970509 ], [ 20.865859774498126, 50.500122657886067 ], [ 20.846458569237782, 50.502944124735713 ], [ 20.827063409454446, 50.505980999643825 ], [ 20.80767447511321, 50.509244886445963 ], [ 20.800965378936286, 50.510445852537138 ], [ 20.788285171600911, 50.512568609423234 ], [ 20.768898200690213, 50.516026417170771 ], [ 20.749517348296969, 50.519725132266615 ], [ 20.733207678566171, 50.523044122141997 ], [ 20.730141111305983, 50.523631694244806 ], [ 20.710761489233732, 50.527531922186682 ], [ 20.691388037342112, 50.53169281411018 ], [ 20.674862406587639, 50.535467699134415 ], [ 20.67201932935393, 50.536083023773237 ], [ 20.652646659852206, 50.540461514975476 ], [ 20.633280359680693, 50.545126924120041 ], [ 20.62283841149593, 50.547773917445468 ], [ 20.613914973004093, 50.549929719347141 ], [ 20.594549238107451, 50.554837501432708 ], [ 20.575448020897536, 50.559994132969159 ], [ 20.57519004578845, 50.560060831917276 ], [ 20.555824863519344, 50.565230871000516 ], [ 20.536466394209061, 50.570736175783814 ], [ 20.531685071378064, 50.572147267022565 ], [ 20.51710500849574, 50.576289745065445 ], [ 20.497747193636688, 50.582097985028518 ], [ 20.490863651821766, 50.584246211101956 ], [ 20.478387945607913, 50.588011060806515 ], [ 20.459030948392318, 50.594152321723669 ], [ 20.452509006666979, 50.596299995179692 ], [ 20.439672357794677, 50.600404935901892 ], [ 20.420316403883412, 50.606913965714497 ], [ 20.416275067353098, 50.608315276955643 ], [ 20.40095727961485, 50.613494492066415 ], [ 20.381909479037457, 50.620297039843734 ], [ 20.38160245030387, 50.620404340221242 ], [ 20.362242059716177, 50.627316383277027 ], [ 20.3490927273754, 50.632250646736424 ], [ 20.342884898418049, 50.634539321681977 ], [ 20.323526338349193, 50.641921951703431 ], [ 20.31779488667544, 50.644177752474683 ], [ 20.304166301035927, 50.649468569531727 ], [ 20.287858131228703, 50.656081332542378 ], [ 20.284808029066404, 50.657305446657581 ], [ 20.265446770158995, 50.665269044478208 ], [ 20.259098555318094, 50.667964429311546 ], [ 20.246084892373823, 50.673454770556653 ], [ 20.231523503776057, 50.679827842091925 ], [ 20.226723681881058, 50.681922459306165 ], [ 20.207361193372932, 50.690609841135206 ], [ 20.205037508921016, 50.691673403843531 ], [ 20.187996256388704, 50.699481344848429 ], [ 20.179477464712779, 50.703503512099005 ], [ 20.168631400930124, 50.708647931997071 ], [ 20.154947379364206, 50.715317749607081 ], [ 20.149266259777026, 50.718109458338191 ], [ 20.131378036190068, 50.72711744232771 ], [ 20.129900573386987, 50.727870262554241 ], [ 20.11053327100322, 50.737900699684708 ], [ 20.108626559128055, 50.738904535212193 ], [ 20.091165047541654, 50.748245033735039 ], [ 20.086694694483594, 50.750679493976833 ], [ 20.07179667027674, 50.758953849094496 ], [ 20.065609358207681, 50.762442538247051 ], [ 20.052428234616645, 50.770051456532485 ], [ 20.04533882616731, 50.774194414574495 ], [ 20.033059958177883, 50.781569522630498 ], [ 20.025858827106738, 50.785935764117262 ], [ 20.013692189571913, 50.79354816543816 ], [ 20.007152105429697, 50.797667134615942 ], [ 19.994325420130874, 50.806037313810243 ], [ 19.989208109645791, 50.809388990096721 ], [ 19.974960298850132, 50.819098379340808 ], [ 19.972022801446048, 50.82110171857196 ], [ 19.955598534494634, 50.832805638339465 ], [ 19.955597650743293, 50.832806293342671 ], [ 19.939749712027329, 50.844502567786293 ], [ 19.936238137183238, 50.847233903876273 ], [ 19.924637896021139, 50.856191463215637 ], [ 19.916883805519838, 50.862530769682188 ], [ 19.910282225393953, 50.867872463704494 ], [ 19.897536389565552, 50.878842741112052 ], [ 19.896708680533749, 50.879545650691135 ], [ 19.883635478582526, 50.891213432326595 ], [ 19.878199209250138, 50.896412549205209 ], [ 19.871314741273263, 50.902874096676513 ], [ 19.859782681601491, 50.9145276171257 ], [ 19.858875567195508, 50.915503252481116 ], [ 19.848707353323469, 50.926176642386238 ], [ 19.839573138814366, 50.93664423667132 ], [ 19.838519959789586, 50.937818208084721 ], [ 19.828776555622596, 50.949455699807316 ], [ 19.820303094912397, 50.960611471143835 ], [ 19.819930340614409, 50.961086049082283 ], [ 19.811487272425712, 50.972712894859889 ], [ 19.803901281794019, 50.984333202541691 ], [ 19.801091223083993, 50.989101615515722 ], [ 19.796882218771138, 50.995949120246564 ], [ 19.79050722841124, 51.00756022936303 ], [ 19.784909188793574, 51.019165744054348 ], [ 19.781999142901288, 51.026099135876088 ], [ 19.779936600450309, 51.030766788664529 ], [ 19.775549560510662, 51.042363708996767 ], [ 19.771908053911826, 51.053955515590133 ], [ 19.7689979251378, 51.065542372590969 ], [ 19.766811425649948, 51.077124386748331 ], [ 19.765347169585088, 51.088701609011153 ], [ 19.764610183776597, 51.100274034906882 ], [ 19.764612054278416, 51.111841603696462 ], [ 19.765371173665073, 51.12340419625788 ], [ 19.766913095632884, 51.134961631604511 ], [ 19.76927100591049, 51.146513661892904 ], [ 19.772486321282418, 51.158059965714749 ], [ 19.776609431734357, 51.169600139396387 ], [ 19.781700604459889, 51.18113368594144 ], [ 19.784717241644163, 51.186893346350274 ], [ 19.787666358074656, 51.19266111010414 ], [ 19.794532770650491, 51.204182102697139 ], [ 19.802549618867538, 51.21569479423686 ], [ 19.805073526389325, 51.218915798029236 ], [ 19.81146901673312, 51.227200669522453 ], [ 19.821555805882461, 51.238697665415835 ], [ 19.825308264243148, 51.242553689947464 ], [ 19.832674014027475, 51.250186449829478 ], [ 19.845090804216511, 51.261664802793817 ], [ 19.845487080483309, 51.262003831535338 ], [ 19.858473537890124, 51.273134753498972 ], [ 19.865631619180203, 51.278717308160445 ], [ 19.87318338578968, 51.284593280113874 ], [ 19.885755443558764, 51.293589174446574 ], [ 19.889203054629959, 51.296040016885307 ], [ 19.905864312343397, 51.307036529546792 ], [ 19.906534995286567, 51.307474410472487 ], [ 19.925168601948794, 51.318895965361243 ], [ 19.925962288318374, 51.319355184485673 ], [ 19.945218333309935, 51.330303140127853 ], [ 19.946052152674792, 51.33075303208431 ], [ 19.966135703339759, 51.341373594250463 ], [ 19.96675613854438, 51.341694617654703 ], [ 19.986214476708021, 51.351336329791764 ], [ 19.989814542863588, 51.353069306547802 ], [ 20.006289190877716, 51.360713680049905 ], [ 20.014561529271532, 51.364424858853603 ], [ 20.026360261690201, 51.369558826599537 ], [ 20.04116942145885, 51.375758678516576 ], [ 20.046427779130255, 51.377906533404889 ], [ 20.06649252962746, 51.385818881285289 ], [ 20.069766849134528, 51.387068329294152 ], [ 20.086555586923975, 51.393365438811237 ], [ 20.100551221808981, 51.398350507165759 ], [ 20.106614995609497, 51.400485158897588 ], [ 20.126672395406299, 51.407267686787023 ], [ 20.133892381868321, 51.409599918210318 ], [ 20.146727685569733, 51.413726761310059 ], [ 20.166779083512491, 51.419809126548223 ], [ 20.170214254047846, 51.420810157071877 ], [ 20.186829944533553, 51.425663491394786 ], [ 20.206875815672095, 51.43113224818417 ], [ 20.210091611619251, 51.431972530401978 ], [ 20.22692144442156, 51.436411598757388 ], [ 20.246962143654997, 51.44133859007502 ], [ 20.254417928016746, 51.443073864022033 ], [ 20.267001267755173, 51.446051226345688 ], [ 20.287037050718308, 51.450496744183631 ], [ 20.30451532947037, 51.454094421893373 ], [ 20.30706792089665, 51.45463245493702 ], [ 20.327098952476131, 51.458647398706006 ], [ 20.347124323991245, 51.462349258990905 ], [ 20.362600154737173, 51.46500108776555 ], [ 20.36714566467554, 51.465806372682216 ], [ 20.387166470959922, 51.46914465820791 ], [ 20.407181898734624, 51.472211759526388 ], [ 20.427192116302809, 51.475024526135712 ], [ 20.432615557842684, 51.475733904020942 ], [ 20.447201491644169, 51.477731544605874 ], [ 20.467207327265363, 51.480253085748735 ], [ 20.487208230069246, 51.48255383297824 ], [ 20.50720436558305, 51.484647622138176 ], [ 20.523081314229454, 51.48616118047385 ], [ 20.527196912921038, 51.48657789134576 ], [ 20.547188683546366, 51.488434036557649 ], [ 20.567175941234947, 51.49010993694683 ], [ 20.58715884230487, 51.491616914174536 ], [ 20.607137538213696, 51.492965583562665 ], [ 20.627112175049607, 51.494165883816201 ], [ 20.647082892932264, 51.495227102010503 ], [ 20.660672826299987, 51.495860899116323 ], [ 20.66705087475426, 51.496186655150574 ], [ 20.687017176892329, 51.497076755502789 ], [ 20.70697972193355, 51.497844233143645 ], [ 20.726938620310541, 51.498496257788787 ], [ 20.746893970203054, 51.499039348715975 ], [ 20.766845855498293, 51.499479359081469 ], [ 20.786794343332456, 51.499821450535769 ], [ 20.80673948113802, 51.500070056984228 ], [ 20.826681293110024, 51.50022883615074 ], [ 20.846619775991176, 51.500300607387814 ], [ 20.866554894060304, 51.500287273929921 ], [ 20.886486573190712, 51.500189727505955 ], [ 20.906414693824747, 51.500007732908742 ], [ 20.926339082687427, 51.499739789760007 ], [ 20.946259503035307, 51.499382968300772 ], [ 20.96617564320692, 51.498932715595835 ], [ 20.986087103206611, 51.498382628022831 ], [ 21.005993379015997, 51.49772418537475 ], [ 21.025893844284159, 51.496946441276435 ], [ 21.04578772900118, 51.496035663965181 ], [ 21.065674094707543, 51.494974920749861 ], [ 21.085551805734966, 51.493743598673341 ], [ 21.105419495915857, 51.492316853133076 ], [ 21.125275530130807, 51.490664975276495 ], [ 21.145117959997823, 51.488752668140762 ], [ 21.153435579885127, 51.487846010636588 ], [ 21.164947756381583, 51.486607522533546 ], [ 21.18476205328426, 51.4841758680761 ], [ 21.204555386719136, 51.481352073444832 ], [ 21.224323991645068, 51.47806911299908 ], [ 21.242274311001541, 51.474611829216144 ], [ 21.244064390383592, 51.474268108019231 ], [ 21.263781131315177, 51.470054247445567 ], [ 21.283458638096921, 51.465126100316496 ], [ 21.294279249517967, 51.462036728088776 ], [ 21.303097042513144, 51.459504198589713 ], [ 21.322690967440153, 51.453099791988841 ], [ 21.331770225806526, 51.449728005238143 ], [ 21.342233530728972, 51.445797499607181 ], [ 21.361340778975379, 51.437566995939086 ], [ 21.361713664367162, 51.437404363236418 ], [ 21.381136411893749, 51.428043099782194 ], [ 21.385841100603994, 51.425501741437287 ], [ 21.400486745938341, 51.417449426329306 ], [ 21.4069670234345, 51.413500623668817 ], [ 21.419759973485565, 51.405562542611072 ], [ 21.42566557437911, 51.401545881890634 ], [ 21.43895236921048, 51.392341308477562 ], [ 21.442564111955839, 51.389625611936623 ], [ 21.458060799360087, 51.377756449087784 ], [ 21.458090939882876, 51.377731614947024 ], [ 21.472608315510822, 51.365856796210736 ], [ 21.477100846953888, 51.362125887279916 ], [ 21.486310352256002, 51.353997415502398 ], [ 21.496060854322113, 51.34525707889739 ], [ 21.499345112608221, 51.342150603205859 ], [ 21.511892661030146, 51.330312722601789 ], [ 21.514954968846897, 51.327433974380291 ], [ 21.524070827917257, 51.318481392426811 ], [ 21.533789694570238, 51.308793778167562 ], [ 21.535854013499325, 51.306657284765087 ], [ 21.547445902562735, 51.29483608765954 ], [ 21.552577604653987, 51.289579192377154 ], [ 21.558798816075324, 51.283018901575602 ], [ 21.569905952615638, 51.271205946798261 ], [ 21.571314733882058, 51.269730200973349 ], [ 21.580978821924241, 51.259392628840267 ], [ 21.590016840970407, 51.249539123803629 ], [ 21.591782040839561, 51.247584172690125 ], [ 21.602584456989135, 51.235774673122627 ], [ 21.608684200879896, 51.229016964723726 ], [ 21.613203629323319, 51.223968206580039 ], [ 21.623721852310371, 51.212162977762446 ], [ 21.627313746048262, 51.208115692643972 ], [ 21.634190657580589, 51.200357853582531 ], [ 21.644449509003685, 51.188556478370401 ], [ 21.64590781002709, 51.186882697153955 ], [ 21.654785659419804, 51.176752386263502 ], [ 21.664468843707144, 51.165366167066544 ], [ 21.664822981379409, 51.164954130631855 ], [ 21.675018410040483, 51.153151334351605 ], [ 21.682999494018357, 51.143616437920606 ], [ 21.684926556042221, 51.141354187053373 ], [ 21.6949205372918, 51.129554160285828 ], [ 21.701495937276075, 51.121571722488646 ], [ 21.70471553763722, 51.117757823869042 ], [ 21.7145361549846, 51.105960011456546 ], [ 21.719960521049128, 51.099276783980528 ], [ 21.724243669307224, 51.094163950913838 ], [ 21.733930179996015, 51.082367515776909 ], [ 21.738396967783391, 51.076798555534566 ], [ 21.743590536276272, 51.070570832267933 ], [ 21.753195756995325, 51.058774590068225 ], [ 21.756810996608618, 51.054235965329781 ], [ 21.762869426287402, 51.046975879513226 ], [ 21.772462189122006, 51.035178228956816 ], [ 21.775210846093518, 51.031727765616196 ], [ 21.782236620728174, 51.023375402683264 ], [ 21.791904989868563, 51.011574234328322 ], [ 21.793607574385579, 51.009456388332076 ], [ 21.801904092717916, 50.999764268561414 ], [ 21.811760251486756, 50.987956828317422 ], [ 21.812015030929977, 50.987646228046145 ], [ 21.822158536239144, 50.976135389011986 ], [ 21.830447858021859, 50.966529566461212 ], [ 21.832514080697894, 50.964313997532834 ], [ 21.843391568418394, 50.952478908506912 ], [ 21.848922577702194, 50.946364071591589 ], [ 21.854579260777658, 50.940635152127996 ], [ 21.866149828803387, 50.92878085176303 ], [ 21.867456981826663, 50.927422072984577 ], [ 21.878627333360182, 50.916902961385659 ], [ 21.886061571252011, 50.909851684748546 ], [ 21.891741408167281, 50.905007885629033 ], [ 21.904751737259986, 50.893875941343353 ], [ 21.905784102838638, 50.893088130108637 ], [ 21.921403823866239, 50.881127113318698 ], [ 21.923529199537473, 50.879494076244086 ], [ 21.93890579977294, 50.869116498370801 ], [ 21.942399065067082, 50.866758773685127 ], [ 21.958970609655815, 50.85703815580699 ], [ 21.961361103059588, 50.855636896305867 ], [ 21.980409409219906, 50.846006766361526 ], [ 21.983061331555405, 50.844853320311046 ], [ 21.999535133742224, 50.837703397928188 ], [ 22.013755172634262, 50.832492871168633 ], [ 22.018736096152299, 50.830668836331739 ], [ 22.037996959442005, 50.824643753454872 ], [ 22.056433355508233, 50.819810568834292 ], [ 22.057315722345475, 50.819579013701542 ], [ 22.076673910921194, 50.815176057890007 ], [ 22.096071935013235, 50.811428925085693 ], [ 22.115500998574358, 50.808193464423745 ], [ 22.12809873185024, 50.806338059280968 ], [ 22.134952049858718, 50.805325176623285 ], [ 22.154418386813912, 50.802717913288483 ], [ 22.173897777544315, 50.800334007126722 ], [ 22.193385467227795, 50.798099710034847 ], [ 22.212877420582753, 50.795953523728201 ], [ 22.232370200325107, 50.793844077563215 ], [ 22.251860869905485, 50.791728429108602 ], [ 22.256033229186279, 50.79126244933461 ], [ 22.271344754927878, 50.789539775620604 ], [ 22.290821427731853, 50.787273304722937 ], [ 22.31028963380777, 50.784912617696627 ], [ 22.3297477636659, 50.782436700075287 ], [ 22.349194444920276, 50.779828332335981 ], [ 22.368628508088822, 50.777073504657771 ], [ 22.373424919581961, 50.776351104886082 ], [ 22.388046113967079, 50.774121607372251 ], [ 22.407448431817755, 50.770992019166201 ], [ 22.426835763876259, 50.767691825370783 ], [ 22.446207538460946, 50.764216065162721 ], [ 22.456036952418774, 50.762357566450135 ], [ 22.465560674555615, 50.760525946369626 ], [ 22.484894811970527, 50.756620104665672 ], [ 22.504212530581416, 50.752536523948734 ], [ 22.520948456983984, 50.74884124868835 ], [ 22.52351268559347, 50.748262807265057 ], [ 22.542789956378876, 50.743731544858008 ], [ 22.562050792472672, 50.739031696136799 ], [ 22.575611558957899, 50.735603397280705 ], [ 22.581292454011844, 50.734129997657661 ], [ 22.600511389400271, 50.728983290408053 ], [ 22.619714532374772, 50.723685206308609 ], [ 22.623744416486886, 50.722542910473379 ], [ 22.638892800766669, 50.718120908327975 ], [ 22.658053664175899, 50.712390254502751 ], [ 22.667141198995758, 50.709611461029148 ], [ 22.677192233693891, 50.706433303491245 ], [ 22.696309993429335, 50.70027225857541 ], [ 22.706967487942126, 50.6967772857546 ], [ 22.715406440055478, 50.693903748940684 ], [ 22.734480371865519, 50.6873156734055 ], [ 22.743891930307768, 50.684022581896812 ], [ 22.753531372181754, 50.680505981210494 ], [ 22.772560737292885, 50.67349398864706 ], [ 22.77836668776661, 50.671335462679487 ], [ 22.791561762125177, 50.666199423537023 ], [ 22.810545681368652, 50.658764899643565 ], [ 22.810689170822691, 50.65870839129871 ], [ 22.829490615138656, 50.650923614469953 ], [ 22.841017911173203, 50.646137949736335 ], [ 22.848413705192456, 50.642890767939363 ], [ 22.867308616641644, 50.634591875793802 ], [ 22.869519024400454, 50.633620192384825 ], [ 22.886160260360914, 50.625847759546211 ], [ 22.896232782390982, 50.621155131853264 ], [ 22.904979536387295, 50.616795855998753 ], [ 22.921216569720645, 50.608742082942342 ], [ 22.923761535394007, 50.607381311174507 ], [ 22.942491071935724, 50.597427397440725 ], [ 22.944468248764284, 50.596382250183048 ], [ 22.961157671714815, 50.586816500932208 ], [ 22.965977669392281, 50.584077035909296 ], [ 22.979756955451847, 50.575505181547769 ], [ 22.985729177046252, 50.571827960864518 ], [ 22.998270359015674, 50.56328327131596 ], [ 23.003686812433585, 50.559637176577112 ], [ 23.016670456736907, 50.54983985013471 ], [ 23.019804923945937, 50.547507110445842 ], [ 23.034022007325781, 50.53544067992587 ], [ 23.034903407507652, 50.534559688610202 ], [ 23.046234344242691, 50.523442211359004 ], [ 23.052814228977308, 50.51565758262204 ], [ 23.056388887576766, 50.511514207207277 ], [ 23.064329696700362, 50.499662679660254 ], [ 23.069948354166741, 50.487891899959216 ], [ 23.072977178140235, 50.476211608540588 ], [ 23.073237390272922, 50.464628297798967 ], [ 23.070432107218139, 50.453152410956861 ], [ 23.066305591826257, 50.445505275171996 ], [ 23.064200119031604, 50.441796387244977 ], [ 23.054104545599312, 50.430574948383509 ], [ 23.044916425193229, 50.423330510794223 ], [ 23.039772330802069, 50.419500088851102 ], [ 23.024343625624294, 50.410535599767975 ], [ 23.020798867328189, 50.408584274658814 ], [ 23.00404888725037, 50.400900767121712 ], [ 22.997037633159923, 50.397830301283172 ], [ 22.983890959483304, 50.39279507976007 ], [ 22.968839585859651, 50.38722326329539 ], [ 22.963810186716167, 50.385528835583571 ], [ 22.943785760697249, 50.378865056134423 ], [ 22.937304332388955, 50.37672267616616 ], [ 22.923789327721821, 50.372470236461851 ], [ 22.904258339649822, 50.366264445531328 ], [ 22.903802221747835, 50.366121576132372 ], [ 22.883813507244124, 50.359686055990174 ], [ 22.872078024339277, 50.355768073091497 ], [ 22.863802965293548, 50.352913558508348 ], [ 22.843755621787963, 50.345613370755736 ], [ 22.842606609893579, 50.345173292912463 ], [ 22.823627507854411, 50.337229860372481 ], [ 22.817407113277181, 50.334430777835003 ], [ 22.803367953724361, 50.327110967752368 ], [ 22.797033790760352, 50.323525161557882 ], [ 22.78282920626069, 50.313367569954231 ], [ 22.781657933531502, 50.312453377331465 ], [ 22.771286190785723, 50.301217163664411 ], [ 22.765426246853046, 50.289833798856435 ], [ 22.763795685785691, 50.278313092432263 ], [ 22.766008754598609, 50.266667708714969 ], [ 22.771627350342875, 50.254911636613016 ], [ 22.777559837352261, 50.246928280057034 ], [ 22.780289038802231, 50.243056161297332 ], [ 22.791725412419964, 50.231109347138656 ], [ 22.795467333700767, 50.227991647106386 ], [ 22.805624326019664, 50.219080588499914 ], [ 22.813688364247788, 50.213155423247954 ], [ 22.821676166401325, 50.206979177828082 ], [ 22.832042562207928, 50.200117619678551 ], [ 22.839663629125148, 50.194811394452671 ], [ 22.850481436188545, 50.188252609266428 ], [ 22.859372870858969, 50.182583434778898 ], [ 22.868975332052528, 50.177178300272352 ], [ 22.880594635159927, 50.170301405754415 ], [ 22.887505189953995, 50.166649591556009 ], [ 22.903126291247393, 50.157971281627745 ], [ 22.906058269771957, 50.156503084745125 ], [ 22.924640024278094, 50.146800200366023 ], [ 22.926857292997035, 50.145596028707175 ], [ 22.943250262713768, 50.137532710694003 ], [ 22.951673061164893, 50.133178802682529 ], [ 22.961862348560686, 50.128372683412017 ], [ 22.977285271157438, 50.120728786302536 ], [ 22.980472893877099, 50.11927785100643 ], [ 22.999103287118658, 50.110503717196231 ], [ 23.003717033198697, 50.108244644116297 ], [ 23.0177426590616, 50.101916305239179 ], [ 23.030792671864589, 50.095731914654024 ], [ 23.03637162771172, 50.093282784066481 ], [ 23.055005601458799, 50.084786029392511 ], [ 23.058388938037886, 50.083194454147517 ], [ 23.073653126013546, 50.076524917380482 ], [ 23.086501372166119, 50.070632040854889 ], [ 23.092285302558562, 50.068157323279181 ], [ 23.110920257552785, 50.059896314907135 ], [ 23.114960349507605, 50.058050315612867 ], [ 23.129564154452378, 50.05181218468698 ], [ 23.1437671222501, 50.045448972859802 ], [ 23.148189989874517, 50.043589843693248 ], [ 23.166823612922045, 50.035529156380385 ], [ 23.172855392878166, 50.032830135563081 ], [ 23.185456568382161, 50.027530922503608 ], [ 23.185649492956369, 50.020793685712924 ], [ 23.185985313961854, 50.009206619458759 ], [ 23.18375851609273, 50.008014967067936 ], [ 23.167742172307982, 49.998289538812436 ], [ 23.163397334215059, 49.99596260758198 ], [ 23.14929718598281, 49.987376887373294 ], [ 23.149346615195771, 49.975800247305855 ], [ 23.142010856079466, 49.971867295414015 ], [ 23.130586260144565, 49.964896023022924 ], [ 23.121703123055436, 49.960129717659385 ], [ 23.111645088736292, 49.953995251661105 ], [ 23.111406408984433, 49.942428920467158 ], [ 23.100395580507762, 49.936514662721436 ], [ 23.092212057767544, 49.931534069252038 ], [ 23.091827049605353, 49.919972897137662 ], [ 23.079130551319331, 49.913145904129081 ], [ 23.072428594487914, 49.909082089382736 ], [ 23.058896995082637, 49.901800313391384 ], [ 23.052928460020105, 49.898191662893659 ], [ 23.052368243442697, 49.88663655986074 ], [ 23.03769363240448, 49.878731222360067 ], [ 23.032733636577646, 49.875747548424819 ], [ 23.017497174100335, 49.867533056129489 ], [ 23.013034280932988, 49.86485752251712 ], [ 23.012358467750381, 49.853306300198859 ], [ 22.996346363566797, 49.844664373137448 ], [ 22.992574392839632, 49.842415837191275 ], [ 22.976182236506517, 49.833561808880951 ], [ 22.972750548050563, 49.83152342757036 ], [ 22.972000775700192, 49.819974574230386 ], [ 22.971235065245835, 49.808426254480082 ], [ 22.954127044970139, 49.799173040234614 ], [ 22.951342877685018, 49.797532666083612 ], [ 22.933998338674513, 49.788144129755111 ], [ 22.931430165551571, 49.786636423967771 ], [ 22.913880161127924, 49.77712918323315 ], [ 22.911501000787389, 49.775737379149597 ], [ 22.910684403721966, 49.764190479031029 ], [ 22.909859350769384, 49.752643850274424 ], [ 22.891910915859484, 49.742907623293085 ], [ 22.88990272686873, 49.741742151189861 ], [ 22.871824650444978, 49.731927882689284 ], [ 22.869939184658776, 49.730837307066523 ], [ 22.869096472172238, 49.719291039609374 ], [ 22.850830242873819, 49.709364035022517 ], [ 22.849124896229551, 49.708382971977827 ], [ 22.8307689378391, 49.698399363763038 ], [ 22.829151179482317, 49.697471591513136 ], [ 22.81071714176359, 49.687437642200337 ], [ 22.809176683078885, 49.68655685146917 ], [ 22.790674777827483, 49.676478055248971 ], [ 22.789202583191315, 49.675638712094383 ], [ 22.788349606989346, 49.664092317612663 ], [ 22.787493796011528, 49.652546000319688 ], [ 22.768851694488585, 49.642377172497682 ], [ 22.767522403335587, 49.641624155132398 ], [ 22.74883859400666, 49.631424591319309 ], [ 22.747554303134169, 49.630698815415649 ], [ 22.746698607510751, 49.619152246781631 ], [ 22.727951240944073, 49.608907111772773 ], [ 22.726736406710845, 49.608223212802045 ], [ 22.725881067074098, 49.596676499992469 ], [ 22.707084132320571, 49.586393373252797 ], [ 22.705926219037586, 49.585743726467079 ], [ 22.705072096827735, 49.57419684129836 ], [ 22.686237118461133, 49.56388197713266 ], [ 22.685125793092787, 49.563260292467163 ], [ 22.684273593848499, 49.551713212196837 ], [ 22.665410071268148, 49.541371774843391 ], [ 22.664336817968515, 49.540772859858954 ], [ 22.64546312274188, 49.530417774674909 ], [ 22.644406803576221, 49.52982891254814 ], [ 22.645371944636434, 49.529193299740022 ], [ 22.662636726300828, 49.517678277992069 ], [ 22.661785704436166, 49.506130993173372 ], [ 22.662726582835333, 49.505509755302391 ], [ 22.681798018265045, 49.504903081218501 ], [ 22.699066541548422, 49.493369043224703 ], [ 22.699997456638698, 49.492753124128789 ], [ 22.717266543525596, 49.481210448287925 ], [ 22.716401052741279, 49.469663883280845 ], [ 22.715535124746776, 49.458117315910272 ], [ 22.714668818431718, 49.446570744259276 ], [ 22.7138021890106, 49.435024166530475 ], [ 22.714691866669583, 49.434432351627095 ], [ 22.731973571438939, 49.422863878586988 ], [ 22.731102071074474, 49.411317529276651 ], [ 22.731980891093752, 49.41073157693188 ], [ 22.749259220644625, 49.399154833460479 ], [ 22.748383000501175, 49.387608709279384 ], [ 22.747506667624108, 49.376062572337148 ], [ 22.746630263375561, 49.364516421273564 ], [ 22.745753826670892, 49.352970254808646 ], [ 22.744877394109135, 49.341424071738544 ], [ 22.745739039152486, 49.340846461289594 ], [ 22.763002798403125, 49.32925990358995 ], [ 22.762122062998387, 49.317713933804384 ], [ 22.761241426819701, 49.306167944336067 ], [ 22.760360919506262, 49.294621934204777 ], [ 22.759480568808506, 49.283075902492492 ], [ 22.758600400676634, 49.271529848340499 ], [ 22.757720439345825, 49.259983770946498 ], [ 22.756840707418714, 49.248437669561973 ], [ 22.737946640439279, 49.238030604827237 ], [ 22.718979338229083, 49.238643641500438 ], [ 22.718027667081969, 49.238120367408854 ], [ 22.717157260642345, 49.226573717670426 ], [ 22.7180279989106, 49.22598672093897 ], [ 22.736990479377226, 49.22537399239269 ], [ 22.754203091263943, 49.213799214730322 ], [ 22.735331725081288, 49.203396044234289 ], [ 22.734371152107244, 49.202868229902556 ], [ 22.733497238193497, 49.191321749796046 ], [ 22.734376541244309, 49.19072796494212 ], [ 22.753325194982359, 49.190112959657391 ], [ 22.77051223611106, 49.178542695454937 ], [ 22.751662218357719, 49.168147847065079 ], [ 22.750690599033202, 49.167614235346782 ], [ 22.749813345577888, 49.156067920694603 ], [ 22.750703019767737, 49.155466239176157 ], [ 22.769637873272359, 49.154848987214997 ], [ 22.770613180303435, 49.155389637999306 ], [ 22.78945435680534, 49.165777219157512 ], [ 22.806617590440368, 49.154206633976365 ], [ 22.80572764972468, 49.142661042999826 ], [ 22.806619548413643, 49.142056982199925 ], [ 22.823763055035212, 49.130489295418634 ], [ 22.824658168045922, 49.129882642099659 ], [ 22.841789627639052, 49.118314925708965 ], [ 22.842687948670349, 49.117705688649387 ], [ 22.859807385647702, 49.106137937128786 ], [ 22.860708896996698, 49.105526131011004 ], [ 22.879622345814401, 49.104891720527903 ], [ 22.896725967665603, 49.0933205854788 ], [ 22.895816516199364, 49.081776116815995 ], [ 22.877011316133871, 49.071418969837566 ], [ 22.876006542469284, 49.070868849552028 ], [ 22.875102337991688, 49.059324060051878 ], [ 22.874198604097412, 49.047779238485575 ], [ 22.875121411575673, 49.047151980484969 ], [ 22.892183410805345, 49.035597921691569 ], [ 22.891276330253756, 49.024053292050908 ], [ 22.890369734047024, 49.012508629846188 ], [ 22.871624767552653, 49.002167557360849 ], [ 22.852750181707602, 49.00280111318903 ], [ 22.835700889029507, 49.01434161368006 ], [ 22.834762559002868, 49.014973837813464 ] ] ], [ [ [ 18.511142806662651, 49.919052426043713 ], [ 18.515558664865608, 49.921770390841694 ], [ 18.530303572553716, 49.930701703836995 ], [ 18.531253544535403, 49.92183488706565 ], [ 18.532412960379798, 49.910269760257343 ], [ 18.530513244543272, 49.909114779183447 ], [ 18.511237631681549, 49.909671655303299 ], [ 18.496645047708778, 49.910120027722499 ], [ 18.511142806662651, 49.919052426043713 ] ] ] ] } }
]
}
