{
"type": "FeatureCollection",
"name": "zasieg_JD_cykl_4_epsg4326",
"crs": { "type": "name", "properties": { "name": "urn:ogc:def:crs:OGC:1.3:CRS84" } },
"features": [
{ "type": "Feature", "properties": { "gatunek": "JD", "cykl": 4, "pokrycie": 0.95, "prog_kde": 2.3429039764566254e-12 }, "geometry": { "type": "MultiPolygon", "coordinates": [ [ [ [ 22.834756569888295, 49.014895982698498 ], [ 22.815876306604324, 49.015522987900859 ], [ 22.798688835100993, 49.027142904309677 ], [ 22.797874970329694, 49.027690809932203 ], [ 22.780675947856153, 49.039310362272914 ], [ 22.779864843672989, 49.039855978660945 ], [ 22.762654203927283, 49.051475201197185 ], [ 22.761845920876112, 49.052018495999846 ], [ 22.760960034222325, 49.051530501244578 ], [ 22.742082337384684, 49.041088852290251 ], [ 22.723190113830213, 49.041700544881529 ], [ 22.704297247381852, 49.042309069911084 ], [ 22.703409877767612, 49.041819284930057 ], [ 22.684549713131833, 49.031369027673527 ], [ 22.667320563243024, 49.042973338835644 ], [ 22.666509598004463, 49.043516603431605 ], [ 22.647614821205757, 49.044115605216838 ], [ 22.630367549090057, 49.05571801585176 ], [ 22.631206477511338, 49.067266329532139 ], [ 22.630402964502075, 49.067803763337729 ], [ 22.613136161175333, 49.079408861918289 ], [ 22.61233643543039, 49.079943362578057 ], [ 22.595057012760773, 49.091548746639702 ], [ 22.594261091146382, 49.092080320262724 ], [ 22.575346354788689, 49.092667533795598 ], [ 22.574482189073304, 49.092188514115165 ], [ 22.555605333196645, 49.081704275248782 ], [ 22.538307200574639, 49.093304431925233 ], [ 22.537515026223424, 49.093832387546115 ], [ 22.53665523646292, 49.093355119479817 ], [ 22.517781512545678, 49.082862255624754 ], [ 22.498868686092841, 49.083436451764783 ], [ 22.479955253211426, 49.084007449940628 ], [ 22.462629999916462, 49.095602081743905 ], [ 22.461845035755868, 49.096123752535092 ], [ 22.442926029358951, 49.096688598414168 ], [ 22.424006426047882, 49.0972502447257 ], [ 22.405086229159171, 49.097808691275716 ], [ 22.387724875199016, 49.109401487452928 ], [ 22.388509917738734, 49.120952664453391 ], [ 22.387739646212715, 49.121463236671453 ], [ 22.370358417408447, 49.133058787775873 ], [ 22.371140585471643, 49.14461010909983 ], [ 22.37037701444947, 49.145116056985913 ], [ 22.351437541517875, 49.145665938945882 ], [ 22.35061881241872, 49.145208113814974 ], [ 22.331722250719746, 49.13466191040002 ], [ 22.312786001957548, 49.135205142568424 ], [ 22.293849179019421, 49.135745183346678 ], [ 22.274911785383107, 49.136282034736524 ], [ 22.257475674682873, 49.147876283724287 ], [ 22.2567315243416, 49.14836747705273 ], [ 22.237788614731958, 49.148898224129411 ], [ 22.220330056563579, 49.160493225303988 ], [ 22.221079187159727, 49.172046202030586 ], [ 22.221829093810818, 49.183599138759426 ], [ 22.22109487839468, 49.184083625430958 ], [ 22.220308786468113, 49.183641585027082 ], [ 22.201391668337589, 49.173055790631814 ], [ 22.182438307116794, 49.173577549199365 ], [ 22.164944285064383, 49.185173652033512 ], [ 22.164221615022065, 49.185649730510626 ], [ 22.145262760743993, 49.186165428235434 ], [ 22.127747009639517, 49.197761734168637 ], [ 22.127032270507165, 49.198232280493478 ], [ 22.108067932966325, 49.198741934205451 ], [ 22.089103058140967, 49.199248433050201 ], [ 22.071556837394063, 49.210844760981701 ], [ 22.070853831213178, 49.211307111948507 ], [ 22.051883489503435, 49.211807590430347 ], [ 22.034316398646176, 49.223403493299962 ], [ 22.035026560490703, 49.234958322207945 ], [ 22.035737552458901, 49.24651311039996 ], [ 22.036449387193493, 49.258067857543004 ], [ 22.035746795874125, 49.258530448275167 ], [ 22.018164846924847, 49.270120820681768 ], [ 22.018874108452984, 49.281675683839609 ], [ 22.018168824209155, 49.282140368254616 ], [ 22.000577851778626, 49.293726039761481 ], [ 21.999872236044766, 49.29419102479514 ], [ 21.982273321643476, 49.305773627131217 ], [ 21.981566742219236, 49.306239339364815 ], [ 21.963960530040129, 49.317818442081304 ], [ 21.964660485088466, 49.329373726873776 ], [ 21.965361381199507, 49.340928968419952 ], [ 21.964641494774639, 49.341404128692076 ], [ 21.945619386699228, 49.341888780994537 ], [ 21.926596766584744, 49.342370284852521 ], [ 21.90757363789259, 49.342848642635538 ], [ 21.889941408856423, 49.354413973197559 ], [ 21.889227512809086, 49.354884752557538 ], [ 21.871590784340754, 49.366444722664703 ], [ 21.870872450586347, 49.366918532987889 ], [ 21.851838925407442, 49.367387964840766 ], [ 21.834190376268243, 49.37894142667421 ], [ 21.834864833366893, 49.390497838092074 ], [ 21.834135489231738, 49.39097910600141 ], [ 21.833359548650389, 49.390534766160876 ], [ 21.814431007101621, 49.379879891732436 ], [ 21.81366862735603, 49.379443091477505 ], [ 21.79473538690582, 49.368777387571399 ], [ 21.793986136185282, 49.368347893093308 ], [ 21.775048623802725, 49.357671595079381 ], [ 21.757363077517162, 49.36922789053699 ], [ 21.758019038755236, 49.380785091431136 ], [ 21.757311184557384, 49.381251145514575 ], [ 21.739627503643451, 49.392795516093592 ], [ 21.738913516572961, 49.393265668876822 ], [ 21.721227675039728, 49.404803129223502 ], [ 21.720506887363609, 49.405277810543417 ], [ 21.702819547905101, 49.416807927385975 ], [ 21.70209129042469, 49.417287567583877 ], [ 21.701319076369959, 49.416843014660962 ], [ 21.682404868557029, 49.406164510480124 ], [ 21.663353156636116, 49.406603140862892 ], [ 21.645641700020459, 49.418131183509615 ], [ 21.64627517410965, 49.429689299308912 ], [ 21.645544959742434, 49.430169798709429 ], [ 21.627840548514712, 49.441682536020366 ], [ 21.627101534878623, 49.442168829537529 ], [ 21.626319294060764, 49.441717115847091 ], [ 21.607421354169976, 49.431032052736164 ], [ 21.588358867898659, 49.431458460376867 ], [ 21.569295930665984, 49.431881726633662 ], [ 21.550232546002384, 49.432301855459379 ], [ 21.531168717444451, 49.432718851042715 ], [ 21.530417782919468, 49.432284141276803 ], [ 21.529834375516181, 49.420724460002518 ], [ 21.510923059606668, 49.409999294974881 ], [ 21.49314725728777, 49.421521749860133 ], [ 21.492453323166878, 49.421976432594725 ], [ 21.491721473613879, 49.421552499722601 ], [ 21.472811107557746, 49.410817107330182 ], [ 21.453754486684087, 49.411221352874662 ], [ 21.434697440603728, 49.411622497682579 ], [ 21.415639972834093, 49.412020546658361 ], [ 21.3978249905905, 49.423538781971658 ], [ 21.397145746289596, 49.423982823251549 ], [ 21.3780829714864, 49.42437481161592 ], [ 21.360259516074183, 49.435884266664026 ], [ 21.359574870032468, 49.436331599443818 ], [ 21.341751108652716, 49.447832909450469 ], [ 21.34105777669744, 49.448285876074017 ], [ 21.321984817370542, 49.448668830083946 ], [ 21.302911456119858, 49.449048707425874 ], [ 21.283837696424197, 49.449425512952445 ], [ 21.283116620065471, 49.449005874434867 ], [ 21.264230491422687, 49.438230520490599 ], [ 21.263523399688946, 49.437819113653561 ], [ 21.244632218263785, 49.427032636355264 ], [ 21.225566247959691, 49.427400082713064 ], [ 21.224874146250329, 49.426997434538158 ], [ 21.224360840678205, 49.415435244726119 ], [ 21.223847343879374, 49.403873037787832 ], [ 21.204944240604888, 49.393060437278137 ], [ 21.18589093090489, 49.393421545828438 ], [ 21.167981758771571, 49.404934501742176 ], [ 21.167346503872288, 49.405347505172074 ], [ 21.149436104163197, 49.416852895880226 ], [ 21.148793096861141, 49.417270875003773 ], [ 21.130881931552405, 49.428768403621774 ], [ 21.130230704005832, 49.429191660856439 ], [ 21.129545871429823, 49.4287930256259 ], [ 21.11066597512151, 49.41797218420227 ], [ 21.091601867179257, 49.418318297296928 ], [ 21.072537398897957, 49.418661385507718 ], [ 21.053472573541928, 49.419001450595424 ], [ 21.052799018354346, 49.418609563675737 ], [ 21.05232465892416, 49.407046101968504 ], [ 21.052957002844863, 49.406645856666159 ], [ 21.070906142328869, 49.395142737441091 ], [ 21.071530571215028, 49.394747023325756 ], [ 21.090585780714768, 49.394403899882334 ], [ 21.108528769928089, 49.382890471471448 ], [ 21.10804095649031, 49.371327361132337 ], [ 21.089146675475654, 49.360478759311256 ], [ 21.070104563023452, 49.360821543289973 ], [ 21.051062095293602, 49.361161325321305 ], [ 21.050425685561223, 49.360792070526784 ], [ 21.031542605237458, 49.349930761177674 ], [ 21.030911351476689, 49.349564732335921 ], [ 21.0120320059475, 49.338697315986522 ], [ 21.011404969847476, 49.338333979491743 ], [ 20.992530292181595, 49.327460995666861 ], [ 20.991906529288336, 49.327099815507133 ], [ 20.992500507986655, 49.32672322040542 ], [ 21.010471855293403, 49.315206237597664 ], [ 20.991596969610494, 49.304327523863243 ], [ 20.972575403766495, 49.304655126732712 ], [ 20.97195797714523, 49.304298082810327 ], [ 20.953096199928048, 49.293413228265663 ], [ 20.93407841299841, 49.293734880373087 ], [ 20.915060295690715, 49.294053580489901 ], [ 20.897080022906845, 49.305551976391563 ], [ 20.897527727630884, 49.317116525913185 ], [ 20.896930042661037, 49.3175026992593 ], [ 20.878946965988149, 49.328992068960041 ], [ 20.878342447234772, 49.329382483786951 ], [ 20.860357506401083, 49.340864702521415 ], [ 20.859745903422112, 49.34125950801365 ], [ 20.859098382726092, 49.34088496787605 ], [ 20.840277222343143, 49.329999236934192 ], [ 20.821244134847646, 49.330303169425221 ], [ 20.80325588399193, 49.34176993247624 ], [ 20.802633260460073, 49.342171264752096 ], [ 20.784643558306882, 49.353630616735252 ], [ 20.784013429830317, 49.354036550693678 ], [ 20.766022454634172, 49.365488377611257 ], [ 20.765384636720277, 49.365899015393765 ], [ 20.747392553964641, 49.377343211622531 ], [ 20.747806765281748, 49.388908576096235 ], [ 20.748221681100691, 49.400473908100608 ], [ 20.747567602361244, 49.400894733026419 ], [ 20.729574923713262, 49.412325988586147 ], [ 20.728912454831601, 49.412751935986385 ], [ 20.7098462329505, 49.413037684712016 ], [ 20.690779714656045, 49.413320410859896 ], [ 20.690072347138369, 49.412910265038228 ], [ 20.671320053576874, 49.402031924181443 ], [ 20.67061161224871, 49.401621626670867 ], [ 20.651869326206182, 49.390740845056087 ], [ 20.633874591844425, 49.402146720265712 ], [ 20.63319452769576, 49.402582417062497 ], [ 20.615198726830545, 49.413980642868481 ], [ 20.614510739609912, 49.414421043490542 ], [ 20.613784575899921, 49.414000392357458 ], [ 20.613407442826468, 49.402434195923547 ], [ 20.613030073518281, 49.390867980784236 ], [ 20.594318781292593, 49.379986018699505 ], [ 20.593591644907715, 49.379566117862623 ], [ 20.57489429797489, 49.368684032162079 ], [ 20.55584370943911, 49.368946048185897 ], [ 20.537859679301139, 49.38032106936803 ], [ 20.537153593606259, 49.380771659641894 ], [ 20.519167506114783, 49.392139676184101 ], [ 20.518454497257832, 49.392594221406547 ], [ 20.500466206945042, 49.403955324101901 ], [ 20.499746414506184, 49.404413722506717 ], [ 20.480681325554666, 49.404663173788265 ], [ 20.461615977682317, 49.404909572161571 ], [ 20.442550373988141, 49.405152913360283 ], [ 20.441770109017103, 49.404702262426113 ], [ 20.423150183336865, 49.393827032168986 ], [ 20.422360308176586, 49.393371380104369 ], [ 20.403758929358617, 49.38249876773537 ], [ 20.384701539161618, 49.38273330526826 ], [ 20.366735472274755, 49.39404241618378 ], [ 20.36596457665642, 49.394530040608835 ], [ 20.346902223294304, 49.394758235333853 ], [ 20.327839632899536, 49.394983351751179 ], [ 20.327010317875633, 49.394505253900682 ], [ 20.326692933513883, 49.382937625664049 ], [ 20.326375166282617, 49.371369979372652 ], [ 20.326057021397595, 49.359802314960923 ], [ 20.325738502991296, 49.348234632375828 ], [ 20.307242718983524, 49.33738560248873 ], [ 20.28933266537015, 49.348646507550583 ], [ 20.288503972187932, 49.349168781809979 ], [ 20.287627574760432, 49.348665516737533 ], [ 20.269161124691934, 49.337822793329252 ], [ 20.251262700325913, 49.349064938523057 ], [ 20.250412988183495, 49.349599296545549 ], [ 20.249515394805801, 49.349083842235125 ], [ 20.231078632021294, 49.338247654714237 ], [ 20.212037056541448, 49.338455446327643 ], [ 20.192995265809223, 49.338660138010276 ], [ 20.192053291908056, 49.33811952086014 ], [ 20.173678324300642, 49.32730064407437 ], [ 20.17271151175067, 49.3267461260738 ], [ 20.173651117454895, 49.326156200355804 ], [ 20.191468368065227, 49.314982952981204 ], [ 20.173129005524199, 49.304179657245683 ], [ 20.154100181699857, 49.304378992119574 ], [ 20.153091124172953, 49.303800966856173 ], [ 20.13480568532356, 49.293015922078368 ], [ 20.133766476804347, 49.29242087445374 ], [ 20.133483614981444, 49.28085230817198 ], [ 20.133200185956913, 49.26928372471852 ], [ 20.114998944624052, 49.258534943416414 ], [ 20.113888753026753, 49.25790015718519 ], [ 20.113607914246192, 49.246331467999838 ], [ 20.113326484948765, 49.234762761733869 ], [ 20.113044465610017, 49.223194038376562 ], [ 20.094964945841166, 49.212501190067734 ], [ 20.093749040865873, 49.211806916660258 ], [ 20.093469493539256, 49.200238088978054 ], [ 20.093189342121256, 49.188669244200319 ], [ 20.075219226228985, 49.178027885288962 ], [ 20.056238267980291, 49.178215556187958 ], [ 20.038752346687296, 49.189171732840393 ], [ 20.037498644502577, 49.18995309424777 ], [ 20.019998225599732, 49.200910356993425 ], [ 20.018750138222675, 49.201687133553875 ], [ 20.001234412522855, 49.212645976168233 ], [ 19.99999274509651, 49.213417717095091 ], [ 19.982460978127392, 49.224378585545281 ], [ 19.981226461133293, 49.225144893933219 ], [ 19.962226847750507, 49.225315234340584 ], [ 19.943227059408375, 49.225482435897575 ], [ 19.924227099540975, 49.225646505510255 ], [ 19.905226971607146, 49.225807452015907 ], [ 19.903855339061131, 49.225020433388714 ], [ 19.903613466376939, 49.213450974120732 ], [ 19.885813737430336, 49.202862785435272 ], [ 19.88436013793282, 49.202028631508043 ], [ 19.866620319970171, 49.19146820103709 ], [ 19.84763300062885, 49.191620897697398 ], [ 19.828645526333549, 49.191770509319994 ], [ 19.811309164640672, 49.202564890889995 ], [ 19.809846446683853, 49.203465993640187 ], [ 19.80831555365949, 49.202585880965998 ], [ 19.790670127064246, 49.192060554201632 ], [ 19.773364044350501, 49.202825205416289 ], [ 19.771861901787794, 49.203749281644882 ], [ 19.754531642400558, 49.214521080508625 ], [ 19.754673011451214, 49.226091443104593 ], [ 19.754815619640098, 49.237661774645609 ], [ 19.772555316786292, 49.248243416166119 ], [ 19.773952164506696, 49.24910639609849 ], [ 19.774102242879266, 49.260676615988103 ], [ 19.791935881664596, 49.271303766454537 ], [ 19.793256283487359, 49.272117900213466 ], [ 19.811144418224313, 49.28276956737767 ], [ 19.812421525675546, 49.283555923279735 ], [ 19.811169958229073, 49.284326509031175 ], [ 19.793572432478054, 49.295258082116568 ], [ 19.793732300165701, 49.306828126357992 ], [ 19.793893357432314, 49.318398139497873 ], [ 19.794055598753879, 49.329968121572804 ], [ 19.794219017948766, 49.341538072623806 ], [ 19.794383608371369, 49.353107992695186 ], [ 19.794549363104718, 49.364677881833039 ], [ 19.794716275151508, 49.376247740084075 ], [ 19.793631532049613, 49.376916237578165 ], [ 19.77583290837936, 49.387946985407581 ], [ 19.775997337816047, 49.399516833713705 ], [ 19.776162919238619, 49.411086651340355 ], [ 19.775117971716792, 49.411731146946785 ], [ 19.774028931843699, 49.411100956403175 ], [ 19.755867827655248, 49.400304796406743 ], [ 19.754748773617621, 49.39965749422224 ], [ 19.736626628321748, 49.38887640732122 ], [ 19.735475475561895, 49.388210766073904 ], [ 19.717394367785712, 49.377446023361578 ], [ 19.699629905622778, 49.388433241757689 ], [ 19.698498575829529, 49.389129673971283 ], [ 19.680720772203511, 49.400117036683348 ], [ 19.67959382727032, 49.400811005597227 ], [ 19.66052501813525, 49.400930594943738 ], [ 19.64145609194761, 49.401047455487884 ], [ 19.623687906559272, 49.412009620444742 ], [ 19.623817032901801, 49.42357977097376 ], [ 19.641890373825095, 49.434356400773353 ], [ 19.643014436800698, 49.435045445577856 ], [ 19.641908270547543, 49.435727733274454 ], [ 19.624079002601, 49.446719982810016 ], [ 19.622972237629341, 49.447403114915645 ], [ 19.603885156035361, 49.447514405937895 ], [ 19.584797967062361, 49.447623069923651 ], [ 19.566987037790604, 49.458584727640222 ], [ 19.567107270293164, 49.470154874355266 ], [ 19.5659769333732, 49.47085381078324 ], [ 19.548146205758346, 49.481816991394432 ], [ 19.548264374913707, 49.493387115551037 ], [ 19.548383810476338, 49.504957210603337 ], [ 19.547267151024244, 49.505649527490192 ], [ 19.529409188893396, 49.516616228046011 ], [ 19.52952664520911, 49.528186299828654 ], [ 19.529645402104865, 49.539756342546355 ], [ 19.52976547337925, 49.55132635613495 ], [ 19.528655873976454, 49.552016995749824 ], [ 19.510774505366026, 49.562982271680816 ], [ 19.510892798846292, 49.574552261026007 ], [ 19.509768604159074, 49.575253566752963 ], [ 19.490631359980679, 49.575349944622204 ], [ 19.472773166550326, 49.586284730354784 ], [ 19.471605527596552, 49.587014287824303 ], [ 19.453763136967101, 49.597931266973887 ], [ 19.453872549970633, 49.609501264428367 ], [ 19.452677768421005, 49.610249609216368 ], [ 19.451416783218278, 49.609510866876548 ], [ 19.451312339545431, 49.597940848367358 ], [ 19.433321551980647, 49.587195412634472 ], [ 19.41417944030621, 49.587282524585724 ], [ 19.412865086033325, 49.586513926203033 ], [ 19.412767172450042, 49.574943813019331 ], [ 19.394850510748444, 49.564226538353637 ], [ 19.37571729007853, 49.564308918348807 ], [ 19.374338675743303, 49.563504006810604 ], [ 19.374247245840241, 49.551933802503257 ], [ 19.374154398957259, 49.540363579585488 ], [ 19.356331484760144, 49.529683763541925 ], [ 19.337211665765345, 49.529761498834773 ], [ 19.318091778204348, 49.529837107861482 ], [ 19.29897182447062, 49.529910629726317 ], [ 19.279851806898954, 49.529982103942274 ], [ 19.278275600050474, 49.529063342124509 ], [ 19.260670225685118, 49.518484464483173 ], [ 19.259044832948739, 49.517537444386654 ], [ 19.241497645771407, 49.506985626571691 ], [ 19.239819654666277, 49.506008321099259 ], [ 19.239753018276932, 49.494437866702178 ], [ 19.239684818053444, 49.482867392300165 ], [ 19.222229361685358, 49.472357822375663 ], [ 19.22047098878625, 49.471334970770528 ], [ 19.222219999849681, 49.470288336780698 ], [ 19.239543766892371, 49.459726383381977 ], [ 19.222124815608382, 49.449233754849047 ], [ 19.203036065771983, 49.449297149337454 ], [ 19.201198356529904, 49.448228760821195 ], [ 19.201132719909999, 49.436658171085483 ], [ 19.20106546755672, 49.425087560892074 ], [ 19.200996595059028, 49.413516930244747 ], [ 19.183774486978553, 49.403122386669168 ], [ 19.16470356381615, 49.403182336045965 ], [ 19.145632591583755, 49.403240457203232 ], [ 19.126561572154792, 49.403296777522947 ], [ 19.107490507357213, 49.403351322983546 ], [ 19.090548690255186, 49.413656163977812 ], [ 19.088440157389186, 49.414961187654804 ], [ 19.086203799087681, 49.413659484638522 ], [ 19.069348248756729, 49.40345518607181 ], [ 19.050277058406753, 49.403504548473293 ], [ 19.047884538395621, 49.402110938692637 ], [ 19.031198508946684, 49.391996611564529 ], [ 19.012131717320454, 49.392042725246831 ], [ 18.993064890435189, 49.392087179668152 ], [ 18.973998029889998, 49.392129989051504 ], [ 18.957530847532809, 49.402113054532734 ], [ 18.957495407678749, 49.413683804455573 ], [ 18.973981355934477, 49.423692035199707 ], [ 18.976466922119926, 49.425259960960659 ], [ 18.976440244278884, 49.436830671577887 ], [ 18.97641565996727, 49.448401359344096 ], [ 18.973967477826648, 49.449919542732587 ], [ 18.95737506659524, 49.459966579218779 ], [ 18.957350396243601, 49.471537216715063 ], [ 18.957327932868992, 49.483107831754403 ], [ 18.957307706304935, 49.494678424350475 ], [ 18.957289752291537, 49.506248994519026 ], [ 18.954825023882766, 49.507784211792263 ], [ 18.938237989102117, 49.517810946781751 ], [ 18.935698041358005, 49.519394467899993 ], [ 18.916581683794295, 49.519434485885256 ], [ 18.913789867120514, 49.51779531343108 ], [ 18.897489479682253, 49.507903016543928 ], [ 18.878377573035177, 49.50794010315267 ], [ 18.862124064401641, 49.51774528175465 ], [ 18.859232434431838, 49.519547385751224 ], [ 18.843068004827245, 49.529291541231558 ], [ 18.843035398389752, 49.540862010505677 ], [ 18.843005881811408, 49.552432460726592 ], [ 18.840002630927213, 49.554310378489554 ], [ 18.823949600551078, 49.56397550861184 ], [ 18.823923702462523, 49.575545914817944 ], [ 18.823901394581398, 49.587116303253204 ], [ 18.823882829978832, 49.598686674153079 ], [ 18.823868177545471, 49.610257027776818 ], [ 18.820660373793402, 49.612275782104369 ], [ 18.804819577532765, 49.621796833273642 ], [ 18.804811475418823, 49.63336715112991 ], [ 18.804808116953083, 49.644937453764754 ], [ 18.804809764508491, 49.65650774162085 ], [ 18.804816706170111, 49.66807801518344 ], [ 18.801271653366008, 49.670325677601987 ], [ 18.785790515343351, 49.67961462475958 ], [ 18.782044120419954, 49.681994203795526 ], [ 18.762863856125406, 49.682052113198289 ], [ 18.75867917105505, 49.679561304564352 ], [ 18.74374460333485, 49.670490804283467 ], [ 18.728715073872689, 49.679494990012934 ], [ 18.724503152178173, 49.682172436051744 ], [ 18.709725319415291, 49.691019178490052 ], [ 18.709754124145817, 49.702589456479473 ], [ 18.705181966992576, 49.705506896915431 ], [ 18.685992232043894, 49.705580989323998 ], [ 18.666802410627678, 49.705658353510984 ], [ 18.647612495580752, 49.7057393967984 ], [ 18.633871598094984, 49.713944642750434 ], [ 18.633935101637064, 49.725515017613795 ], [ 18.62824432582325, 49.72916648088534 ], [ 18.615072599094066, 49.737024030133405 ], [ 18.615170069111524, 49.748594486018831 ], [ 18.615283188892889, 49.760164970616124 ], [ 18.615413187005327, 49.771735487947836 ], [ 18.608668265772753, 49.776099719191301 ], [ 18.596678053941609, 49.783241857322928 ], [ 18.596859124475056, 49.794812531294632 ], [ 18.589251104429025, 49.799758382505303 ], [ 18.578230789800131, 49.806316256922628 ], [ 18.578477008219043, 49.817887154944188 ], [ 18.569813788289597, 49.823546062830346 ], [ 18.559986112546191, 49.829388415679517 ], [ 18.569709489939434, 49.835304155924945 ], [ 18.579057677452571, 49.841029200189382 ], [ 18.579397386088218, 49.852600366004758 ], [ 18.588755153207838, 49.858288030767476 ], [ 18.59849785957234, 49.864237996122867 ], [ 18.588649628343902, 49.870716758674618 ], [ 18.580190831917534, 49.875743037782648 ], [ 18.580651677253787, 49.887314568615949 ], [ 18.581160654765654, 49.898886248152223 ], [ 18.581722355115943, 49.910458092279519 ], [ 18.568965775053947, 49.918922624069729 ], [ 18.563843174798357, 49.92196202588768 ], [ 18.549575128877791, 49.931455587759352 ], [ 18.533758056975124, 49.921844982540705 ], [ 18.534750091731901, 49.91027916002519 ], [ 18.530526864849605, 49.907711584450276 ], [ 18.511252794045536, 49.908171226656158 ], [ 18.491977955743732, 49.908668165622721 ], [ 18.489578745246305, 49.91008914150099 ], [ 18.472568978856383, 49.921427246980912 ], [ 18.472308059380204, 49.921581665873141 ], [ 18.472538250958873, 49.924243537573439 ], [ 18.487115019342234, 49.933217889892376 ], [ 18.491690714524019, 49.935993975588936 ], [ 18.506397306941768, 49.944871321903761 ], [ 18.51085469668282, 49.947524010277078 ], [ 18.526080025289488, 49.956523150127055 ], [ 18.530030019295786, 49.958826224849822 ], [ 18.546201645159528, 49.968173321550658 ], [ 18.549216489776498, 49.969893419735335 ], [ 18.566805684313071, 49.979821770633613 ], [ 18.568413902197566, 49.980718533412436 ], [ 18.58762197851831, 49.991301544120617 ], [ 18.58792751528221, 49.991468366345458 ], [ 18.606840162407348, 50.001676454318179 ], [ 18.609543287429762, 50.003112746047265 ], [ 18.626068533169509, 50.011802195893502 ], [ 18.631786789294861, 50.014755058763562 ], [ 18.645306847570737, 50.021672573218531 ], [ 18.654729490556502, 50.026395156625732 ], [ 18.664554855151358, 50.031280908902382 ], [ 18.678453105796414, 50.038032851864244 ], [ 18.683812298774818, 50.040619812360767 ], [ 18.703051110804331, 50.049667905331908 ], [ 18.703078914799875, 50.049680919518998 ], [ 18.722353648275231, 50.058590543928929 ], [ 18.728390952323895, 50.061299451645532 ], [ 18.741636981274663, 50.067226282487205 ], [ 18.754804588313817, 50.072927707391479 ], [ 18.760928645367454, 50.075577245006031 ], [ 18.780228146765015, 50.0836778678689 ], [ 18.782354892564051, 50.084552058259547 ], [ 18.799534782660228, 50.091625749954275 ], [ 18.811028368344928, 50.096171673991321 ], [ 18.818848915173387, 50.099277426520288 ], [ 18.838170035027936, 50.106679603382716 ], [ 18.841130567751826, 50.107786142019975 ], [ 18.857497505920747, 50.113946852970116 ], [ 18.872681729055259, 50.119394374592062 ], [ 18.876831634542945, 50.120897827742603 ], [ 18.896171654554827, 50.127712128833146 ], [ 18.905895072213482, 50.130995365095607 ], [ 18.915517583908656, 50.13428787751743 ], [ 18.934869118772152, 50.14063904926487 ], [ 18.941015495991191, 50.142587813762646 ], [ 18.954225912123139, 50.146848040952321 ], [ 18.973587866269085, 50.152785390610305 ], [ 18.978249001508217, 50.154170031328221 ], [ 18.992954628677346, 50.158630954709054 ], [ 19.012326043323501, 50.164199850186542 ], [ 19.017870849657861, 50.165739946085829 ], [ 19.031701901118836, 50.16967924956306 ], [ 19.051081938074013, 50.174921081091284 ], [ 19.060240237080617, 50.177294931272222 ], [ 19.070466014187911, 50.180024656588074 ], [ 19.08985393904879, 50.184976820519203 ], [ 19.105819641308809, 50.188831563824536 ], [ 19.109245324537152, 50.189687183306276 ], [ 19.128640489433028, 50.194383089271049 ], [ 19.14803858492628, 50.198795128917638 ], [ 19.155132143788187, 50.200345372711027 ], [ 19.16744003736644, 50.203143424227491 ], [ 19.186844442286219, 50.207343819989937 ], [ 19.206251170567828, 50.211291779084455 ], [ 19.208988949321455, 50.211830153783993 ], [ 19.225661202819861, 50.215260095934397 ], [ 19.245073451215244, 50.219031301995471 ], [ 19.264487511896245, 50.222575575335824 ], [ 19.268480744779957, 50.223277080009062 ], [ 19.283904506010472, 50.226128183430696 ], [ 19.303323382840645, 50.229521678491857 ], [ 19.322743629397198, 50.232708653245929 ], [ 19.335371982316538, 50.234672426717374 ], [ 19.342165721119756, 50.235790603491338 ], [ 19.361590113491982, 50.238844555236746 ], [ 19.381015478179801, 50.241708030952708 ], [ 19.400441662481359, 50.244390458691527 ], [ 19.41273274286721, 50.245992565819549 ], [ 19.419869256415016, 50.246984063356003 ], [ 19.439298682247092, 50.249546485877204 ], [ 19.458728570018049, 50.251938915905029 ], [ 19.47815878866427, 50.254168938475075 ], [ 19.497589213869691, 50.256243605502391 ], [ 19.507026988800021, 50.257188588092404 ], [ 19.517020753026994, 50.258264233236112 ], [ 19.536453227259546, 50.260220715229607 ], [ 19.555885571598154, 50.26202823011986 ], [ 19.575317674568076, 50.263692592040897 ], [ 19.594749429563564, 50.265219247341598 ], [ 19.614180734543883, 50.26661330876879 ], [ 19.633611491781959, 50.267879587372484 ], [ 19.63756718707883, 50.268114975529876 ], [ 19.653042907802945, 50.269117686129192 ], [ 19.672473864599862, 50.270250633565738 ], [ 19.691903942635193, 50.271258315758956 ], [ 19.711333052344045, 50.272144966762532 ], [ 19.730761108212942, 50.272914634324657 ], [ 19.750188028784589, 50.273571204181771 ], [ 19.769613736703811, 50.27411842324333 ], [ 19.789038158803901, 50.274559921815005 ], [ 19.808461226233192, 50.274899235007226 ], [ 19.827882874621693, 50.275139823456215 ], [ 19.847303044287912, 50.275285093473975 ], [ 19.866721680486251, 50.275338416736282 ], [ 19.886138733695379, 50.275303149605016 ], [ 19.905554159948032, 50.275182652162293 ], [ 19.924967921202629, 50.274980307020535 ], [ 19.94437998575696, 50.274699537952081 ], [ 19.963790328703933, 50.274343828368146 ], [ 19.983198932428962, 50.273916739645934 ], [ 20.002605787148159, 50.273421929284211 ], [ 20.022010891485433, 50.272863168826888 ], [ 20.04141425308654, 50.272244361490245 ], [ 20.060815889265918, 50.271569559350667 ], [ 20.080215827682022, 50.270842979953684 ], [ 20.099614107034594, 50.270069022133924 ], [ 20.119010777776126, 50.26925228081037 ], [ 20.138405902827486, 50.268397560456684 ], [ 20.157799558285848, 50.26750988691284 ], [ 20.17719183411057, 50.266594517143076 ], [ 20.196582834770236, 50.265656946503519 ], [ 20.215972679831612, 50.264702913035578 ], [ 20.235361504468443, 50.263738398255931 ], [ 20.246621540073207, 50.263178037921769 ], [ 20.254750258343613, 50.262800013012743 ], [ 20.274139445734455, 50.26190545041387 ], [ 20.29352816079356, 50.261019283144712 ], [ 20.312916585412225, 50.260147740202321 ], [ 20.332304915547581, 50.259297192902849 ], [ 20.351693360633142, 50.258474123871537 ], [ 20.371082142730163, 50.257685089601232 ], [ 20.390471495397282, 50.256936676429817 ], [ 20.409861662260063, 50.256235449941549 ], [ 20.429252895267325, 50.255587897979915 ], [ 20.448645452628792, 50.255000367685888 ], [ 20.468039596436913, 50.254478997211002 ], [ 20.487435589986056, 50.254029643017006 ], [ 20.506833694813846, 50.253657803952947 ], [ 20.526234167501453, 50.253368543554288 ], [ 20.545637256282692, 50.253166412273281 ], [ 20.565043197524425, 50.253055371566603 ], [ 20.584452212152566, 50.253038721934836 ], [ 20.603864502108859, 50.253119037130297 ], [ 20.623280246931333, 50.253298106767396 ], [ 20.642699600557112, 50.253576889523174 ], [ 20.662122688447777, 50.253955478955895 ], [ 20.681549605135, 50.254433083705798 ], [ 20.700980412277737, 50.255008023501397 ], [ 20.720415137310955, 50.255677741943963 ], [ 20.739853772750745, 50.256438836537441 ], [ 20.746707094952054, 50.256737076103612 ], [ 20.759299539128186, 50.257375678062239 ], [ 20.778751355381672, 50.258453445668167 ], [ 20.798207348342014, 50.259617791535895 ], [ 20.817667352886836, 50.260861571578367 ], [ 20.837131170488703, 50.262177075682246 ], [ 20.856598573190421, 50.263556160137178 ], [ 20.876069308226398, 50.264990388246403 ], [ 20.890159235125221, 50.266062132024857 ], [ 20.895545707354472, 50.266536760302458 ], [ 20.915032014339715, 50.268297600645425 ], [ 20.934521116719122, 50.270090879587968 ], [ 20.954012650827362, 50.271906720236579 ], [ 20.973506256136222, 50.273735714049316 ], [ 20.993001582250397, 50.275569065583475 ], [ 20.996095474045244, 50.275860792076742 ], [ 21.012509393474296, 50.277661856030065 ], [ 21.032020396712817, 50.279788327085697 ], [ 21.051532136461578, 50.281890387713055 ], [ 21.071044292185341, 50.283961332309524 ], [ 21.088697455825645, 50.285803479504878 ], [ 21.090558161551098, 50.286031631276344 ], [ 21.110086675702799, 50.288393585267805 ], [ 21.129614529922652, 50.290696328687254 ], [ 21.149141551913971, 50.292937648946271 ], [ 21.168667637552897, 50.29511691317208 ], [ 21.174848879706307, 50.295793429628638 ], [ 21.188206026030826, 50.297524256272801 ], [ 21.207748929550103, 50.299985368458699 ], [ 21.227290168021757, 50.302366527924725 ], [ 21.246829905374511, 50.304673301412457 ], [ 21.256621591936451, 50.305804770629642 ], [ 21.2663797215858, 50.307151141023851 ], [ 21.285939067839692, 50.309784148130419 ], [ 21.305496625905647, 50.312334373338217 ], [ 21.325052874141473, 50.314813713081811 ], [ 21.333401401715541, 50.315859078966852 ], [ 21.344623688950886, 50.317546549792077 ], [ 21.36420453532476, 50.320435111539211 ], [ 21.383784275361538, 50.323252936969432 ], [ 21.403281518787288, 50.326005695523271 ], [ 21.403363817992588, 50.326019768154183 ], [ 21.422975979892271, 50.32938181508635 ], [ 21.442587327272228, 50.332672764285562 ], [ 21.462198907543364, 50.335914568180343 ], [ 21.464469800276259, 50.336295075088429 ], [ 21.48184779866115, 50.339819544483454 ], [ 21.501501048228672, 50.34374479801621 ], [ 21.516625167172933, 50.346748315957555 ], [ 21.521167399198067, 50.347854836676341 ], [ 21.54087520966101, 50.352676265181451 ], [ 21.560387299542729, 50.357363467594759 ], [ 21.560583020009418, 50.357422035244049 ], [ 21.580361711183794, 50.363400337280815 ], [ 21.596339265253917, 50.368136964390303 ], [ 21.600156072023303, 50.369572589004456 ], [ 21.62002569652125, 50.377015438555276 ], [ 21.625486525311494, 50.379053322503061 ], [ 21.639991716521614, 50.386079453860411 ], [ 21.648398246385643, 50.390104670356436 ], [ 21.660112707732416, 50.397772372622576 ], [ 21.665529108372489, 50.401284245616161 ], [ 21.676959476615711, 50.412592727901426 ], [ 21.680881170051691, 50.420752280404237 ], [ 21.682473227014174, 50.424036757562028 ], [ 21.681540720104859, 50.432424282983796 ], [ 21.681059013434339, 50.43564046838253 ], [ 21.669610008353054, 50.447474931320436 ], [ 21.663089816010014, 50.450851050875457 ], [ 21.643987903850505, 50.45786284784316 ], [ 21.635973632245754, 50.459813190088425 ], [ 21.624708127395269, 50.461763882616644 ], [ 21.605328214271612, 50.463900179234848 ], [ 21.585892007627642, 50.465035873605416 ], [ 21.566414803993098, 50.465430771502326 ], [ 21.546908178336089, 50.465283256238493 ], [ 21.52738093210451, 50.464745779420831 ], [ 21.507839781880847, 50.463936128598426 ], [ 21.490078340799869, 50.463028161137942 ], [ 21.488288738743506, 50.462924264756047 ], [ 21.468720645360779, 50.461567957246579 ], [ 21.449151610867602, 50.460170661098793 ], [ 21.42958411515264, 50.458779773024354 ], [ 21.410019983155664, 50.457431358070913 ], [ 21.390460547080103, 50.456152898304744 ], [ 21.370906766563021, 50.454965337812325 ], [ 21.357669716220858, 50.45421677200855 ], [ 21.351355536846928, 50.453808368308906 ], [ 21.331804314226979, 50.452631053439482 ], [ 21.312261942223667, 50.451614233746255 ], [ 21.292728433465655, 50.450762308088635 ], [ 21.273203728039817, 50.450078308219197 ], [ 21.253687715976113, 50.449564312250743 ], [ 21.234180254324833, 50.449221765287383 ], [ 21.214681180236969, 50.449051731598793 ], [ 21.195190321069653, 50.449055096079782 ], [ 21.175707502266697, 50.449232728106914 ], [ 21.156232553570838, 50.449585617611248 ], [ 21.136765313986199, 50.450114990849571 ], [ 21.11730563580976, 50.450822411683617 ], [ 21.097853387977981, 50.451709872969147 ], [ 21.078408458922613, 50.45277988181828 ], [ 21.058970759090801, 50.454035541887045 ], [ 21.039540223257774, 50.455480635458336 ], [ 21.020116812740898, 50.457119707845671 ], [ 21.000700517610138, 50.458958156513425 ], [ 20.981291358983633, 50.461002327339543 ], [ 20.978946080432628, 50.461275975962629 ], [ 20.961881380723185, 50.463066062751786 ], [ 20.94247666838292, 50.465298461411692 ], [ 20.923078420700968, 50.467734153231007 ], [ 20.903686754040979, 50.470382218979118 ], [ 20.884301820408304, 50.473253002128672 ], [ 20.876188554442123, 50.474548244760307 ], [ 20.864917130955458, 50.476188539857468 ], [ 20.845533876064611, 50.479221436798142 ], [ 20.826157058850747, 50.482484577080214 ], [ 20.806786925443941, 50.485991771507301 ], [ 20.799881136184506, 50.487323306623388 ], [ 20.787415535286787, 50.489540493086913 ], [ 20.768045973143391, 50.493214747673704 ], [ 20.748683043986773, 50.497148799604552 ], [ 20.736134613905588, 50.499861382147401 ], [ 20.729322428462094, 50.501233056812936 ], [ 20.709959761671591, 50.505351764986308 ], [ 20.690603841004258, 50.509752425074858 ], [ 20.680210147254268, 50.512251689874461 ], [ 20.671248708526964, 50.514276048140424 ], [ 20.651892959658383, 50.518886716099821 ], [ 20.632544224957041, 50.523808648629313 ], [ 20.629795906664523, 50.524537940049207 ], [ 20.613190770175695, 50.528708895671919 ], [ 20.593842293156889, 50.533874481035028 ], [ 20.583627447556982, 50.536744529533046 ], [ 20.574494593382369, 50.539188964681536 ], [ 20.555146615991458, 50.544625822748621 ], [ 20.540811643744998, 50.548888355465394 ], [ 20.535802449738746, 50.550315510964019 ], [ 20.516455232410536, 50.556053797862489 ], [ 20.500783965935575, 50.560980411769712 ], [ 20.497112871215464, 50.56209214775707 ], [ 20.477766699690061, 50.568165231564542 ], [ 20.463113274755404, 50.57302900585838 ], [ 20.458424782415857, 50.574535634382912 ], [ 20.439079974166841, 50.580980823154889 ], [ 20.427478296391701, 50.585040375304956 ], [ 20.419737424802126, 50.587675127265548 ], [ 20.400394335190043, 50.594534477136207 ], [ 20.393647522650422, 50.597019169165655 ], [ 20.381050308830677, 50.601552261102611 ], [ 20.361709337106813, 50.608873493857317 ], [ 20.361463010553098, 50.608968814475809 ], [ 20.342363184856257, 50.616221904335468 ], [ 20.330623878505858, 50.620894120673725 ], [ 20.323019608832155, 50.623875201994714 ], [ 20.303676027112179, 50.63175352122034 ], [ 20.301180179684479, 50.632795603673316 ], [ 20.284329356576823, 50.639753898737865 ], [ 20.272874016932079, 50.644677145362465 ], [ 20.264983913681419, 50.648042731449301 ], [ 20.245793305930821, 50.656538640138308 ], [ 20.245638991952227, 50.656606681311487 ], [ 20.226290145910763, 50.665288066955291 ], [ 20.21961169135049, 50.668384363469698 ], [ 20.206941605528701, 50.674257569414678 ], [ 20.194478013712082, 50.68021340008702 ], [ 20.18759299216617, 50.683514220241207 ], [ 20.170320533436421, 50.692027152592814 ], [ 20.168243939366885, 50.693057493309475 ], [ 20.148893214160566, 50.702851386971993 ], [ 20.146999139634872, 50.703827610603518 ], [ 20.129541107803018, 50.712920918160393 ], [ 20.124475569029155, 50.71561564841295 ], [ 20.110188623945408, 50.723322974600762 ], [ 20.102784515418488, 50.727391403471749 ], [ 20.09083570672788, 50.734072802749282 ], [ 20.081887205524851, 50.739155703337453 ], [ 20.071482402824383, 50.745191241713798 ], [ 20.061752354462925, 50.750909262548149 ], [ 20.05212886492906, 50.756705383702887 ], [ 20.042355651272796, 50.76265269607881 ], [ 20.032775357671849, 50.768649417626676 ], [ 20.023679335476128, 50.774386530693874 ], [ 20.013422265997978, 50.781065681324662 ], [ 20.005711865342484, 50.786111214409381 ], [ 19.994070106130735, 50.794005955704009 ], [ 19.988447678183533, 50.797827124247625 ], [ 19.97471953930684, 50.807533042456896 ], [ 19.971887043250192, 50.809534572436867 ], [ 19.956003529096751, 50.821234077309192 ], [ 19.955371300336335, 50.82171835462205 ], [ 19.940663451432009, 50.832926995203316 ], [ 19.936026278514426, 50.83664683105156 ], [ 19.926017656371958, 50.84461234518313 ], [ 19.9166863795854, 50.852462299508225 ], [ 19.912087046609081, 50.856290227215027 ], [ 19.898819635911121, 50.867961299655157 ], [ 19.897353472039526, 50.869318765212938 ], [ 19.886045692602494, 50.879627078923107 ], [ 19.878030733783213, 50.887453121866926 ], [ 19.874032587429106, 50.891285726789789 ], [ 19.862608255557884, 50.902938751431414 ], [ 19.858722372334551, 50.907178955157747 ], [ 19.851773072433154, 50.914586324378696 ], [ 19.841663073454026, 50.926227630562934 ], [ 19.839435169981744, 50.928980848240826 ], [ 19.832038090223193, 50.937864571398372 ], [ 19.823158733124266, 50.949495431334796 ], [ 19.820181953619329, 50.953730726230191 ], [ 19.814807952134117, 50.961121896392825 ], [ 19.807105091198419, 50.972743256501325 ], [ 19.80098585952852, 50.98297987188878 ], [ 19.800128224690276, 50.984359106418111 ], [ 19.79357778023051, 50.995971612917955 ], [ 19.787772149821595, 51.007578702296911 ], [ 19.782681808231008, 51.019180684754275 ], [ 19.781916513133115, 51.021187705460761 ], [ 19.778070526315982, 51.030779228185104 ], [ 19.774127335239157, 51.042373138230381 ], [ 19.770882326615329, 51.053962285255672 ], [ 19.768326082820085, 51.065546790559949 ], [ 19.766454574884254, 51.077126726962184 ], [ 19.765269172661434, 51.088702119582841 ], [ 19.764776727527622, 51.100272945675592 ], [ 19.76498973020129, 51.11183913348826 ], [ 19.765926547761513, 51.123400560101054 ], [ 19.767611745565674, 51.134957048155933 ], [ 19.770076501574501, 51.146508361352325 ], [ 19.773359122634659, 51.158054198538366 ], [ 19.777505674613568, 51.169594186173683 ], [ 19.782570741004069, 51.181127868872402 ], [ 19.784689180643795, 51.185240909220767 ], [ 19.788423077254986, 51.192656013489255 ], [ 19.795172169453785, 51.204177759434707 ], [ 19.803004009700306, 51.215691677187671 ], [ 19.805064494841417, 51.218398015503453 ], [ 19.811671579538633, 51.227199264877093 ], [ 19.821454482044498, 51.238698376571008 ], [ 19.825312587676297, 51.242795266170369 ], [ 19.832221133595262, 51.250189670487018 ], [ 19.844190717895508, 51.261671296939248 ], [ 19.845502301027043, 51.262833401442485 ], [ 19.857119666882134, 51.27314467298519 ], [ 19.865656490063188, 51.280040490797496 ], [ 19.871322324018557, 51.284607144242891 ], [ 19.885788869120937, 51.29532612765518 ], [ 19.886783253633659, 51.296058367076526 ], [ 19.903400326097142, 51.307498634040336 ], [ 19.905905200434095, 51.309113075293226 ], [ 19.921321307809613, 51.318926293641312 ], [ 19.926010173084126, 51.321733198960359 ], [ 19.940627540560957, 51.330340097541487 ], [ 19.9461065514331, 51.333396059652785 ], [ 19.961377431425497, 51.341738885162897 ], [ 19.966196176685695, 51.344249558456362 ], [ 19.983654046066359, 51.353121195936161 ], [ 19.986280305507922, 51.354402122203908 ], [ 20.0063599721393, 51.363943242210141 ], [ 20.007529591539996, 51.364485542414108 ], [ 20.02643643568398, 51.372965363644887 ], [ 20.033059280194259, 51.375830465103604 ], [ 20.046509529471258, 51.381491229067827 ], [ 20.060518944216422, 51.387152391863921 ], [ 20.066579228826019, 51.389547965315003 ], [ 20.086646229267313, 51.397191071480421 ], [ 20.090059609097004, 51.398448567281527 ], [ 20.106711697113042, 51.404491477791737 ], [ 20.121886678233835, 51.409715458365049 ], [ 20.12677350738532, 51.411381122207509 ], [ 20.146833870523999, 51.417970005442584 ], [ 20.156361174586742, 51.42094764878253 ], [ 20.166891627002546, 51.424228166642102 ], [ 20.186946544461318, 51.430163481462863 ], [ 20.193936011300245, 51.432138199095 ], [ 20.206999929699339, 51.435841695986056 ], [ 20.227049885915381, 51.441204679269809 ], [ 20.235206134775151, 51.443277871044209 ], [ 20.247098141774817, 51.446331160537127 ], [ 20.267143513993716, 51.451189659628106 ], [ 20.281046974918308, 51.454353211943989 ], [ 20.287185461814019, 51.455773523591397 ], [ 20.307226538226345, 51.460184791792578 ], [ 20.327262325883993, 51.464279045520755 ], [ 20.332761948811232, 51.465344066782933 ], [ 20.347297566147468, 51.4682314614818 ], [ 20.367329393019077, 51.471952418209987 ], [ 20.387356211224489, 51.475399400513375 ], [ 20.392401199048571, 51.47621835479881 ], [ 20.407382682361796, 51.478735592596948 ], [ 20.427405793248045, 51.481869149856756 ], [ 20.447424179801047, 51.484765430188467 ], [ 20.463488860458504, 51.486920080364825 ], [ 20.467439110601678, 51.487473691350154 ], [ 20.487453954906513, 51.490105059553585 ], [ 20.50746435647261, 51.492530534843567 ], [ 20.527470472419711, 51.494762932834035 ], [ 20.54747245735313, 51.496814325741923 ], [ 20.552974861798347, 51.497336626939301 ], [ 20.567473911365898, 51.498796584354587 ], [ 20.587472645442194, 51.500649320183619 ], [ 20.607467509419596, 51.502344687104568 ], [ 20.627458647521429, 51.503892541010863 ], [ 20.647446198446598, 51.505302102317096 ], [ 20.667430294535897, 51.506581971712102 ], [ 20.677819906897462, 51.507184498267335 ], [ 20.687412805264223, 51.507787353218966 ], [ 20.707393783651824, 51.508922272551139 ], [ 20.727371477018245, 51.509942833764335 ], [ 20.747345982674915, 51.510855499588409 ], [ 20.767317383735286, 51.511666071709683 ], [ 20.78728574677179, 51.512379668132262 ], [ 20.807251119076856, 51.513000692002088 ], [ 20.827213525469315, 51.513532791083001 ], [ 20.847172964581187, 51.513978806982173 ], [ 20.867129404552092, 51.514340713113285 ], [ 20.88708277805133, 51.514619540291719 ], [ 20.907032976537963, 51.514815288717777 ], [ 20.92680365358185, 51.514925775393422 ], [ 20.926979854976331, 51.514927093077318 ], [ 20.946924198152807, 51.514975925284062 ], [ 20.966864474375232, 51.514928138904438 ], [ 20.986800314304894, 51.514778145809835 ], [ 21.00673126044569, 51.514518572851962 ], [ 21.026656754452013, 51.514140063248995 ], [ 21.046576122899364, 51.513631055034409 ], [ 21.066488561386002, 51.512977535117777 ], [ 21.085050008940023, 51.512218808375529 ], [ 21.086393201666311, 51.512164623876011 ], [ 21.106290422407387, 51.511205025976004 ], [ 21.126177799478942, 51.51005078134822 ], [ 21.146053836816254, 51.508675440214908 ], [ 21.165916792763301, 51.507048332984759 ], [ 21.185764647935855, 51.50513408496991 ], [ 21.205595069526272, 51.502892081550968 ], [ 21.225405371726684, 51.500275879581245 ], [ 21.241901691380939, 51.497756139983899 ], [ 21.2451935598734, 51.497254693213982 ], [ 21.264961092253905, 51.493868407993695 ], [ 21.284698527170445, 51.489937553421818 ], [ 21.304401178653976, 51.485382964672027 ], [ 21.306126144134716, 51.484941673928276 ], [ 21.324073541402811, 51.480308571295474 ], [ 21.343701275638072, 51.474447480692142 ], [ 21.349516591250225, 51.472511200742424 ], [ 21.363286409237922, 51.467858007565724 ], [ 21.382815600869272, 51.460301504797371 ], [ 21.382893683901454, 51.460268486741427 ], [ 21.402293719976687, 51.451893457809149 ], [ 21.410040450840924, 51.448144409905709 ], [ 21.42170583297948, 51.442371393535502 ], [ 21.4331517246884, 51.436097782680839 ], [ 21.44104690548275, 51.431666263271616 ], [ 21.453334898674854, 51.42410783436484 ], [ 21.460311739311397, 51.419707748583718 ], [ 21.471335745413523, 51.412160365878613 ], [ 21.479495126504368, 51.406427089942618 ], [ 21.487668797025584, 51.400245470321558 ], [ 21.498592020809845, 51.391760109067938 ], [ 21.502695302927954, 51.38835613689254 ], [ 21.516680637315233, 51.376487173913098 ], [ 21.517600558267318, 51.375702010593329 ], [ 21.529872350185439, 51.364633612729634 ], [ 21.536531396935299, 51.358474276733254 ], [ 21.542381637739417, 51.352793311952716 ], [ 21.554323020743961, 51.340963995892579 ], [ 21.555374902394185, 51.339927281162254 ], [ 21.565892433808003, 51.329141547169847 ], [ 21.574152122508185, 51.320462817068062 ], [ 21.577036615286968, 51.317327250965604 ], [ 21.587924085657175, 51.305517505094656 ], [ 21.592863591819285, 51.300107976188961 ], [ 21.598553260057152, 51.293712417893005 ], [ 21.60893945800531, 51.281911719702862 ], [ 21.61151585392059, 51.278994835080681 ], [ 21.619216995097293, 51.270112469923845 ], [ 21.6292331931886, 51.258318129143404 ], [ 21.630117541704021, 51.257288514598564 ], [ 21.639259458208805, 51.246522642939311 ], [ 21.648676252876523, 51.235131843365664 ], [ 21.649004122475656, 51.2347326144072 ], [ 21.658825791699087, 51.222939963798922 ], [ 21.66719664053948, 51.21261309033968 ], [ 21.668380801218298, 51.211152513163917 ], [ 21.678007584410526, 51.199362579168252 ], [ 21.685678084690974, 51.189727647126986 ], [ 21.687401995134707, 51.187577134577516 ], [ 21.696866510414004, 51.175789259734906 ], [ 21.704122964267469, 51.166522206675495 ], [ 21.706120645668019, 51.164005430370509 ], [ 21.715451728158424, 51.152219023114263 ], [ 21.722533587473453, 51.143041093937732 ], [ 21.724584619502675, 51.140436433171828 ], [ 21.733813133136188, 51.12865083545951 ], [ 21.740912978270959, 51.119339632635196 ], [ 21.742848687749845, 51.116868980639524 ], [ 21.75201204168577, 51.105083360259016 ], [ 21.759265664605209, 51.095497073139313 ], [ 21.760984701286407, 51.093301470411575 ], [ 21.770130653193824, 51.081514725690823 ], [ 21.777598400936352, 51.071627979910822 ], [ 21.779091293233083, 51.069731616462136 ], [ 21.788281625451983, 51.057942280047406 ], [ 21.79592070902202, 51.047890215843225 ], [ 21.797304571851676, 51.046156172104482 ], [ 21.806619314254569, 51.034362297331228 ], [ 21.814245084946766, 51.024487145359849 ], [ 21.815811677711821, 51.022570572439228 ], [ 21.825354770108149, 51.0107695792111 ], [ 21.832586738665906, 51.001662077677494 ], [ 21.834869942971121, 50.998968424455533 ], [ 21.844777684553378, 50.987156868487176 ], [ 21.850962838523582, 50.979684789160714 ], [ 21.854836091057905, 50.975340725403115 ], [ 21.865290637096592, 50.963513928816965 ], [ 21.869391421247418, 50.958833026098517 ], [ 21.876213281234882, 50.951674595878686 ], [ 21.887465310399723, 50.939826024284059 ], [ 21.887890330732368, 50.939375044409886 ], [ 21.899730712065342, 50.927951119331304 ], [ 21.906470236578627, 50.921457753318549 ], [ 21.912680384283117, 50.916057770865514 ], [ 21.925145227837682, 50.90527894838592 ], [ 21.926618894174837, 50.904138105290563 ], [ 21.942164438972796, 50.892176169080656 ], [ 21.943917007408999, 50.890835164781187 ], [ 21.959736408852173, 50.880160665383855 ], [ 21.962787256097325, 50.878122268046695 ], [ 21.980025484875533, 50.868073015240462 ], [ 21.981753853974844, 50.867076281247606 ], [ 22.000808890532529, 50.857544201070247 ], [ 22.004695014403545, 50.855868929985647 ], [ 22.019944233970573, 50.849372913804729 ], [ 22.036287680702284, 50.84347940537576 ], [ 22.03915459541815, 50.842456427840197 ], [ 22.058424889632402, 50.836541332406647 ], [ 22.077752258530921, 50.831565946300856 ], [ 22.081558997050397, 50.830720379867216 ], [ 22.097122091543813, 50.82729250148239 ], [ 22.116530376426894, 50.82364796633432 ], [ 22.135970245980843, 50.820518438455586 ], [ 22.155434913288811, 50.817793922814808 ], [ 22.161757808571899, 50.817001348145865 ], [ 22.174917019162145, 50.815358624196449 ], [ 22.194413037733472, 50.813155664456389 ], [ 22.213919409144786, 50.811129027220488 ], [ 22.233432360434598, 50.809220945829729 ], [ 22.252948652884708, 50.807382709555419 ], [ 22.27246549784002, 50.805573194445458 ], [ 22.291980487896968, 50.803757662990606 ], [ 22.311491540095346, 50.801906774632215 ], [ 22.32057587137486, 50.801013036328399 ], [ 22.330996167677274, 50.79998619629702 ], [ 22.350492955603624, 50.797977357378159 ], [ 22.369981178094921, 50.795871684656817 ], [ 22.3894596466114, 50.793654406841263 ], [ 22.408927329494926, 50.791313238186028 ], [ 22.428383329540978, 50.788838001386637 ], [ 22.4478268645912, 50.786220304282992 ], [ 22.45202796352666, 50.785620889003241 ], [ 22.467255771898294, 50.783433290973754 ], [ 22.486670639764629, 50.780487638876274 ], [ 22.506071399876195, 50.777385015678909 ], [ 22.525457605993068, 50.774122026150138 ], [ 22.540965996510135, 50.771379346543512 ], [ 22.54482829890155, 50.770688563186212 ], [ 22.56418148730469, 50.767061162267076 ], [ 22.583519279958516, 50.763270456206072 ], [ 22.602841406091802, 50.759315477708967 ], [ 22.61056328747777, 50.757670351369455 ], [ 22.622145209152119, 50.755164403069394 ], [ 22.64143144307684, 50.750829959674668 ], [ 22.660701584043515, 50.746333854635573 ], [ 22.669283700544842, 50.744262457431894 ], [ 22.679952387268802, 50.741637193597462 ], [ 22.69918445884074, 50.73675067828264 ], [ 22.718400131166902, 50.731706562071452 ], [ 22.720818651960663, 50.73105435203518 ], [ 22.737592908617302, 50.726425645770007 ], [ 22.75676827979316, 50.720979960483085 ], [ 22.767004597878408, 50.717996254921523 ], [ 22.775922596143197, 50.715326555621196 ], [ 22.795055240774715, 50.709460802430755 ], [ 22.809080504535732, 50.705054059225326 ], [ 22.814167889789523, 50.703406373966779 ], [ 22.833255022781735, 50.697098322896736 ], [ 22.847717997192728, 50.69221006716014 ], [ 22.852321575317202, 50.690600401157546 ], [ 22.871359988561839, 50.683823531164961 ], [ 22.88340252462671, 50.679451543183326 ], [ 22.890374571817489, 50.676823631177406 ], [ 22.909360594595967, 50.669546886779735 ], [ 22.91648930977605, 50.666769280699576 ], [ 22.928315670024514, 50.661968502519841 ], [ 22.947245163763547, 50.654156472379022 ], [ 22.966131321025497, 50.645903339752273 ], [ 22.975816100087979, 50.641610001669342 ], [ 22.984984971357463, 50.637342825338074 ], [ 23.002428071047227, 50.629123727651134 ], [ 23.00380285601798, 50.628440641747417 ], [ 23.02256993907314, 50.619025232301858 ], [ 23.027164881856461, 50.616696113842906 ], [ 23.04128793599838, 50.609123183353191 ], [ 23.050161872955428, 50.604323663372739 ], [ 23.0599530184816, 50.598696237785006 ], [ 23.071518636365692, 50.592003939727199 ], [ 23.078556946053464, 50.58765573854636 ], [ 23.091315642655918, 50.579735032341723 ], [ 23.097089311428558, 50.575889493726578 ], [ 23.109624728250342, 50.567515214941139 ], [ 23.115537022136895, 50.56325627291799 ], [ 23.126509990565157, 50.555342930687154 ], [ 23.133883651404247, 50.549578915518381 ], [ 23.14202853945401, 50.543216779659531 ], [ 23.152108629538414, 50.534635745962362 ], [ 23.156231146393825, 50.531135507692937 ], [ 23.169153388433603, 50.519098334244255 ], [ 23.170176352910282, 50.518037896566952 ], [ 23.180793675506408, 50.507105756361369 ], [ 23.188000182798341, 50.498825747438651 ], [ 23.191222327605896, 50.495155635731933 ], [ 23.200411433619038, 50.483249319412792 ], [ 23.205462479551361, 50.475703581005533 ], [ 23.208390690075856, 50.471386037865805 ], [ 23.215120342222225, 50.459567494347581 ], [ 23.220632241482043, 50.447792760574345 ], [ 23.22210942226339, 50.44361935975418 ], [ 23.224841318715004, 50.436065115399408 ], [ 23.227727257110185, 50.424385451904293 ], [ 23.229252258027007, 50.412755257078452 ], [ 23.229344020646863, 50.40117722969029 ], [ 23.227920814894588, 50.389654361280769 ], [ 23.224895401877916, 50.378189783200526 ], [ 23.220181433769671, 50.366786521906945 ], [ 23.214369975642676, 50.356573655983574 ], [ 23.213694196025145, 50.355447459807834 ], [ 23.205289568828814, 50.344177534033982 ], [ 23.195055703063105, 50.332973156407704 ], [ 23.192621357169287, 50.330632475019421 ], [ 23.182985515103113, 50.321834111208069 ], [ 23.171580024597727, 50.312479977195139 ], [ 23.169377075382823, 50.310749130610461 ], [ 23.154644566687459, 50.299702857004831 ], [ 23.150774169954897, 50.296838636775171 ], [ 23.139532212134029, 50.288668324769972 ], [ 23.130004407306945, 50.28145089868741 ], [ 23.124952257442086, 50.277612963430606 ], [ 23.111913560599245, 50.266501223329605 ], [ 23.109029408696355, 50.263521278552517 ], [ 23.10138631389848, 50.255299322626549 ], [ 23.09396931653519, 50.243986798984558 ], [ 23.090045812159921, 50.232550715318617 ], [ 23.089788347184186, 50.220985316225594 ], [ 23.093110287106054, 50.209293653922046 ], [ 23.099711834843077, 50.197485988288896 ], [ 23.103010926233033, 50.193548219479347 ], [ 23.109485237383687, 50.185565548888896 ], [ 23.120780918292322, 50.174718887150476 ], [ 23.121958642976498, 50.173548277971918 ], [ 23.137066060787831, 50.161435633205443 ], [ 23.138909089640833, 50.160187371951402 ], [ 23.154449470806664, 50.14923938829029 ], [ 23.157192077607338, 50.147561946356241 ], [ 23.173817946886967, 50.136968970732063 ], [ 23.175557622407361, 50.135991124154245 ], [ 23.193985811129163, 50.125234717933211 ], [ 23.194987551071645, 50.124630021241316 ], [ 23.212472891924381, 50.115240156493968 ], [ 23.217852169022169, 50.112225394828663 ], [ 23.23098408167785, 50.105604017252098 ], [ 23.242065554446782, 50.099766743085809 ], [ 23.249509134999787, 50.096206273951552 ], [ 23.267393596649779, 50.087261825982615 ], [ 23.248722833033824, 50.076372820357186 ], [ 23.248343355638152, 50.064811688724468 ], [ 23.246649812313706, 50.063908090397256 ], [ 23.229166958802079, 50.05393818765495 ], [ 23.226296263217819, 50.052405299118547 ], [ 23.210042771746441, 50.043059692944347 ], [ 23.209779826277398, 50.031494274287326 ], [ 23.204901397243873, 50.028886494852422 ], [ 23.190687315930436, 50.020611550391301 ], [ 23.190428989153684, 50.009045951515077 ], [ 23.183527004511557, 50.005352506089999 ], [ 23.171297201771516, 49.998161568040757 ], [ 23.163213058665235, 49.993832094793504 ], [ 23.15211360097047, 49.987275956784202 ], [ 23.151779225592961, 49.97571306764938 ], [ 23.1418854570645, 49.970408753535956 ], [ 23.132489152575914, 49.964828136423087 ], [ 23.121605530638725, 49.9589885218601 ], [ 23.113126199843997, 49.953942654537606 ], [ 23.112671274606882, 49.942384003217676 ], [ 23.100331069732018, 49.935755744500305 ], [ 23.093190025089662, 49.931499501736404 ], [ 23.092658727037552, 49.919943501629845 ], [ 23.079088369665218, 49.912646663707541 ], [ 23.073068394452051, 49.909059582334876 ], [ 23.058864712274694, 49.9014161658788 ], [ 23.053419161338759, 49.898174482970816 ], [ 23.052783476663262, 49.886622023269609 ], [ 23.037672797755533, 49.878481791849296 ], [ 23.0330502306347, 49.875736518296627 ], [ 23.017481371137904, 49.867342834902708 ], [ 23.013274402442939, 49.864849197215307 ], [ 23.012560463254214, 49.853299297495298 ], [ 22.996336337544324, 49.844542950084808 ], [ 22.99272595428484, 49.84241060859511 ], [ 22.976174753099663, 49.833470681953273 ], [ 22.972863063545887, 49.831519565087454 ], [ 22.972094504292603, 49.819971357064759 ], [ 22.971313081941307, 49.808423576950389 ], [ 22.954123216264573, 49.799126099193209 ], [ 22.95139921135581, 49.797530742308723 ], [ 22.933995588644891, 49.788110227267389 ], [ 22.931469893105572, 49.786635074058886 ], [ 22.913878232022128, 49.777105269154156 ], [ 22.911528118166245, 49.775736462350913 ], [ 22.91070646166477, 49.764189733389593 ], [ 22.909877427191688, 49.752643239310885 ], [ 22.89191004348428, 49.742896734474719 ], [ 22.889914386486936, 49.741741759099952 ], [ 22.871824090751879, 49.731920857617368 ], [ 22.869946312786155, 49.73083706858035 ], [ 22.869102707997211, 49.71929083100833 ], [ 22.850829945265371, 49.709360276108207 ], [ 22.849128886379869, 49.708382839181731 ], [ 22.830768748432803, 49.698396957983341 ], [ 22.829154000215347, 49.697471498118993 ], [ 22.81071700859242, 49.687435941112817 ], [ 22.809179214494289, 49.68655676808747 ], [ 22.790674658965266, 49.676476528294238 ], [ 22.78920554918378, 49.675638614905793 ], [ 22.788354155755858, 49.664092168583849 ], [ 22.787500090465425, 49.652545794130617 ], [ 22.768851400788915, 49.642373372999963 ], [ 22.767530262161337, 49.641623899043807 ], [ 22.748838229325571, 49.631419846455522 ], [ 22.747564120847485, 49.630698497174699 ], [ 22.746710701997998, 49.619151854802524 ], [ 22.727950683034173, 49.608899806187345 ], [ 22.726750927756655, 49.608222744663635 ], [ 22.725898055853918, 49.596675952387116 ], [ 22.707083353300646, 49.586383106547629 ], [ 22.705945969304803, 49.585743093228757 ], [ 22.705094436960717, 49.574196125140865 ], [ 22.686236100173431, 49.563868470227014 ], [ 22.685151124354057, 49.563259484755925 ], [ 22.684301584126093, 49.551712319848086 ], [ 22.665408803094362, 49.54135484400755 ], [ 22.664367942375794, 49.540771872914277 ], [ 22.645461720492186, 49.530398943819712 ], [ 22.644441126827818, 49.529827830036965 ], [ 22.645373589422316, 49.529215389109169 ], [ 22.662673219375336, 49.517677121194446 ], [ 22.66182487263395, 49.506129751784442 ], [ 22.662728453317126, 49.505534777407746 ], [ 22.681799875804881, 49.504927801657331 ], [ 22.699107360911555, 49.493367736201641 ], [ 22.699999421610787, 49.492779156521109 ], [ 22.717309518499118, 49.481209065358478 ], [ 22.716446658664154, 49.469662415934785 ], [ 22.715583355842671, 49.458115764362397 ], [ 22.714719667023623, 49.446569108785503 ], [ 22.713855645733041, 49.435022447460895 ], [ 22.714694414839261, 49.434466046020212 ], [ 22.732029128498816, 49.422862083086095 ], [ 22.73116021402512, 49.411315650523761 ], [ 22.731983665224071, 49.410768119461203 ], [ 22.749319444594072, 49.399152877835917 ], [ 22.748445785679252, 49.387606670832618 ], [ 22.747572000210699, 49.376060451545662 ], [ 22.746698128221507, 49.364514218657703 ], [ 22.745824207458931, 49.352967970926485 ], [ 22.744950273515794, 49.34142170718053 ], [ 22.74574249708483, 49.340891955998124 ], [ 22.763077668884787, 49.329257462478687 ], [ 22.762199394753832, 49.317711412877742 ], [ 22.761321199670022, 49.306165344279734 ], [ 22.760443112683561, 49.294619255723333 ], [ 22.759565161133871, 49.283073146303572 ], [ 22.758687370734449, 49.271527015169099 ], [ 22.757809765652915, 49.259980861519487 ], [ 22.756932368586742, 49.248434684602756 ], [ 22.737942424250406, 49.23797481511221 ], [ 22.718975119850544, 49.238587538535278 ], [ 22.718122683176979, 49.238117305083904 ], [ 22.717254593624457, 49.226570581216386 ], [ 22.718032533738981, 49.22604707489775 ], [ 22.736995011994953, 49.225434011263403 ], [ 22.754301631889426, 49.213796007407218 ], [ 22.735327197994255, 49.203336025019745 ], [ 22.734472513108084, 49.202864948068004 ], [ 22.733600851352922, 49.191318395624116 ], [ 22.734381376309649, 49.190792112253405 ], [ 22.753330026455906, 49.190176736174045 ], [ 22.770616871098852, 49.178539274295446 ], [ 22.751657392773744, 49.168084070182253 ], [ 22.750798043157438, 49.167610740658944 ], [ 22.74992297319513, 49.156064355607583 ], [ 22.750708144372524, 49.155534015577295 ], [ 22.769642992445583, 49.15491635219351 ], [ 22.770505502252, 49.155393159076617 ], [ 22.789459374619639, 49.165842878613859 ], [ 22.806725261420461, 49.154203079288493 ], [ 22.805837420696001, 49.142657419613016 ], [ 22.806624750728659, 49.142124804941282 ], [ 22.823874219927085, 49.130485608345886 ], [ 22.824663457261348, 49.129951301150129 ], [ 22.841902135490454, 49.118311176211684 ], [ 22.842693323181447, 49.117775156523329 ], [ 22.859921190766389, 49.106134126316491 ], [ 22.860714355457276, 49.105596383915653 ], [ 22.879627798181001, 49.104961553418725 ], [ 22.896840341038889, 49.093316718638413 ], [ 22.895932803817104, 49.08177218594367 ], [ 22.877005781506629, 49.071347951147203 ], [ 22.876125457132535, 49.070864850155424 ], [ 22.875223160947574, 49.059319997185121 ], [ 22.874321326256467, 49.047775112476984 ], [ 22.875127302753324, 49.047227675950104 ], [ 22.892307241247043, 49.03559373877647 ], [ 22.891402028304061, 49.024049046792761 ], [ 22.890497296551654, 49.012504322373886 ], [ 22.871618711121013, 49.002089543698112 ], [ 22.852744115974691, 49.002722597529342 ], [ 22.835572495512867, 49.014345887923142 ], [ 22.834756569888295, 49.014895982698498 ] ] ], [ [ [ 16.571341607652677, 50.163278160946227 ], [ 16.570985922672502, 50.163477115970217 ], [ 16.570093197762205, 50.175029528035068 ], [ 16.569226746985692, 50.186582467082644 ], [ 16.568386101065062, 50.198135923762251 ], [ 16.567570877859968, 50.209689890519719 ], [ 16.566780783185539, 50.221244361617835 ], [ 16.548479991243351, 50.231371898164134 ], [ 16.546652516939314, 50.232391916058837 ], [ 16.528504696187397, 50.242442471838814 ], [ 16.52654321104847, 50.243536425959256 ], [ 16.508519285271468, 50.253526433456187 ], [ 16.506453039666091, 50.254677905692795 ], [ 16.505737121383643, 50.266233581146189 ], [ 16.487918152932732, 50.276128454981325 ], [ 16.485683751622808, 50.277372315391382 ], [ 16.467906596232204, 50.287253512056367 ], [ 16.46565117396398, 50.288508083604789 ], [ 16.464996610085432, 50.300064860911171 ], [ 16.447266280138102, 50.309941632065588 ], [ 16.445005180933784, 50.311198025524746 ], [ 16.444397309485435, 50.322755713043279 ], [ 16.42660242782032, 50.332692433746558 ], [ 16.407179481242398, 50.332300233970493 ], [ 16.387756633331701, 50.331911066658904 ], [ 16.385752640378676, 50.3330222633465 ], [ 16.385183025737035, 50.344580568239152 ], [ 16.367050233852833, 50.354733096295917 ], [ 16.365299855951282, 50.355702633151296 ], [ 16.366938655593799, 50.356748976032939 ], [ 16.38413629118757, 50.367699202211782 ], [ 16.365760646053353, 50.378017979165477 ], [ 16.364307644287688, 50.3788223591459 ], [ 16.345667165012532, 50.389306687014994 ], [ 16.326220860327517, 50.38892610242911 ], [ 16.306774590252285, 50.388549390347386 ], [ 16.288912562127628, 50.377088315675792 ], [ 16.287994701961619, 50.376501296542813 ], [ 16.287012386333632, 50.377043979738346 ], [ 16.267882134342578, 50.387807564508577 ], [ 16.267257341891426, 50.38815245975119 ], [ 16.26683434007245, 50.39971375672539 ], [ 16.257019368029074, 50.411053824237776 ], [ 16.266365745504423, 50.414158942236085 ], [ 16.28550473911379, 50.42008880417054 ], [ 16.29769075210671, 50.423577435904711 ], [ 16.304683503141739, 50.425401303038988 ], [ 16.323906965584044, 50.429996175145476 ], [ 16.343158759447597, 50.434150440122529 ], [ 16.355221557023889, 50.436471299970336 ], [ 16.362444366959263, 50.437756074671576 ], [ 16.381765235566071, 50.440774956326663 ], [ 16.401112200855316, 50.443361418215162 ], [ 16.420485099050435, 50.445508864467499 ], [ 16.439883693229731, 50.44721181851132 ], [ 16.459307678067731, 50.448465876629108 ], [ 16.478756686049298, 50.449267632179939 ], [ 16.498230294991714, 50.449614571973584 ], [ 16.517728036690777, 50.449504946719756 ], [ 16.537249406494919, 50.44893761781136 ], [ 16.556793873605944, 50.447911882931187 ], [ 16.576360891906674, 50.446427283090912 ], [ 16.595949911123117, 50.444483393722365 ], [ 16.615413777685418, 50.442097505565762 ], [ 16.615560464721714, 50.442078079062256 ], [ 16.635203491501944, 50.438980320921047 ], [ 16.654867857950435, 50.435397722887714 ], [ 16.672807005082142, 50.431689555904988 ], [ 16.67455447912457, 50.431299139296662 ], [ 16.694278050779573, 50.426368663369729 ], [ 16.713999508288296, 50.420936075381832 ], [ 16.714021957284899, 50.42092936271802 ], [ 16.733810592816866, 50.414456594552647 ], [ 16.746403557482605, 50.409998107738637 ], [ 16.753630503823135, 50.407206794672632 ], [ 16.773490714618156, 50.398966116636494 ], [ 16.773526600934648, 50.398950179228677 ], [ 16.793411909436024, 50.389261527080016 ], [ 16.796212534565029, 50.387811962721187 ], [ 16.813397718464163, 50.377972644906556 ], [ 16.815652318931658, 50.376608419315303 ], [ 16.832304563225961, 50.365349716166563 ], [ 16.833475548109806, 50.364452131457426 ], [ 16.846397103088702, 50.354041260791561 ], [ 16.853706542244122, 50.347278421402429 ], [ 16.858440663968398, 50.34269338414633 ], [ 16.868440894139646, 50.331306818248017 ], [ 16.87422435903628, 50.323345786107524 ], [ 16.876636034677862, 50.319886434944081 ], [ 16.882909725352835, 50.30843048896655 ], [ 16.887521641966764, 50.296944004471065 ], [ 16.890428751974547, 50.285426391217015 ], [ 16.891574469698018, 50.273876743299688 ], [ 16.890888440704238, 50.26229382833192 ], [ 16.888286269373744, 50.250676072114906 ], [ 16.883669198485777, 50.239021538575557 ], [ 16.87838730983523, 50.229809889018767 ], [ 16.876799938848919, 50.227325641524011 ], [ 16.867015143171781, 50.215575790901624 ], [ 16.859928320056678, 50.20876297042733 ], [ 16.840258732392915, 50.214894288481638 ], [ 16.821737730342299, 50.203164764964484 ], [ 16.82206802039261, 50.191600279802053 ], [ 16.821928289479605, 50.191511856934909 ], [ 16.802563756981925, 50.191048279496648 ], [ 16.783944344217218, 50.179308230648054 ], [ 16.784186177745816, 50.169270580295141 ], [ 16.778533301064201, 50.167634049473989 ], [ 16.765051831855384, 50.164072332786837 ], [ 16.74587253746548, 50.159916492830966 ], [ 16.72665681245682, 50.156597532354461 ], [ 16.713230486031232, 50.154795274806972 ], [ 16.7074062301743, 50.154061766895467 ], [ 16.688123235912702, 50.152239112947207 ], [ 16.66881404961228, 50.150984106751132 ], [ 16.649480636669082, 50.150242734452107 ], [ 16.630124720148679, 50.149967596866041 ], [ 16.610747802983639, 50.150117208199234 ], [ 16.591351188981953, 50.150655349374958 ], [ 16.591216269559826, 50.152327569831684 ], [ 16.571341607652677, 50.163278160946227 ] ] ] ] } }
]
}
