{
"type": "FeatureCollection",
"name": "zasieg_JD_cykl_1_epsg4326",
"crs": { "type": "name", "properties": { "name": "urn:ogc:def:crs:OGC:1.3:CRS84" } },
"features": [
{ "type": "Feature", "properties": { "gatunek": "JD", "cykl": 1, "pokrycie": 0.95, "prog_kde": 2.5382819010159909e-12 }, "geometry": { "type": "MultiPolygon", "coordinates": [ [ [ [ 22.834756840371533, 49.014899498835419 ], [ 22.815876650406288, 49.015527479221454 ], [ 22.79869618147692, 49.027142662125719 ], [ 22.797875326614889, 49.027695484444124 ], [ 22.780683595755484, 49.039310111363285 ], [ 22.779865214168645, 49.039860860744234 ], [ 22.762662193395894, 49.051474940350637 ], [ 22.761846307092835, 49.052023607490646 ], [ 22.760948695102446, 49.051530871284967 ], [ 22.74208285798619, 49.041095781505589 ], [ 22.723190710578709, 49.041708527859726 ], [ 22.704297920848916, 49.042318125072988 ], [ 22.703391811772132, 49.041819865476157 ], [ 22.684550529669064, 49.031380069775693 ], [ 22.66733863038985, 49.042972763926414 ], [ 22.666510426098657, 49.043527852236203 ], [ 22.647615726925618, 49.044127972129473 ], [ 22.630387789112742, 49.055717378348419 ], [ 22.631225239552364, 49.067265738479023 ], [ 22.630403816283511, 49.067815439264088 ], [ 22.613155279475766, 49.079408262684424 ], [ 22.612337298863267, 49.079955252463797 ], [ 22.595076486186908, 49.091548139374915 ], [ 22.594261965803984, 49.092092420253209 ], [ 22.57534730035168, 49.092680683799983 ], [ 22.574457442511168, 49.092189281383554 ], [ 22.555606413254363, 49.081719385150585 ], [ 22.538331948662705, 49.09330367239405 ], [ 22.537516110823898, 49.093847632252185 ], [ 22.536626987498327, 49.09335598604212 ], [ 22.517782732336975, 49.082879503632569 ], [ 22.498869973824675, 49.083454758761711 ], [ 22.479956607367495, 49.084026805754924 ], [ 22.462661703730479, 49.095601129610337 ], [ 22.461846382572354, 49.09614309610307 ], [ 22.44292743744489, 49.096708932954215 ], [ 22.424007893365626, 49.097271551593053 ], [ 22.405087753518174, 49.097830949283185 ], [ 22.387761342838182, 49.109400416074742 ], [ 22.388544610866376, 49.120951645032719 ], [ 22.387741078400229, 49.121484238578248 ], [ 22.370392843555575, 49.133057781694632 ], [ 22.371173355515861, 49.144609151252034 ], [ 22.370378359804345, 49.145135870838807 ], [ 22.351438930817633, 49.145686515496585 ], [ 22.350582170675715, 49.145209178280979 ], [ 22.331723750202631, 49.134684259262137 ], [ 22.312787541292668, 49.135228216399476 ], [ 22.293850755398129, 49.135768948137731 ], [ 22.274913395937681, 49.136306454994362 ], [ 22.257515716178652, 49.147875152903296 ], [ 22.256733092550306, 49.148391378039285 ], [ 22.237790210207368, 49.148922682799423 ], [ 22.220370171310783, 49.160492105433946 ], [ 22.221117509254437, 49.172045132020955 ], [ 22.221865724226852, 49.183598115807584 ], [ 22.221096295574835, 49.184105436487741 ], [ 22.22027064341037, 49.183642649705064 ], [ 22.201393168934324, 49.173079037019107 ], [ 22.182439824877743, 49.173601201369898 ], [ 22.164983096514927, 49.185172587357968 ], [ 22.164223081896154, 49.185672711732416 ], [ 22.145264239025877, 49.18618872764214 ], [ 22.127785252009577, 49.197760697527094 ], [ 22.127033695870939, 49.198254867436553 ], [ 22.108069364652092, 49.198764759621987 ], [ 22.08910449391254, 49.199271464001612 ], [ 22.071594649186249, 49.210843754530757 ], [ 22.070855211236857, 49.211329370961899 ], [ 22.051884869559117, 49.211829988192484 ], [ 22.034353180271435, 49.223402526226209 ], [ 22.035061912849081, 49.234957392552204 ], [ 22.035771594625594, 49.246512215043289 ], [ 22.036482238622757, 49.258066993354866 ], [ 22.035747989709318, 49.258549894742771 ], [ 22.018196812333088, 49.270119984928215 ], [ 22.018905127865047, 49.281674872679126 ], [ 22.018169951919965, 49.282158829360576 ], [ 22.000608212094434, 49.293725250708192 ], [ 21.999873337045805, 49.294209151046438 ], [ 21.982303138599232, 49.305772856985698 ], [ 21.981567821483289, 49.306257209413104 ], [ 21.963989932778922, 49.317817687355664 ], [ 21.964689484119056, 49.329372982381358 ], [ 21.965390110751976, 49.340928230717566 ], [ 21.964642545311136, 49.34142160078742 ], [ 21.945620436133964, 49.341906347378007 ], [ 21.926597814309797, 49.342387936511692 ], [ 21.907574683342144, 49.342866371095447 ], [ 21.889970600440119, 49.354413242782087 ], [ 21.889228560494992, 49.354902624326073 ], [ 21.871620219133973, 49.366443990896428 ], [ 21.870873507264065, 49.366936665849089 ], [ 21.851839980037752, 49.367406183253706 ], [ 21.834220389651616, 49.378940690306294 ], [ 21.834895347308265, 49.390497089312227 ], [ 21.834136585061326, 49.390998138644775 ], [ 21.833328739668406, 49.390535521770261 ], [ 21.814432075717683, 49.379898589231928 ], [ 21.813638292020933, 49.379443830336626 ], [ 21.794736431544333, 49.368795801799919 ], [ 21.793956201316671, 49.36834861713416 ], [ 21.775049647207137, 49.357689770339327 ], [ 21.757393013847715, 49.369227175962372 ], [ 21.758049439479112, 49.380784365644629 ], [ 21.757312241099843, 49.381270014415804 ], [ 21.739658597455811, 49.392794778766692 ], [ 21.738914596409458, 49.393285075264224 ], [ 21.721259662429873, 49.404802375859042 ], [ 21.72050799690674, 49.40529787738145 ], [ 21.702852632043115, 49.41680715352107 ], [ 21.702092436022802, 49.417308419041674 ], [ 21.701286019236587, 49.416843787454681 ], [ 21.682405961710888, 49.406184561525627 ], [ 21.663354238796739, 49.406623132151523 ], [ 21.645674660484616, 49.41813042887636 ], [ 21.646309483691542, 49.42968851364931 ], [ 21.645546125987583, 49.430191470457913 ], [ 21.627876296874586, 49.441681723178682 ], [ 21.627102745874829, 49.442191481444084 ], [ 21.626283995172351, 49.441717917992456 ], [ 21.607422489200601, 49.431053452609952 ], [ 21.588359983333486, 49.431479645568032 ], [ 21.569297023668017, 49.431902639682953 ], [ 21.550233613635204, 49.432322435703014 ], [ 21.531169756704166, 49.432739035136464 ], [ 21.530386976445751, 49.43228481577362 ], [ 21.529805115814646, 49.420725100526738 ], [ 21.510923965296811, 49.410017041231363 ], [ 21.493176518285107, 49.421521118604019 ], [ 21.492454242689863, 49.421994575875004 ], [ 21.491694121874794, 49.421553089445069 ], [ 21.472811941332861, 49.410833696106188 ], [ 21.453755280391881, 49.411237267039084 ], [ 21.434698191665564, 49.411637674578493 ], [ 21.415640678835711, 49.412034925494353 ], [ 21.397848700169547, 49.423538290063568 ], [ 21.397146452492844, 49.423997311147879 ], [ 21.378083627894522, 49.42438838583989 ], [ 21.360281904571924, 49.435883809481574 ], [ 21.359575525699803, 49.436345259034354 ], [ 21.341773643468251, 49.447832452923087 ], [ 21.341058433122289, 49.448299653897195 ], [ 21.321985417062187, 49.448681520457477 ], [ 21.302911997810405, 49.449060265297639 ], [ 21.283838179148688, 49.449435898658834 ], [ 21.283103245681485, 49.449006138587997 ], [ 21.264230864845263, 49.438238627453607 ], [ 21.263513600723194, 49.43781930553925 ], [ 21.24463248944204, 49.427038577419438 ], [ 21.225566462361474, 49.42740482011871 ], [ 21.22486969314933, 49.426997520254623 ], [ 21.224357621850032, 49.415435306674112 ], [ 21.223845246254552, 49.403873078150951 ], [ 21.204944297598495, 49.393061709942423 ], [ 21.185890936847059, 49.393421679672805 ], [ 21.167981979386102, 49.404934497603818 ], [ 21.16734648753474, 49.405347134182165 ], [ 21.149435492514382, 49.416852907254743 ], [ 21.148793059326636, 49.417270015674404 ], [ 21.130880514435336, 49.428768429745766 ], [ 21.130230646327298, 49.42919032938704 ], [ 21.129551104833631, 49.428792929210637 ], [ 21.110665838962053, 49.417969010630763 ], [ 21.091601684458876, 49.418313999694938 ], [ 21.07253717168739, 49.418655992356214 ], [ 21.053472304070663, 49.418994994970646 ], [ 21.052812068834456, 49.418609331904968 ], [ 21.052338334582579, 49.407045859135437 ], [ 21.052957324958079, 49.406653578732154 ], [ 21.070918867749356, 49.395142509418491 ], [ 21.071530871301412, 49.39475415578849 ], [ 21.090586043192459, 49.394410081622638 ], [ 21.108538954443574, 49.38289028564769 ], [ 21.108051708334578, 49.371327164990213 ], [ 21.089146398833627, 49.360472231643236 ], [ 21.070104250352443, 49.360814097643441 ], [ 21.051061748966301, 49.361153001681906 ], [ 21.050441103528787, 49.360791796940063 ], [ 21.031542219546093, 49.349921398595022 ], [ 21.0309282242184, 49.349564435768286 ], [ 21.012031587991363, 49.338687067639007 ], [ 21.011423042339786, 49.338333664870589 ], [ 20.992529848923738, 49.327450016083155 ], [ 20.991925543558953, 49.327099487682041 ], [ 20.992500953174272, 49.326734248235958 ], [ 21.010489998707889, 49.315205921848843 ], [ 20.991596524976096, 49.304316495983677 ], [ 20.972574943299943, 49.304643596098643 ], [ 20.971977528686601, 49.304297749059458 ], [ 20.953095730132166, 49.293401341858463 ], [ 20.934077934594146, 49.293722657189754 ], [ 20.915059811712595, 49.294041092142244 ], [ 20.897059480283655, 49.305552313729372 ], [ 20.897506922176671, 49.317116867626332 ], [ 20.896929541496505, 49.317489654590133 ], [ 20.87892549797672, 49.328992418077441 ], [ 20.878341936451012, 49.329369062730144 ], [ 20.860335413600449, 49.34086505821918 ], [ 20.859745384200519, 49.341245734527128 ], [ 20.859120829845157, 49.340884606714198 ], [ 20.840276713870651, 49.329985600356146 ], [ 20.821243632476186, 49.330289555718586 ], [ 20.803233473657052, 49.341770282202397 ], [ 20.802632755011125, 49.342157431958029 ], [ 20.784620781799894, 49.353630968481859 ], [ 20.784012922547298, 49.35402252860878 ], [ 20.765999360851662, 49.365488730511075 ], [ 20.765384128852116, 49.365884834864765 ], [ 20.747369193568765, 49.377343564805386 ], [ 20.74778282257801, 49.388908938145711 ], [ 20.748197203534836, 49.400474278302262 ], [ 20.747567069194783, 49.400879712891104 ], [ 20.729550162458537, 49.412326359057182 ], [ 20.728911922329015, 49.412736778956663 ], [ 20.709845716039705, 49.413022807469851 ], [ 20.690779216924149, 49.413305924113907 ], [ 20.690094525923367, 49.41290994078534 ], [ 20.671319596843624, 49.402018470472221 ], [ 20.670631644606352, 49.401621337155035 ], [ 20.651868918547436, 49.390728690566505 ], [ 20.633854558901906, 49.402147003415543 ], [ 20.633194130791519, 49.402570452854967 ], [ 20.615179002730692, 49.41398091844674 ], [ 20.614510354558686, 49.414409307110596 ], [ 20.613800995870459, 49.414000163141786 ], [ 20.613422531995639, 49.40243398532116 ], [ 20.613043778567583, 49.390867789532912 ], [ 20.594318512159866, 49.379977701430633 ], [ 20.593601587868545, 49.379565980775112 ], [ 20.574894105132859, 49.368677996619994 ], [ 20.555843568150227, 49.36894157201543 ], [ 20.537852305008812, 49.38032116748186 ], [ 20.537153473309768, 49.380767803785453 ], [ 20.519161152226019, 49.39213975968822 ], [ 20.518454398536207, 49.392591019443913 ], [ 20.500460929301564, 49.403955392603102 ], [ 20.499746337810794, 49.404411204958699 ], [ 20.480681307782184, 49.404662582891717 ], [ 20.46161602179286, 49.404911057867174 ], [ 20.442550482786544, 49.405156626265509 ], [ 20.441757549061251, 49.404702419067121 ], [ 20.423150403536425, 49.393834652340963 ], [ 20.422340654701259, 49.393371621925318 ], [ 20.403759269166546, 49.382510694337697 ], [ 20.384701955425705, 49.382748116365782 ], [ 20.366759879732474, 49.394042127614334 ], [ 20.365965019227804, 49.394545997162091 ], [ 20.346902743904316, 49.394777271100807 ], [ 20.327840233091166, 49.395005612357728 ], [ 20.326964386292875, 49.394505781144865 ], [ 20.32664320377846, 49.382938196405817 ], [ 20.326321530135338, 49.371370594838496 ], [ 20.325999370754275, 49.35980297637461 ], [ 20.325676730315259, 49.348235340954105 ], [ 20.3072437128993, 49.33742312350244 ], [ 20.289394439456448, 49.348645818390374 ], [ 20.28850499162424, 49.349207809817891 ], [ 20.287551878027642, 49.348666360058438 ], [ 20.26916230715992, 49.337868771464805 ], [ 20.25133839873396, 49.349064118961479 ], [ 20.250414192267634, 49.349646797568752 ], [ 20.249424825480812, 49.349084821364237 ], [ 20.231080004359132, 49.338302665967355 ], [ 20.21203852347351, 49.3385151731216 ], [ 20.192996826666938, 49.338724703212243 ], [ 20.191932955517757, 49.338120762007719 ], [ 20.173680062353711, 49.327373752015745 ], [ 20.172576349841993, 49.326747497580691 ], [ 20.173649204165013, 49.32607571593342 ], [ 20.191335951976406, 49.314984318212758 ], [ 20.173130916490713, 49.304260141989559 ], [ 20.154102190635804, 49.304464997905839 ], [ 20.152933697201863, 49.303802537734583 ], [ 20.134807882630689, 49.293111630682084 ], [ 20.133592406076527, 49.292422582384106 ], [ 20.133302526989148, 49.280854084615257 ], [ 20.133012062148818, 49.269285569829137 ], [ 20.11500152321209, 49.258649394869032 ], [ 20.113682862274231, 49.257902142233618 ], [ 20.113394822583416, 49.246333522076164 ], [ 20.113106264495531, 49.234764884114675 ], [ 20.112817218589285, 49.223196228048643 ], [ 20.09496800259349, 49.212639573272433 ], [ 20.093503333082126, 49.211809243276768 ], [ 20.093216941168539, 49.200240479933299 ], [ 20.092930170783351, 49.188671697331529 ], [ 20.075222647748937, 49.178185819808448 ], [ 20.056241783722733, 49.178380755783849 ], [ 20.03902344589547, 49.189169294015706 ], [ 20.037502165505174, 49.190121460051557 ], [ 20.020274586608778, 49.20090791586788 ], [ 20.018753657650823, 49.201858450676959 ], [ 20.001515685029609, 49.212643537512108 ], [ 19.999996255834329, 49.213591745116624 ], [ 19.98274676964807, 49.224376154317191 ], [ 19.981229955885592, 49.225321370107629 ], [ 19.962230417880374, 49.225499076199455 ], [ 19.943230701054816, 49.225673737376695 ], [ 19.924230808866298, 49.225845367592683 ], [ 19.905230744819622, 49.226013984564872 ], [ 19.903494195061313, 49.225023258804569 ], [ 19.903243585643782, 49.213453867277138 ], [ 19.885817761690269, 49.203088070522725 ], [ 19.883968217023099, 49.202031631861502 ], [ 19.866624490906368, 49.191706965682648 ], [ 19.847637226061135, 49.191868199693126 ], [ 19.828649803095917, 49.192026550408592 ], [ 19.81172945232835, 49.202561937777958 ], [ 19.809850680906958, 49.203725265812132 ], [ 19.807865435542375, 49.202589030313533 ], [ 19.790674497521881, 49.192334770309898 ], [ 19.773814168357799, 49.202822190511078 ], [ 19.771866222404974, 49.20402686224795 ], [ 19.754987397581644, 49.214518102381355 ], [ 19.755118319940845, 49.226088532894501 ], [ 19.755250046841976, 49.23765893520617 ], [ 19.772551190183766, 49.247978951099114 ], [ 19.774361151202822, 49.249103655391394 ], [ 19.774500043746663, 49.260673949906739 ], [ 19.791932006819206, 49.271061711845981 ], [ 19.793629518464051, 49.272115337084173 ], [ 19.811140693829525, 49.282542513653937 ], [ 19.812770986696755, 49.28355346562563 ], [ 19.81117345578906, 49.284539712932734 ], [ 19.793923064988753, 49.295255673580264 ], [ 19.794071508858448, 49.306825795986171 ], [ 19.794221126264752, 49.318395887418518 ], [ 19.794371956465536, 49.329965947606453 ], [ 19.794524034320862, 49.341535976309139 ], [ 19.79467739043476, 49.353105973314918 ], [ 19.794832051356238, 49.364675938439802 ], [ 19.794988039831562, 49.376245871525903 ], [ 19.793634178337854, 49.377080575355834 ], [ 19.776103688702563, 49.387945167971729 ], [ 19.776257301455374, 49.399515088631446 ], [ 19.776412313150288, 49.411084976971743 ], [ 19.775120341054787, 49.41188161490691 ], [ 19.77376071153434, 49.411102751616092 ], [ 19.755870325087333, 49.400467504692415 ], [ 19.754459292972886, 49.399659383549441 ], [ 19.736629254643049, 49.389052053734162 ], [ 19.735163520897046, 49.388212750167796 ], [ 19.717397123632772, 49.377635350543159 ], [ 19.699941864110016, 49.388431353532191 ], [ 19.698501246778115, 49.389318055022606 ], [ 19.68103124596518, 49.400115208348744 ], [ 19.679596413399405, 49.400998401190101 ], [ 19.660527621284881, 49.401124669083551 ], [ 19.641458710233874, 49.401248460653562 ], [ 19.624019266930347, 49.412007832664457 ], [ 19.62413545587415, 49.423578052766658 ], [ 19.64188785372259, 49.434163290036423 ], [ 19.643309591008116, 49.435043804059156 ], [ 19.641910593860487, 49.435905748936023 ], [ 19.624372673286565, 49.446718397736156 ], [ 19.622974482347157, 49.447580263575283 ], [ 19.603887413007389, 49.447698151084005 ], [ 19.584800234732615, 49.447813711381279 ], [ 19.567301613598623, 49.458583185107862 ], [ 19.56740941330137, 49.470153392585679 ], [ 19.565979036415566, 49.471036341515571 ], [ 19.548447541787414, 49.481815563077127 ], [ 19.548553806259754, 49.493385743469894 ], [ 19.548661785071676, 49.50495589264699 ], [ 19.547269025776075, 49.505817599898329 ], [ 19.529686854461136, 49.516614957182064 ], [ 19.529793415939981, 49.528185078651809 ], [ 19.529901722452458, 49.539755169033171 ], [ 19.530011779936146, 49.551325228297429 ], [ 19.528657484259622, 49.552166195534198 ], [ 19.511021227529675, 49.562981182503947 ], [ 19.511130073399386, 49.574551213393043 ], [ 19.509770103848901, 49.575397549464775 ], [ 19.490632867068527, 49.575500281157701 ], [ 19.473021887830246, 49.586283714161254 ], [ 19.471606986067947, 49.587165581718409 ], [ 19.454013502215872, 49.597930285249497 ], [ 19.454113890027962, 49.609500317937794 ], [ 19.452679130997296, 49.61039674451014 ], [ 19.45115249500968, 49.609511897181342 ], [ 19.451038400988342, 49.597941916105952 ], [ 19.433323018243694, 49.58736095247815 ], [ 19.414180907637114, 49.587455841022553 ], [ 19.412553757158047, 49.586515036290727 ], [ 19.412444467131486, 49.574944963458975 ], [ 19.394852084144809, 49.564421640154137 ], [ 19.375718858373816, 49.56451329052345 ], [ 19.373971530576615, 49.563505193778553 ], [ 19.373866702398796, 49.551935032546062 ], [ 19.373759852309394, 49.540364854634987 ], [ 19.356333219874941, 49.529922469176846 ], [ 19.337213386287154, 49.530011617151999 ], [ 19.318093479892788, 49.530099357413071 ], [ 19.298973502527062, 49.53018577539892 ], [ 19.279853455903503, 49.530270958579429 ], [ 19.277756306434945, 49.529064589837553 ], [ 19.26067189603183, 49.518798716470187 ], [ 19.258479875971055, 49.517538707890097 ], [ 19.241499329050871, 49.507327592888927 ], [ 19.239204882594102, 49.506009593810177 ], [ 19.239116304233384, 49.494439184496649 ], [ 19.239025229562195, 49.482868757072296 ], [ 19.222231169187978, 49.472757353308161 ], [ 19.219753143002624, 49.471336336759734 ], [ 19.222218058424563, 49.469859144087955 ], [ 19.23883554358666, 49.459727847963315 ], [ 19.222126754807441, 49.449662949083134 ], [ 19.203037927220432, 49.449747867970991 ], [ 19.200388826792516, 49.448230166255975 ], [ 19.200293913130544, 49.436659626860163 ], [ 19.200196234243087, 49.425089068950101 ], [ 19.200095766292769, 49.413518492559284 ], [ 19.183776526296352, 49.403668820168804 ], [ 19.164705483431351, 49.40375625140603 ], [ 19.145634374879496, 49.403843433824669 ], [ 19.126563200849976, 49.403930461348992 ], [ 19.107491961403248, 49.404017426429391 ], [ 19.091646806944507, 49.413655298877991 ], [ 19.088441372161885, 49.415637271414099 ], [ 19.084989886126603, 49.413660383215579 ], [ 19.069349285771839, 49.404191530612856 ], [ 19.050277848989268, 49.404278845719709 ], [ 19.046494907746844, 49.402111505824898 ], [ 19.031199042923834, 49.392839743528924 ], [ 19.01213193562781, 49.392929169881604 ], [ 18.993064759238145, 49.393019091899873 ], [ 18.973997512818574, 49.393109585739602 ], [ 18.959145396364256, 49.402113636270869 ], [ 18.959055759868097, 49.413684367474019 ], [ 18.973981856381926, 49.422745548786821 ], [ 18.977901327591685, 49.425260243963542 ], [ 18.977826954004868, 49.436830945758821 ], [ 18.977756655395613, 49.448401625019343 ], [ 18.973967039768915, 49.450746780674095 ], [ 18.958740119285814, 49.459967074213552 ], [ 18.958671703602665, 49.471537696347532 ], [ 18.958607410414427, 49.483108296652304 ], [ 18.958547212615329, 49.494678875126347 ], [ 18.958491090141656, 49.506249431770101 ], [ 18.95482433962621, 49.508527310266381 ], [ 18.93946565832724, 49.517811595597472 ], [ 18.935697044684499, 49.520154575276159 ], [ 18.916580320955834, 49.520235661933569 ], [ 18.912354030425327, 49.517794234678888 ], [ 18.897487663678646, 49.508772116790134 ], [ 18.878375303779329, 49.508855459252665 ], [ 18.863636317101435, 49.51774707393573 ], [ 18.859229744194526, 49.520484578737801 ], [ 18.844616701716078, 49.529293631291765 ], [ 18.844542632486927, 49.540864045170203 ], [ 18.844473815406875, 49.552434442831 ], [ 18.839999649864392, 49.555222943759233 ], [ 18.825458677446893, 49.563977794350244 ], [ 18.825396490406984, 49.575548146003435 ], [ 18.825339989454282, 49.587118482983094 ], [ 18.825289276621088, 49.598688805451459 ], [ 18.825244474246894, 49.610259113600712 ], [ 18.820657213801123, 49.613137019165912 ], [ 18.806245473603386, 49.62179922843071 ], [ 18.806210525430661, 49.63336950129446 ], [ 18.806182317192036, 49.644939762217852 ], [ 18.806161085089226, 49.656510011600595 ], [ 18.806147097040547, 49.668080249894253 ], [ 18.801268231974564, 49.671165449243787 ], [ 18.787182534235832, 49.679617191154293 ], [ 18.782040182220356, 49.682875185063963 ], [ 18.762859304705717, 49.682987916827642 ], [ 18.757015063748607, 49.679557825001183 ], [ 18.743739329124129, 49.671494719453236 ], [ 18.730379175360515, 49.679498876220279 ], [ 18.724497186979789, 49.683228133979568 ], [ 18.711475673771254, 49.691023552193947 ], [ 18.711491651840092, 49.70259379750091 ], [ 18.705175261186845, 49.706614967653536 ], [ 18.685984632195222, 49.706760040328625 ], [ 18.666793829730207, 49.706912927389254 ], [ 18.647602839052926, 49.70707434085287 ], [ 18.636085994877117, 49.713951620937692 ], [ 18.636149117899535, 49.72552199291399 ], [ 18.628233443217738, 49.73059134986741 ], [ 18.617437293201082, 49.737031863132252 ], [ 18.617545194650145, 49.748602350924962 ], [ 18.617673107355433, 49.760172881475093 ], [ 18.617822445769814, 49.771743459369439 ], [ 18.60865562481041, 49.777669389796507 ], [ 18.599285557781588, 49.783250903431082 ], [ 18.599501014624298, 49.794821691540967 ], [ 18.589236435725208, 49.801492271048488 ], [ 18.581112470031115, 49.806326708119002 ], [ 18.581412063605882, 49.817897792065693 ], [ 18.569796575237035, 49.825487114233546 ], [ 18.563213640467779, 49.829400622774834 ], [ 18.569726712452074, 49.833363107849074 ], [ 18.582121504764629, 49.841040285395501 ], [ 18.58253770894067, 49.852611716940984 ], [ 18.588771174014489, 49.856400339811074 ], [ 18.601481872365067, 49.864248291681534 ], [ 18.588632680991264, 49.872712010874878 ], [ 18.583511686162531, 49.87575501425701 ], [ 18.584078170408379, 49.88732691001605 ], [ 18.584704287179562, 49.898898993209201 ], [ 18.585395726555813, 49.910471283169073 ], [ 18.568943559943218, 49.921414312474816 ], [ 18.567994286968837, 49.921977562673348 ], [ 18.56884194445524, 49.932807247197971 ], [ 18.56988666685648, 49.933554369783828 ], [ 18.586611390121675, 49.945184930736801 ], [ 18.588007758462656, 49.946129816326426 ], [ 18.603790016364186, 49.95681459968614 ], [ 18.607187407384366, 49.959048069175097 ], [ 18.621509394859967, 49.968443458536939 ], [ 18.626380519814045, 49.971549833844975 ], [ 18.639808947769698, 49.980071382067258 ], [ 18.645586577758841, 49.983640059065337 ], [ 18.658735381954301, 49.991698233326808 ], [ 18.66480506667806, 49.995324096610965 ], [ 18.678343895406698, 50.003323858797721 ], [ 18.684035478581325, 50.006607363834441 ], [ 18.698699565759807, 50.014948081948411 ], [ 18.703277314601042, 50.017494961335544 ], [ 18.719878943257385, 50.02657069470623 ], [ 18.722530086863738, 50.027991253715236 ], [ 18.741793301134567, 50.038102847657207 ], [ 18.741964551588964, 50.038191429964691 ], [ 18.761066159374668, 50.047899420940375 ], [ 18.764923870938599, 50.049809704957397 ], [ 18.780348508421049, 50.057333511740659 ], [ 18.788991371358463, 50.061425428229377 ], [ 18.799639920165589, 50.066405233243664 ], [ 18.814310274329465, 50.073038140261929 ], [ 18.818939976307067, 50.075111877451128 ], [ 18.83824807766489, 50.083502914932218 ], [ 18.840951438951471, 50.084647120074386 ], [ 18.857563670253068, 50.091639029285268 ], [ 18.869008393446798, 50.096251563842117 ], [ 18.87688670949111, 50.099419853179811 ], [ 18.896216689327684, 50.106883657422713 ], [ 18.898792564087373, 50.107850718131395 ], [ 18.915553008874841, 50.114157195916789 ], [ 18.9303711393475, 50.11944329539979 ], [ 18.93489567759055, 50.121067180466 ], [ 18.954244096553264, 50.127785165711387 ], [ 18.964040543990695, 50.131027925481426 ], [ 18.973598083654817, 50.134226721101463 ], [ 18.992957304685536, 50.140413000844511 ], [ 19.000102214035874, 50.142602791881004 ], [ 19.012321470437119, 50.146409214859069 ], [ 19.031690298743985, 50.152132422104287 ], [ 19.038868388027847, 50.154165564499657 ], [ 19.051063581732326, 50.157695623983749 ], [ 19.070441007572978, 50.16301695890963 ], [ 19.080757578547704, 50.16571324807213 ], [ 19.089822381900657, 50.168148062147814 ], [ 19.10920755029515, 50.173121546513137 ], [ 19.126315800972744, 50.177241875114852 ], [ 19.128595980047223, 50.177809504497986 ], [ 19.147988161329046, 50.182482280721189 ], [ 19.167383075397129, 50.186853134546041 ], [ 19.176189479690027, 50.18874615489274 ], [ 19.186781114030691, 50.191116214048321 ], [ 19.206182040621439, 50.195246646978177 ], [ 19.225585076243547, 50.199113074420268 ], [ 19.231378027184199, 50.200218549375187 ], [ 19.244991060567536, 50.202942072240468 ], [ 19.264399287012623, 50.206613743715145 ], [ 19.283809109414399, 50.210051242881526 ], [ 19.293298648757098, 50.211647923519891 ], [ 19.303221232997856, 50.213410694494598 ], [ 19.322635522536817, 50.216685981695036 ], [ 19.342050967980441, 50.219750047320893 ], [ 19.361467400106054, 50.222614453774078 ], [ 19.364319532617866, 50.223016123746866 ], [ 19.380886334275441, 50.225499936873852 ], [ 19.400306305329412, 50.228228280460598 ], [ 19.419726882320251, 50.230772136437018 ], [ 19.43914792223082, 50.23314036028912 ], [ 19.449172027058111, 50.234288286627617 ], [ 19.458570271518322, 50.235443468743085 ], [ 19.477993875797171, 50.237683896274881 ], [ 19.497417579014702, 50.239757833886465 ], [ 19.516841252652636, 50.241672134784558 ], [ 19.536264773295017, 50.243433116260782 ], [ 19.555688022136632, 50.24504661054111 ], [ 19.559983807892575, 50.245376330744207 ], [ 19.575112313987582, 50.246636786955939 ], [ 19.594536474462878, 50.248111497501966 ], [ 19.613959988836548, 50.2494416147305 ], [ 19.63338274332007, 50.250631836182897 ], [ 19.652804627542974, 50.251686550312556 ], [ 19.672225534407279, 50.252609870531465 ], [ 19.691645359984843, 50.253405666508897 ], [ 19.711064003452559, 50.254077592906178 ], [ 19.730481367060897, 50.254629115726011 ], [ 19.749897356131868, 50.255063536458501 ], [ 19.769311879083077, 50.255384014203777 ], [ 19.788724847474899, 50.255593585946663 ], [ 19.790756824135201, 50.255604471298376 ], [ 19.808136540529848, 50.25571672871358 ], [ 19.82754639375695, 50.255726917328424 ], [ 19.846954278161039, 50.255624620197466 ], [ 19.86636011017168, 50.255412766488909 ], [ 19.885763810118952, 50.25509423700462 ], [ 19.898207668903169, 50.254823696583195 ], [ 19.905165476619725, 50.254681072889241 ], [ 19.924565369849354, 50.254192650876917 ], [ 19.943963126267342, 50.253615188604165 ], [ 19.963358691048789, 50.252951320839614 ], [ 19.982752014064438, 50.252203700994052 ], [ 20.002143050163216, 50.251375012825058 ], [ 20.021531759486344, 50.250467982303043 ], [ 20.040918107815962, 50.249485389746539 ], [ 20.060302066960386, 50.24843008229486 ], [ 20.079683615178045, 50.24730498676383 ], [ 20.09906273764139, 50.24611312289565 ], [ 20.11843942694113, 50.24485761697224 ], [ 20.137813683630085, 50.243541715718614 ], [ 20.157185516804567, 50.242168800378799 ], [ 20.176132706316039, 50.240773759712127 ], [ 20.17655500829574, 50.240744983312837 ], [ 20.195925118455449, 50.239391020412675 ], [ 20.215293108978237, 50.237995864350459 ], [ 20.234659025951846, 50.236563212889358 ], [ 20.254022926045252, 50.235096938622029 ], [ 20.273384877082105, 50.233601097387378 ], [ 20.292744958581782, 50.232079934743595 ], [ 20.312103262249003, 50.230537890002658 ], [ 20.331459892391294, 50.228979597328426 ], [ 20.350814966240943, 50.227409883364373 ], [ 20.352341305060293, 50.227286884411257 ], [ 20.370172001395797, 50.225951967251952 ], [ 20.389528147100343, 50.224503071364623 ], [ 20.408883262476589, 50.223058025979299 ], [ 20.428237499957401, 50.221621761789045 ], [ 20.447591022851572, 50.220199306056806 ], [ 20.46694400465331, 50.218795753814881 ], [ 20.486296628126208, 50.21741623403453 ], [ 20.505649084153831, 50.216065870963362 ], [ 20.525001570355727, 50.214749741021038 ], [ 20.544354289475848, 50.213472825853756 ], [ 20.547356099304494, 50.213283325648746 ], [ 20.563709954208875, 50.21231664426486 ], [ 20.58306662790244, 50.211218243711407 ], [ 20.602424047266148, 50.210167661789079 ], [ 20.621782395227644, 50.209168573325783 ], [ 20.641141849807369, 50.208224337052499 ], [ 20.660502582020609, 50.207337953446647 ], [ 20.679864753832661, 50.206512026996236 ], [ 20.699228516226469, 50.205748734205891 ], [ 20.718594007442903, 50.205049798575025 ], [ 20.737961351451375, 50.204416473599707 ], [ 20.757330656704823, 50.203849534651141 ], [ 20.776702015225826, 50.20334928032382 ], [ 20.796075502062045, 50.20291554355444 ], [ 20.815451175138762, 50.202547712518793 ], [ 20.834829075524631, 50.202244761003854 ], [ 20.854209228114243, 50.202005287657393 ], [ 20.873591642719187, 50.201827563254859 ], [ 20.892976315547077, 50.201709584889059 ], [ 20.912363231037492, 50.201649135812076 ], [ 20.931752364014205, 50.201643849519385 ], [ 20.95114368210535, 50.201691276592207 ], [ 20.97053714837724, 50.201788952784831 ], [ 20.989932724123342, 50.201934466860358 ], [ 21.009330371747659, 50.202125526740048 ], [ 21.028730057680416, 50.202360022612552 ], [ 21.048131755264681, 50.202636085764375 ], [ 21.06753544755329, 50.202952142009508 ], [ 21.08694112995752, 50.203306958722159 ], [ 21.106348812690673, 50.203699684594689 ], [ 21.125758522952047, 50.20412988135525 ], [ 21.125942579136829, 50.20413432279463 ], [ 21.145173771384929, 50.204674808972747 ], [ 21.164591387526674, 50.205261294638696 ], [ 21.184011427905141, 50.205889454630601 ], [ 21.203434005759917, 50.206560631749355 ], [ 21.222859258087706, 50.207276632371325 ], [ 21.242287345108139, 50.20803969482818 ], [ 21.261718449080053, 50.208852445658685 ], [ 21.2811527724302, 50.209717843662851 ], [ 21.300590535163224, 50.210639111833103 ], [ 21.320031971530671, 50.211619657423448 ], [ 21.325046833098725, 50.211889523346329 ], [ 21.339482179086485, 50.212762182000994 ], [ 21.358938550744252, 50.21400979632913 ], [ 21.378399653241008, 50.215331079395909 ], [ 21.397865736096954, 50.216729189164305 ], [ 21.417337033780399, 50.218206881803994 ], [ 21.436813757951054, 50.219766375475366 ], [ 21.450103440110514, 50.220889367180078 ], [ 21.45629921464884, 50.221470036415951 ], [ 21.475797530104384, 50.223394081429596 ], [ 21.495302027901733, 50.225405399349839 ], [ 21.514812732139873, 50.227502382090137 ], [ 21.534329600923996, 50.229682224924638 ], [ 21.541350180081722, 50.230499516040766 ], [ 21.55386110677199, 50.232101511821568 ], [ 21.573403595576998, 50.234686864686111 ], [ 21.592951874501573, 50.23733878836164 ], [ 21.612505550353564, 50.240048560424555 ], [ 21.615191119330259, 50.24043139611139 ], [ 21.632078489428508, 50.243066474696171 ], [ 21.65165811914191, 50.246159150844399 ], [ 21.671241437458203, 50.249271233537677 ], [ 21.679168199558593, 50.250544444293709 ], [ 21.690839184145563, 50.252592829181985 ], [ 21.710446763011522, 50.25603834037932 ], [ 21.730055317799099, 50.25945018524245 ], [ 21.7375768604713, 50.260753776610237 ], [ 21.749677243564733, 50.26304420908744 ], [ 21.769306169186326, 50.266706659102702 ], [ 21.788932665318491, 50.270274725360963 ], [ 21.793017078305326, 50.27100529100894 ], [ 21.808574290733997, 50.27404864317041 ], [ 21.828215704980156, 50.27776529569033 ], [ 21.84744440252927, 50.281255310156261 ], [ 21.847851569718312, 50.281336468785327 ], [ 21.867504504147696, 50.285141326188274 ], [ 21.88714862235399, 50.288747503410384 ], [ 21.902745283693179, 50.291458131041686 ], [ 21.906788545343769, 50.29223486951922 ], [ 21.926437852113686, 50.295827008990187 ], [ 21.946075073521961, 50.299174460925208 ], [ 21.961103349663588, 50.301556867366635 ], [ 21.965705804591071, 50.30237205727893 ], [ 21.985342071951219, 50.305614734255109 ], [ 22.004963396078413, 50.308576894139705 ], [ 22.024569440126871, 50.311258769637533 ], [ 22.026135737566712, 50.311452748313499 ], [ 22.044181668399993, 50.31400168646401 ], [ 22.0637781646892, 50.316463761116012 ], [ 22.083356769802684, 50.318617068398758 ], [ 22.102917197130914, 50.320463122548205 ], [ 22.107987705757328, 50.320863584629002 ], [ 22.122473362527902, 50.322219956650535 ], [ 22.142013412794629, 50.32370963651497 ], [ 22.161531994048929, 50.324856536157057 ], [ 22.181028586810825, 50.325659236451017 ], [ 22.200502581631827, 50.326114996941733 ], [ 22.21995326392085, 50.326219570653166 ], [ 22.239379795514967, 50.325966977331461 ], [ 22.25878119233624, 50.325349227120341 ], [ 22.278156297265905, 50.324355983960082 ], [ 22.297503747092676, 50.322974154485721 ], [ 22.316821932027739, 50.32118738356646 ], [ 22.336108945790542, 50.318975431430047 ], [ 22.355362523605841, 50.31631339891112 ], [ 22.372748768003138, 50.313477241474828 ], [ 22.374582710595618, 50.313209507219383 ], [ 22.393795477862806, 50.310035584081319 ], [ 22.412973571858949, 50.306412434212248 ], [ 22.432113811145584, 50.302303261062526 ], [ 22.442320139022378, 50.299863103817977 ], [ 22.451233974069492, 50.29796137310008 ], [ 22.470340562733032, 50.29347978010189 ], [ 22.489406621719411, 50.288492536806764 ], [ 22.495737744803918, 50.286694309103055 ], [ 22.50846533445187, 50.283458461324045 ], [ 22.527501755680309, 50.278176276204604 ], [ 22.542194974739736, 50.273713181765196 ], [ 22.546507273767109, 50.272534035272997 ], [ 22.565516140132083, 50.266995425428199 ], [ 22.584480899852206, 50.260927302195519 ], [ 22.584759746486178, 50.260833443863802 ], [ 22.60346268362775, 50.255147096758257 ], [ 22.62240119012748, 50.248856019368823 ], [ 22.624804335614343, 50.248016565040807 ], [ 22.641350391515395, 50.242769178734854 ], [ 22.660263063549383, 50.23626754371999 ], [ 22.663113208018427, 50.235240417925603 ], [ 22.679185435285902, 50.229957220668666 ], [ 22.69807218690519, 50.223250036421639 ], [ 22.700116829954396, 50.222493010726289 ], [ 22.716971910794662, 50.216776289799753 ], [ 22.735832222657361, 50.209862530213542 ], [ 22.736084257474939, 50.209766939234569 ], [ 22.754712388885711, 50.203269476551412 ], [ 22.771241869608932, 50.197055816329097 ], [ 22.773553994860894, 50.19625246872922 ], [ 22.792408323000931, 50.189464096177758 ], [ 22.805691130901856, 50.184357055195974 ], [ 22.811233927372722, 50.18238097408981 ], [ 22.830060355714586, 50.175376268721308 ], [ 22.83950146586135, 50.171668993613132 ], [ 22.848871406341352, 50.168247418635602 ], [ 22.867668552350352, 50.161014335242946 ], [ 22.8727207652388, 50.158990595350247 ], [ 22.886466285736194, 50.153856927747704 ], [ 22.905232581096989, 50.146381425854962 ], [ 22.905379784209678, 50.146321336371045 ], [ 22.924018127741853, 50.139210846066106 ], [ 22.937695765276057, 50.133654316371306 ], [ 22.942771846848423, 50.131720348326695 ], [ 22.961526316839013, 50.124308288146501 ], [ 22.969536609382754, 50.12099434647255 ], [ 22.980268985683431, 50.116822411121426 ], [ 22.998990150160822, 50.109147320596577 ], [ 23.000904047722432, 50.108341761340171 ], [ 23.017722801700401, 50.101679278915725 ], [ 23.031998763643298, 50.095689967828037 ], [ 23.036426647162727, 50.093936664131263 ], [ 23.055132665790005, 50.086289584565236 ], [ 23.062750759689308, 50.083041639991272 ], [ 23.073827443482475, 50.078578717680664 ], [ 23.092498015282565, 50.070652756970915 ], [ 23.093082504695708, 50.070399790726341 ], [ 23.111184895052489, 50.062987637636205 ], [ 23.123312932312363, 50.057753404412317 ], [ 23.129845108014536, 50.055080156145351 ], [ 23.148498671208692, 50.047165173225459 ], [ 23.153193391660039, 50.045111472718318 ], [ 23.167152001816707, 50.039316744435801 ], [ 23.182845057896163, 50.032469893526127 ], [ 23.18578055213661, 50.031252073116818 ], [ 23.18616920388796, 50.020774906484441 ], [ 23.186544099428694, 50.009186425119431 ], [ 23.183729402072608, 50.007680168038021 ], [ 23.168330450558198, 49.998268370065681 ], [ 23.163366839283, 49.995610056280562 ], [ 23.149886560646944, 49.987355771911659 ], [ 23.149916201195673, 49.975779839139413 ], [ 23.141981493536377, 49.971525784357318 ], [ 23.131128620559949, 49.964876677254949 ], [ 23.121675306767997, 49.959804455703406 ], [ 23.112152256154584, 49.953977243306014 ], [ 23.111878717416651, 49.942412149719409 ], [ 23.100371491493913, 49.936231278334866 ], [ 23.092645337653888, 49.931518755439448 ], [ 23.092226397272515, 49.919958783006095 ], [ 23.079110296759321, 49.912906183298155 ], [ 23.072791381837462, 49.909069327591816 ], [ 23.058878689602231, 49.901582489345643 ], [ 23.053256944365899, 49.898180162573418 ], [ 23.052669399170728, 49.88662601707275 ], [ 23.037678521654904, 49.878550318197703 ], [ 23.033005838579818, 49.87573806496701 ], [ 23.017483586981609, 49.867369507271903 ], [ 23.013280266761452, 49.864848993886071 ], [ 23.012584420874415, 49.853298466918119 ], [ 22.996335148414996, 49.84452854873421 ], [ 22.992779046614586, 49.842408776958472 ], [ 22.9761721316532, 49.83343875996993 ], [ 22.972936161017156, 49.83151705570549 ], [ 22.97217230877423, 49.819968686424737 ], [ 22.971393980531936, 49.808420800458393 ], [ 22.954119246138674, 49.799077424166676 ], [ 22.951488080087682, 49.797527707417025 ], [ 22.933991250367651, 49.788056744660935 ], [ 22.931563143189994, 49.786631905445645 ], [ 22.913873703958348, 49.777049137075416 ], [ 22.911623075191656, 49.775733251943358 ], [ 22.910798976973886, 49.764186605978189 ], [ 22.909967276004892, 49.752640202476051 ], [ 22.891905707352876, 49.742842611623516 ], [ 22.890002788792252, 49.74173878626673 ], [ 22.871819847209689, 49.731867594070906 ], [ 22.870032205109659, 49.730834194841172 ], [ 22.8691851231874, 49.719288074020739 ], [ 22.850826011957018, 49.709310596768894 ], [ 22.849207862302205, 49.708380210757575 ], [ 22.830764999572171, 49.698349341058851 ], [ 22.829229037052002, 49.697469013632798 ], [ 22.810713465991697, 49.687390688961919 ], [ 22.809249945691114, 49.686554438266455 ], [ 22.790671337796741, 49.676433863095006 ], [ 22.789271710212489, 49.675636446944992 ], [ 22.788416853605927, 49.664090114429278 ], [ 22.787559477657489, 49.652543848751876 ], [ 22.768848629781171, 49.642337525328394 ], [ 22.76758507137453, 49.641622113009703 ], [ 22.748835685960394, 49.631386754709268 ], [ 22.747614268264801, 49.630696871634335 ], [ 22.746757888251672, 49.61915032549647 ], [ 22.727948506368659, 49.608871303678697 ], [ 22.726793532239995, 49.608221371143529 ], [ 22.725937963207059, 49.596674666029415 ], [ 22.707081523351974, 49.586358989627186 ], [ 22.705981431182302, 49.585741956232113 ], [ 22.705127465646491, 49.574195066332557 ], [ 22.686234594691125, 49.563848500991966 ], [ 22.685179890521308, 49.563258567512705 ], [ 22.684328178339463, 49.551711472000491 ], [ 22.665407598174024, 49.541338757626008 ], [ 22.664390496899763, 49.540771157712506 ], [ 22.645460704342799, 49.530385297905326 ], [ 22.644459754785437, 49.529827242530871 ], [ 22.645374438234697, 49.529226788594393 ], [ 22.662692052065502, 49.517676524210593 ], [ 22.66184200305953, 49.506129208852023 ], [ 22.662729241089064, 49.505545315704872 ], [ 22.681800751397741, 49.504939454176096 ], [ 22.699126602008988, 49.493367120102789 ], [ 22.70000031095422, 49.492790938730508 ], [ 22.717328968886331, 49.481208439442092 ], [ 22.716464600868022, 49.46966183864906 ], [ 22.715599869465844, 49.458115233130414 ], [ 22.714734827499083, 49.446568621165675 ], [ 22.71386952433436, 49.435022001146613 ], [ 22.714695070654955, 49.434474717846832 ], [ 22.732043427054688, 49.422861620979006 ], [ 22.731173337465052, 49.411315226466563 ], [ 22.731984290786876, 49.410776359744119 ], [ 22.749333024999171, 49.399152436841312 ], [ 22.748458284556598, 49.387606265027408 ], [ 22.747583468824626, 49.376060079253826 ], [ 22.74670861382004, 49.364513878334407 ], [ 22.745833753114887, 49.352967661163156 ], [ 22.744958917968049, 49.341421426709921 ], [ 22.745742923692944, 49.340897568711775 ], [ 22.763086905707237, 49.329257161313734 ], [ 22.762207782872249, 49.317711139431559 ], [ 22.761328765820963, 49.306165097671425 ], [ 22.760449878900364, 49.294619035225701 ], [ 22.75957114464245, 49.283072951346405 ], [ 22.758692583878521, 49.27152684534154 ], [ 22.757814215850996, 49.259980716571263 ], [ 22.756936058322541, 49.248434564444445 ], [ 22.737942254531866, 49.237972569348472 ], [ 22.71897501610561, 49.238586158761592 ], [ 22.718122748475857, 49.238117302979333 ], [ 22.717253876157198, 49.226570604336324 ], [ 22.718032530706537, 49.226047034539064 ], [ 22.736995075217337, 49.225434848424143 ], [ 22.754303006362772, 49.213795962669963 ], [ 22.735327134849229, 49.203335187854186 ], [ 22.734471637460782, 49.202864976419818 ], [ 22.733599142990311, 49.191318450928094 ], [ 22.734381326235741, 49.190791447918883 ], [ 22.753330043695637, 49.190176963741926 ], [ 22.770617244458229, 49.178539262087867 ], [ 22.751657375555087, 49.168083842613065 ], [ 22.75079607813602, 49.1676108045734 ], [ 22.749920099672099, 49.156064449055812 ], [ 22.750708038160329, 49.155532610851054 ], [ 22.769642954984178, 49.154915859226762 ], [ 22.770503948107052, 49.155393209896495 ], [ 22.789459447043168, 49.165843826293546 ], [ 22.80672681546304, 49.154203027982035 ], [ 22.805838083859729, 49.142657397722587 ], [ 22.806624806890998, 49.142125537130006 ], [ 22.823875420021178, 49.130485568541054 ], [ 22.824663537480713, 49.129952342471825 ], [ 22.841903841847497, 49.118311119343865 ], [ 22.842693426030507, 49.117776485889166 ], [ 22.859923368587776, 49.106134053390122 ], [ 22.8607144792967, 49.105597977782935 ], [ 22.879627988775788, 49.104963994516176 ], [ 22.896844339105094, 49.093316583466041 ], [ 22.895935804408619, 49.081772084513062 ], [ 22.877005638695863, 49.071346118638203 ], [ 22.87612599155165, 49.070864832181293 ], [ 22.875222587500669, 49.059320016468504 ], [ 22.874319595780431, 49.047775170657765 ], [ 22.875127233719937, 49.047226788945167 ], [ 22.892305790193092, 49.035593787792948 ], [ 22.891399339920405, 49.024049137590232 ], [ 22.890493318494542, 49.01250445670523 ], [ 22.871618899991425, 49.002091976566952 ], [ 22.852744376349051, 49.002725967856989 ], [ 22.835578006875384, 49.014345704451848 ], [ 22.834756840371533, 49.014899498835419 ] ] ], [ [ [ 20.886239818856531, 50.521923908437728 ], [ 20.866811070402182, 50.524243513998272 ], [ 20.84738854325688, 50.526770086618896 ], [ 20.827972342635579, 50.529512913469965 ], [ 20.808562612435058, 50.532482684379168 ], [ 20.801914787602637, 50.533570397547948 ], [ 20.789153444394898, 50.535530596640491 ], [ 20.76974723632652, 50.538723281627334 ], [ 20.750347329236465, 50.542155770300859 ], [ 20.730953987313185, 50.545843285755716 ], [ 20.728937691795714, 50.546246643556145 ], [ 20.711557661869659, 50.549530763332193 ], [ 20.69216657426519, 50.553447830390297 ], [ 20.672782183831426, 50.557643636016508 ], [ 20.668115391773949, 50.558703408746851 ], [ 20.65339576649815, 50.561878635069867 ], [ 20.63401315405557, 50.566322833010219 ], [ 20.614853522771895, 50.571023614801938 ], [ 20.614637440800756, 50.571074221383988 ], [ 20.595256469730934, 50.575784049630471 ], [ 20.575882565643873, 50.580820100493284 ], [ 20.56699161531176, 50.583246767456451 ], [ 20.556509088412106, 50.585993073816148 ], [ 20.537136935622573, 50.591335696091747 ], [ 20.52323133531635, 50.595396540432567 ], [ 20.517768701925164, 50.596935101419724 ], [ 20.498398503745623, 50.602615932175958 ], [ 20.482760767452685, 50.607487916305978 ], [ 20.479033607163451, 50.608613134494277 ], [ 20.45966568160679, 50.614670059080225 ], [ 20.444999791132229, 50.619531537980642 ], [ 20.440302614301842, 50.621047345667122 ], [ 20.420937388786925, 50.627525226146595 ], [ 20.409539270902059, 50.631535004442512 ], [ 20.401574981276223, 50.634275219718702 ], [ 20.382212989464755, 50.641226798418458 ], [ 20.376099835628992, 50.643503727205747 ], [ 20.362850367174115, 50.648352371658127 ], [ 20.344472020269233, 50.655441872883095 ], [ 20.34349154944093, 50.655814907366107 ], [ 20.324128799572531, 50.663354001841981 ], [ 20.314306593229958, 50.667354864099252 ], [ 20.30476852165944, 50.671204151753194 ], [ 20.28571248617866, 50.679242641525377 ], [ 20.285410443908074, 50.679369363926128 ], [ 20.26604873734761, 50.687647436304871 ], [ 20.258253433722246, 50.691111078808561 ], [ 20.246688734698683, 50.696244853226801 ], [ 20.232096920716039, 50.702959213071274 ], [ 20.227329980467548, 50.705159187707252 ], [ 20.207971415031928, 50.714364371184821 ], [ 20.207092325885576, 50.714789486163191 ], [ 20.188610988428216, 50.723793546079307 ], [ 20.182997556681158, 50.726605100681489 ], [ 20.169251457988505, 50.733568608245584 ], [ 20.159932243900712, 50.738405434480008 ], [ 20.149892569117938, 50.743696544094405 ], [ 20.137822331633075, 50.750191825080712 ], [ 20.130534195616459, 50.754190156080789 ], [ 20.116606752818448, 50.761965404252969 ], [ 20.111176340981402, 50.765068614769824 ], [ 20.096236182737634, 50.773727127013352 ], [ 20.091819142935634, 50.776358206863982 ], [ 20.076672014959438, 50.785477795541141 ], [ 20.072462881364395, 50.788093311377402 ], [ 20.057885534210627, 50.7972180788583 ], [ 20.053107989996192, 50.800317647450463 ], [ 20.039857265552232, 50.808948528946665 ], [ 20.033755072326553, 50.813085850939324 ], [ 20.022576483762112, 50.820669593829997 ], [ 20.014404922468408, 50.826465453762218 ], [ 20.006040871011571, 50.832381628027903 ], [ 19.995058551828819, 50.84053936108144 ], [ 19.990256314884359, 50.844084900686099 ], [ 19.97571722277095, 50.855408948043632 ], [ 19.975236842605803, 50.855779601597945 ], [ 19.960732486392661, 50.867468086234872 ], [ 19.956382437963505, 50.871195353106678 ], [ 19.946959653419743, 50.879148792741233 ], [ 19.937056991419215, 50.888093836662641 ], [ 19.933981400552991, 50.890821477553494 ], [ 19.921594349425007, 50.902488013410562 ], [ 19.917744779604739, 50.906371722064009 ], [ 19.909848914513276, 50.914148197201769 ], [ 19.898952912774778, 50.925800624426749 ], [ 19.898450768831296, 50.926374146323283 ], [ 19.888460389381731, 50.937448928669767 ], [ 19.879185519056591, 50.948771991450506 ], [ 19.878916969324511, 50.94908911469701 ], [ 19.869754949930581, 50.960725646206939 ], [ 19.861515937568942, 50.972354620476949 ], [ 19.859968053142119, 50.974752011571844 ], [ 19.853755889557011, 50.983979480901198 ], [ 19.846762639082748, 50.995598238126099 ], [ 19.840837893040032, 51.006737926419859 ], [ 19.840574029874176, 51.007210759175223 ], [ 19.834823978932942, 51.018819789589379 ], [ 19.829873815679136, 51.030422829574505 ], [ 19.825694242451934, 51.04202018933757 ], [ 19.822262831875172, 51.05361211081933 ], [ 19.821967544456953, 51.054877463892332 ], [ 19.819398192391787, 51.06519993303796 ], [ 19.817283791293764, 51.076782416201276 ], [ 19.815935617495079, 51.088359490834883 ], [ 19.815355836350353, 51.099931169773392 ], [ 19.815553272408728, 51.111497404327721 ], [ 19.816543548977233, 51.123058082917233 ], [ 19.818349329137277, 51.134613028300585 ], [ 19.821000663858435, 51.146161993298243 ], [ 19.823748374453938, 51.155173417654616 ], [ 19.824492185491284, 51.15770495984394 ], [ 19.828709066621702, 51.169242667808327 ], [ 19.833854933661698, 51.180773589020795 ], [ 19.839991476132475, 51.192297159863351 ], [ 19.844339414726264, 51.199337892843467 ], [ 19.847034520106178, 51.203813835790193 ], [ 19.854921780889555, 51.215323910020352 ], [ 19.86398206076592, 51.226824786799959 ], [ 19.864672656820201, 51.227621490356412 ], [ 19.873803415190135, 51.238319272306285 ], [ 19.884908029355824, 51.249803230270366 ], [ 19.884914050232766, 51.249808988422757 ], [ 19.896809975113122, 51.261280021917479 ], [ 19.905106418724898, 51.268501039305939 ], [ 19.909965856598269, 51.272745857970499 ], [ 19.924289690205391, 51.28420099748287 ], [ 19.925269912337093, 51.284934498727367 ], [ 19.939638873642579, 51.295646159112628 ], [ 19.945412368590436, 51.299638118453089 ], [ 19.95626717522736, 51.307078870418707 ], [ 19.965540128680356, 51.313024019433122 ], [ 19.974195821578991, 51.318498413335277 ], [ 19.985656554770546, 51.325330889066834 ], [ 19.993471873665445, 51.329903795081201 ], [ 20.005764030053246, 51.336733170336551 ], [ 20.014171107459852, 51.341293698194818 ], [ 20.025864203184682, 51.347358466702403 ], [ 20.036401794803176, 51.352666414543286 ], [ 20.045958153590806, 51.357299404909263 ], [ 20.060309527170165, 51.364019759319213 ], [ 20.066046503884721, 51.366621841756157 ], [ 20.086083249662927, 51.375350959733957 ], [ 20.086129495769359, 51.375370594268787 ], [ 20.10620965522514, 51.38368192113478 ], [ 20.113761982241325, 51.386658419378684 ], [ 20.126285180400767, 51.391505974876196 ], [ 20.143836739003287, 51.397936002890326 ], [ 20.146355548362965, 51.398847620323309 ], [ 20.166423836646594, 51.405852893520958 ], [ 20.176525193099426, 51.409179688328045 ], [ 20.186487638917107, 51.412445986718637 ], [ 20.206547203797474, 51.418657037458715 ], [ 20.212404490900191, 51.420381328711123 ], [ 20.226604405943547, 51.424574918063655 ], [ 20.246656183871597, 51.430101361109635 ], [ 20.252124012490977, 51.431531069357028 ], [ 20.266706160687299, 51.435386055855766 ], [ 20.286750923264506, 51.44031889529451 ], [ 20.296699870105545, 51.442613783876823 ], [ 20.306792472019183, 51.444986241116183 ], [ 20.326830839617731, 51.449401303074282 ], [ 20.346862454185473, 51.453454027213652 ], [ 20.347657333751663, 51.453606424807568 ], [ 20.366894607038798, 51.457404508899749 ], [ 20.386920581999462, 51.461035622011529 ], [ 20.406940347012196, 51.46436003359765 ], [ 20.407638357849319, 51.464469001524918 ], [ 20.426960731372191, 51.467609614371888 ], [ 20.446975382332571, 51.470586669725982 ], [ 20.466984302162118, 51.473302473200093 ], [ 20.481637600883982, 51.475124684555595 ], [ 20.486989382006826, 51.475825764003545 ], [ 20.506993462366616, 51.478250404968527 ], [ 20.526992217669797, 51.480450768775505 ], [ 20.546985855789647, 51.482441722475478 ], [ 20.566974573784208, 51.484237050941246 ], [ 20.581226329494672, 51.485391503703433 ], [ 20.586959978497248, 51.485890440502629 ], [ 20.606944064085759, 51.487463906807044 ], [ 20.626923496171884, 51.488866725748402 ], [ 20.646898430351403, 51.490109433222273 ], [ 20.6668690086711, 51.491201684089205 ], [ 20.686835358754056, 51.492152281265511 ], [ 20.706797592704159, 51.492969196778525 ], [ 20.726755805750308, 51.493659584396873 ], [ 20.746710074585859, 51.494229783355699 ], [ 20.756821024485628, 51.494459798163547 ], [ 20.766661646740367, 51.494716123524462 ], [ 20.786610287707003, 51.495115408738194 ], [ 20.806554802449931, 51.495400292344407 ], [ 20.826495162276036, 51.495573796124901 ], [ 20.846431302728718, 51.495637924511293 ], [ 20.866363118468506, 51.49559359368893 ], [ 20.886290457285625, 51.495440544089625 ], [ 20.906213113122938, 51.495177234560153 ], [ 20.926130817973288, 51.494800716284871 ], [ 20.946043232499363, 51.494306484321605 ], [ 20.965949935207821, 51.493688304387788 ], [ 20.985850409991823, 51.492938012307334 ], [ 21.005744031839065, 51.492045283324956 ], [ 21.025630050484299, 51.490997368286692 ], [ 21.045507571769743, 51.489778793535557 ], [ 21.065379125227569, 51.488450417216555 ], [ 21.085240582266945, 51.486924879470919 ], [ 21.105090544661635, 51.485177366798325 ], [ 21.124927370540274, 51.483178737846558 ], [ 21.144749138312608, 51.480894948994994 ], [ 21.164553605821968, 51.478286408538416 ], [ 21.181440031646765, 51.475759755370234 ], [ 21.184339520352154, 51.475335633007347 ], [ 21.204111378764161, 51.472144992638292 ], [ 21.223858204046675, 51.468495099148676 ], [ 21.243576032666684, 51.464317100523203 ], [ 21.249613394568989, 51.462902570878953 ], [ 21.263270848681479, 51.459745474603665 ], [ 21.282933200530518, 51.454600806374707 ], [ 21.297064692820928, 51.450413427279003 ], [ 21.302558188962617, 51.448800084242606 ], [ 21.322149519698794, 51.442432534448628 ], [ 21.333937722291545, 51.438116028245254 ], [ 21.341695698566109, 51.435287271371962 ], [ 21.361195327093338, 51.427355849275962 ], [ 21.36438412510044, 51.425936720697059 ], [ 21.380650328886162, 51.418693867122109 ], [ 21.390478577218424, 51.413838239540191 ], [ 21.400049293766106, 51.409100518819038 ], [ 21.413484297873968, 51.401797499687468 ], [ 21.419391080714881, 51.398575547688424 ], [ 21.434178747180525, 51.389800184944221 ], [ 21.438674566251716, 51.387118837444788 ], [ 21.453102595022987, 51.377836210711735 ], [ 21.457898621842077, 51.374729979826888 ], [ 21.470638176368038, 51.365898380057033 ], [ 21.477062077897788, 51.36140761287411 ], [ 21.487058776337193, 51.35398152057622 ], [ 21.49616367801303, 51.347148607791368 ], [ 21.50256058425882, 51.342081914624742 ], [ 21.515202028173295, 51.331947197458 ], [ 21.517283968686755, 51.330196914373857 ], [ 21.531414577759143, 51.318322803449384 ], [ 21.534185969338285, 51.315983207688546 ], [ 21.545041822312584, 51.306457855832946 ], [ 21.553114413622804, 51.299252466980526 ], [ 21.558155507366202, 51.294602473173185 ], [ 21.570828649982229, 51.282755227029114 ], [ 21.571982363669381, 51.28168080158953 ], [ 21.583261717557441, 51.27091183734116 ], [ 21.590803992086609, 51.263536592762669 ], [ 21.595276743978783, 51.259076329960926 ], [ 21.60698864751696, 51.247246275242418 ], [ 21.609567557377943, 51.244623402504637 ], [ 21.618508305640901, 51.235419283931876 ], [ 21.628277715136306, 51.225037442568464 ], [ 21.629620569955129, 51.22360025136679 ], [ 21.640644652751423, 51.211782088816513 ], [ 21.646936488149063, 51.204826417258971 ], [ 21.651329428318437, 51.199970515790675 ], [ 21.661792530494065, 51.18816294948121 ], [ 21.665534889204128, 51.183845946869532 ], [ 21.67207287782735, 51.176358561220802 ], [ 21.682022091470085, 51.164560804587396 ], [ 21.684071560750233, 51.162086455492918 ], [ 21.691905612527005, 51.152763653530542 ], [ 21.701382871155221, 51.14097499702487 ], [ 21.702543200626732, 51.1395051433094 ], [ 21.710868065763325, 51.129185329414639 ], [ 21.719914043631171, 51.117405057280763 ], [ 21.72094490207035, 51.116032749726863 ], [ 21.728994385298986, 51.105623225602507 ], [ 21.737650718101673, 51.093850567536641 ], [ 21.739270708695809, 51.09158368165992 ], [ 21.746317122878992, 51.082076976319712 ], [ 21.754627471162731, 51.070311084097469 ], [ 21.757514474392291, 51.066070890468517 ], [ 21.762869585772179, 51.058546161191202 ], [ 21.770879889057323, 51.046786103488344 ], [ 21.775671089484469, 51.039426349923438 ], [ 21.778686431271225, 51.035030292732223 ], [ 21.786444555930782, 51.023275064210651 ], [ 21.793738026308226, 51.011626165221777 ], [ 21.793802767892128, 51.011528839073996 ], [ 21.801357621995749, 50.99977738256802 ], [ 21.80852799791008, 50.988034637743652 ], [ 21.811708761105468, 50.982580507914015 ], [ 21.815651771027674, 50.976292528167249 ], [ 21.822685148671901, 50.964552121764363 ], [ 21.829370997942046, 50.952819669703814 ], [ 21.829589844728343, 50.952416229862607 ], [ 21.836288985501302, 50.941081146247669 ], [ 21.842889605485038, 50.929349898246151 ], [ 21.847370065373678, 50.920966376066637 ], [ 21.849337798541562, 50.917621953590242 ], [ 21.855878585684774, 50.905891340630021 ], [ 21.862091500149301, 50.894168360364453 ], [ 21.8650486006763, 50.888236233220532 ], [ 21.868278681137824, 50.88244563783848 ], [ 21.87442044076019, 50.870723662529301 ], [ 21.880210169433195, 50.859010014858157 ], [ 21.882596667723401, 50.853777326862705 ], [ 21.885969939885541, 50.847296778948859 ], [ 21.891583882464328, 50.835586833018127 ], [ 21.896760188304707, 50.823887449816574 ], [ 21.899910260875124, 50.815935620983034 ], [ 21.901645709852701, 50.812195035404748 ], [ 21.906341819865531, 50.800507100792068 ], [ 21.910387971102146, 50.788835170775151 ], [ 21.913679731303255, 50.777181928165128 ], [ 21.916082054621672, 50.765550821105052 ], [ 21.916292767971203, 50.763562995378237 ], [ 21.917642456959026, 50.75394072061799 ], [ 21.917802381452248, 50.742365654555059 ], [ 21.916161982733126, 50.730835646234297 ], [ 21.913821108035734, 50.723789234405274 ], [ 21.91240515155862, 50.719358533715216 ], [ 21.906373082073227, 50.707938087197476 ], [ 21.897105044465693, 50.696597865787304 ], [ 21.892274367825635, 50.692299578432532 ], [ 21.884760665520599, 50.685333161574285 ], [ 21.871697882257727, 50.676215550759686 ], [ 21.868856130026746, 50.67415493165111 ], [ 21.851368277411101, 50.663967800504544 ], [ 21.849846247837579, 50.663050606406472 ], [ 21.831163123643577, 50.653609424636898 ], [ 21.828087310150242, 50.652010027387654 ], [ 21.81103199059665, 50.644338947936077 ], [ 21.803828354663693, 50.641025669343321 ], [ 21.790951041450786, 50.635778967336371 ], [ 21.777206398961251, 50.63009271200584 ], [ 21.77090815935421, 50.627739732451587 ], [ 21.750897250971086, 50.620128823364212 ], [ 21.748524730110038, 50.619202384235436 ], [ 21.730912894664691, 50.61286254115582 ], [ 21.718271615770181, 50.608341771593295 ], [ 21.710952109390444, 50.605897030958708 ], [ 21.691013335226, 50.599211964458917 ], [ 21.6859919230175, 50.597520156108331 ], [ 21.671093701142645, 50.592763207663538 ], [ 21.651625698333625, 50.586737224014307 ], [ 21.651196218949234, 50.586609925880147 ], [ 21.63131355885826, 50.58062763995224 ], [ 21.615187147518359, 50.575990814264443 ], [ 21.611452902110241, 50.57495022999646 ], [ 21.591606912508624, 50.569451319812153 ], [ 21.575825854491484, 50.565297809433474 ], [ 21.571782089438582, 50.564254540679904 ], [ 21.551970644047429, 50.559223018823857 ], [ 21.532778012354743, 50.5546718766347 ], [ 21.532181740122201, 50.55453172331363 ], [ 21.512402584105601, 50.54994834313348 ], [ 21.492645388071868, 50.545707049216311 ], [ 21.484961359453575, 50.544132048402425 ], [ 21.472901384438387, 50.541648689057261 ], [ 21.453173059526527, 50.537825706685602 ], [ 21.433464467551751, 50.5343227231971 ], [ 21.42992386201902, 50.533723682830811 ], [ 21.413764901611149, 50.53093801865581 ], [ 21.394081719351401, 50.527819908189365 ], [ 21.374416009987034, 50.524996839340865 ], [ 21.363262385888991, 50.523526053631088 ], [ 21.354762293051817, 50.522366252130212 ], [ 21.335118973928402, 50.519900788401372 ], [ 21.315491084927508, 50.517707526982271 ], [ 21.29587766681194, 50.515773774731343 ], [ 21.276277826241454, 50.514087750845896 ], [ 21.272115143164864, 50.513771047788083 ], [ 21.256685299064149, 50.512524642742569 ], [ 21.237104159630487, 50.511173894948634 ], [ 21.217535162124644, 50.510057276707123 ], [ 21.197977607428783, 50.509166037262858 ], [ 21.178430856307486, 50.508492400160165 ], [ 21.15889432625081, 50.508029539861845 ], [ 21.139367488549944, 50.507771561948914 ], [ 21.119849865614633, 50.507713487364981 ], [ 21.100341028538075, 50.507851241129593 ], [ 21.080840594911884, 50.50818164589554 ], [ 21.061348226891962, 50.508702420710925 ], [ 21.041863629516058, 50.509412185370351 ], [ 21.022386549274174, 50.510310470771344 ], [ 21.002916772933631, 50.511397735739145 ], [ 20.983454126622384, 50.512675390856359 ], [ 20.963998475176222, 50.514145829922413 ], [ 20.944549721757895, 50.515812469774083 ], [ 20.925107807759929, 50.517679799343171 ], [ 20.905672713005757, 50.519753438966745 ], [ 20.899768676541342, 50.520444779780092 ], [ 20.886239818856531, 50.521923908437728 ] ] ] ] } }
]
}
