{
"type": "FeatureCollection",
"name": "zasieg_JD_cykl_2_epsg4326",
"crs": { "type": "name", "properties": { "name": "urn:ogc:def:crs:OGC:1.3:CRS84" } },
"features": [
{ "type": "Feature", "properties": { "gatunek": "JD", "cykl": 2, "pokrycie": 0.95, "prog_kde": 2.6735946980435842e-12 }, "geometry": { "type": "MultiPolygon", "coordinates": [ [ [ [ 22.834764905461974, 49.015004340368037 ], [ 22.815884688980582, 49.015632492305052 ], [ 22.798867949547517, 49.027136999407631 ], [ 22.797883346249787, 49.027800702862827 ], [ 22.780855742016858, 49.039304463513631 ], [ 22.779873205208823, 49.03996615969691 ], [ 22.762834513797177, 49.051469314161579 ], [ 22.761854259499984, 49.052128855475246 ], [ 22.76077620302264, 49.051536500246662 ], [ 22.7420907774633, 49.04120118955862 ], [ 22.723198592003421, 49.041813960959246 ], [ 22.704305762568424, 49.042423561281325 ], [ 22.703218992000302, 49.04182541885131 ], [ 22.684558340708808, 49.031485698786078 ], [ 22.667511461117194, 49.042967264188377 ], [ 22.666518183021481, 49.043633221682711 ], [ 22.647623438539885, 49.044233267985966 ], [ 22.630560119124294, 49.055711950297081 ], [ 22.631397059127472, 49.067260325572782 ], [ 22.630411432255666, 49.067919836049377 ], [ 22.613326219985787, 49.07940290467436 ], [ 22.612344828105929, 49.080058933421427 ], [ 22.595246296327591, 49.091542843827931 ], [ 22.594269397758652, 49.092195233392154 ], [ 22.575354667422424, 49.092783137790398 ], [ 22.574289224998939, 49.092194496834672 ], [ 22.555613755089666, 49.081822096372406 ], [ 22.538500176492263, 49.093298509256613 ], [ 22.537523340644537, 49.093949251360485 ], [ 22.536460147534456, 49.093361103865924 ], [ 22.51778993651509, 49.082981371312513 ], [ 22.498877105131523, 49.083556140412277 ], [ 22.479963663020893, 49.084127656361858 ], [ 22.462826891738771, 49.095596168518497 ], [ 22.461853306081132, 49.096242534239174 ], [ 22.442934277433672, 49.096807710707758 ], [ 22.424014646982226, 49.097369620287445 ], [ 22.405094417889483, 49.09792825912524 ], [ 22.387920775783748, 49.109395731978481 ], [ 22.388702516558968, 49.120947005009533 ], [ 22.387747523905578, 49.121578756556225 ], [ 22.370547776600315, 49.133053253751918 ], [ 22.371326667781698, 49.144604669906869 ], [ 22.370384574544861, 49.145227398788528 ], [ 22.351445042866853, 49.145777039159071 ], [ 22.350433712245138, 49.145213490973575 ], [ 22.331729825556014, 49.134774808351317 ], [ 22.312793509888639, 49.135317682262205 ], [ 22.293856614851027, 49.135857282393928 ], [ 22.274919143944985, 49.136393609684966 ], [ 22.257658622275152, 49.147871116946092 ], [ 22.256738656448089, 49.148476176857045 ], [ 22.237795658142538, 49.149006199504008 ], [ 22.220507147322756, 49.160488281414743 ], [ 22.221252671472815, 49.172041357989784 ], [ 22.221999093676004, 49.183594391194369 ], [ 22.221101418928757, 49.18418428704895 ], [ 22.220141712524285, 49.183646248428239 ], [ 22.201398241254118, 49.173157614277166 ], [ 22.182444776874721, 49.173678371064405 ], [ 22.165109726222699, 49.185169113561351 ], [ 22.164227846199861, 49.185747352919321 ], [ 22.145268881617209, 49.186261899974518 ], [ 22.127905353055425, 49.19775744184777 ], [ 22.127038153102792, 49.198325498515523 ], [ 22.108073699972167, 49.19883387760563 ], [ 22.089108707066369, 49.19933904626771 ], [ 22.071705604495971, 49.210840801119105 ], [ 22.070859244462834, 49.21139442449271 ], [ 22.051888782045367, 49.211893486157223 ], [ 22.034457456677, 49.223399784495193 ], [ 22.035164693750186, 49.234954689676414 ], [ 22.035872929739533, 49.246509549728252 ], [ 22.036582176426251, 49.258064364338111 ], [ 22.035751580218012, 49.258608380670957 ], [ 22.018292949402881, 49.270117471317029 ], [ 22.018999992816955, 49.281672391900052 ], [ 22.018173341023275, 49.282214310309911 ], [ 22.000699453594908, 49.293722879327461 ], [ 21.999876576162492, 49.294262477904617 ], [ 21.982390859133634, 49.305770591197394 ], [ 21.981570915942093, 49.306308446199679 ], [ 21.964074235950232, 49.317815523373994 ], [ 21.964772775064286, 49.329370844011471 ], [ 21.965472421792875, 49.34092611713816 ], [ 21.964645434425393, 49.341469651271794 ], [ 21.945623225514169, 49.341953038451621 ], [ 21.926600505376207, 49.342433274459516 ], [ 21.907577277712477, 49.342910365672857 ], [ 21.890043041662526, 49.354411430166387 ], [ 21.88923103254772, 49.354944793338547 ], [ 21.871689671470744, 49.366442264235964 ], [ 21.870875861152147, 49.366977059107406 ], [ 21.851842244768282, 49.367445305711712 ], [ 21.834284840779507, 49.378939108993897 ], [ 21.834959053854305, 49.39049552599495 ], [ 21.834138713468811, 49.3910351053025 ], [ 21.833269083026114, 49.390536984863004 ], [ 21.814434144923972, 49.379934793932385 ], [ 21.813579876700963, 49.379445253100222 ], [ 21.794738443158195, 49.368831261206473 ], [ 21.793898986002844, 49.36835000099115 ], [ 21.775051603270086, 49.3577245091968 ], [ 21.757450231949132, 49.369225810155392 ], [ 21.758105950569181, 49.380783016478269 ], [ 21.757314074706969, 49.381302760948138 ], [ 21.739712560029904, 49.392793499133433 ], [ 21.738916334163804, 49.393316305442617 ], [ 21.721311138875773, 49.404801163471255 ], [ 21.720509641613972, 49.405327622982817 ], [ 21.702901673527972, 49.416806006383368 ], [ 21.702093990077717, 49.417336704935039 ], [ 21.701240152170428, 49.41684485969715 ], [ 21.682407478473518, 49.406212382527777 ], [ 21.663355697005258, 49.406650070323799 ], [ 21.645719074561093, 49.418129411996567 ], [ 21.646353110640611, 49.429687514615367 ], [ 21.64554747714628, 49.430216578329286 ], [ 21.627917713245886, 49.441680781444603 ], [ 21.627104016908902, 49.442215256339125 ], [ 21.626245051653861, 49.441718802947236 ], [ 21.607423741425283, 49.431077062031527 ], [ 21.588361192051696, 49.431502602440247 ], [ 21.569298192923089, 49.431925011699313 ], [ 21.550234747490045, 49.432344292450814 ], [ 21.531170859214154, 49.432760447627423 ], [ 21.530351320123547, 49.432285596445901 ], [ 21.529768556342724, 49.420725900839813 ], [ 21.510925096941605, 49.410039214859367 ], [ 21.493213079373195, 49.421520329850438 ], [ 21.492455323733854, 49.422015906133055 ], [ 21.491658371072482, 49.421553860247371 ], [ 21.472813031141438, 49.410855378896628 ], [ 21.453756354882259, 49.411258810986041 ], [ 21.434699254382533, 49.41165914914653 ], [ 21.415641733157546, 49.41205639839918 ], [ 21.397884107313708, 49.423537555454324 ], [ 21.397147472968097, 49.42401824637453 ], [ 21.378084646120307, 49.424409442269564 ], [ 21.360316633762729, 49.435883100288436 ], [ 21.359576514494439, 49.436365858683452 ], [ 21.341807627596701, 49.44783176443849 ], [ 21.341059393795661, 49.448319817630114 ], [ 21.321986383681434, 49.44870197554976 ], [ 21.302912972673628, 49.449081065612532 ], [ 21.283839164331241, 49.449457094616157 ], [ 21.28306643740472, 49.449006865568371 ], [ 21.264231892560083, 49.438260939010505 ], [ 21.263474942551326, 49.437820062544674 ], [ 21.244633559275755, 49.427062015676 ], [ 21.225567546600157, 49.427428777355651 ], [ 21.22482826009837, 49.426998317779415 ], [ 21.224315214314007, 49.415436122820374 ], [ 21.223801890750522, 49.403873912401949 ], [ 21.204945475591984, 49.393088014455969 ], [ 21.185892130260225, 49.39344856067779 ], [ 21.16802628712092, 49.404933666455726 ], [ 21.167347672460725, 49.405374041231745 ], [ 21.14947985400434, 49.416852082278218 ], [ 21.148794236456105, 49.417296965308736 ], [ 21.130924956982302, 49.428767610457164 ], [ 21.130231816305756, 49.429217337516477 ], [ 21.129504467607767, 49.428793788402274 ], [ 21.11066705234132, 49.417997291759704 ], [ 21.091602916364124, 49.418342974211924 ], [ 21.072538422243316, 49.418685675979773 ], [ 21.053473573308722, 49.419025401623585 ], [ 21.052759801071158, 49.418610260148498 ], [ 21.052285166172751, 49.407046803216033 ], [ 21.052955986831218, 49.406621499604299 ], [ 21.07086600360681, 49.3951434566644 ], [ 21.071529528557264, 49.394722241380613 ], [ 21.090584717705109, 49.394378864400913 ], [ 21.108487523573231, 49.382891224031432 ], [ 21.107999391971958, 49.371328119369849 ], [ 21.089147744920304, 49.360503993993042 ], [ 21.070105613437956, 49.360846556827312 ], [ 21.051063129138281, 49.361186172748376 ], [ 21.050384385807309, 49.360792803367048 ], [ 21.031543638380978, 49.349955840510944 ], [ 21.030869394829072, 49.349565469785908 ], [ 21.012033045260221, 49.338722800066058 ], [ 21.01136205985113, 49.338334726493756 ], [ 20.992531344621494, 49.327487064781906 ], [ 20.991862355177499, 49.327100577100971 ], [ 20.992499411903005, 49.326696069071183 ], [ 21.010427184864131, 49.315207014982505 ], [ 20.991598064334429, 49.304354675317974 ], [ 20.97257649971035, 49.304682570449962 ], [ 20.971911104940663, 49.304298882919902 ], [ 20.953097326202052, 49.293441724335601 ], [ 20.93407954813501, 49.293763882971753 ], [ 20.915061442862722, 49.294083181551386 ], [ 20.897128714971839, 49.305551176787034 ], [ 20.897575150059694, 49.317115747023259 ], [ 20.896931144019913, 49.317531366183132 ], [ 20.878994144021096, 49.32899130172671 ], [ 20.878343533248557, 49.329411019219663 ], [ 20.860404479423984, 49.340863946233888 ], [ 20.859746975048537, 49.34128793521139 ], [ 20.8590488598335, 49.340885764656846 ], [ 20.840278344137815, 49.330029321987155 ], [ 20.821245279409432, 49.330334185735637 ], [ 20.803306941789998, 49.34176913567368 ], [ 20.802634394480013, 49.342202299824194 ], [ 20.784694659372544, 49.353629827544957 ], [ 20.784014554004642, 49.354067624566603 ], [ 20.766073631991066, 49.365487595545368 ], [ 20.765385751670792, 49.365930146638519 ], [ 20.747443838241963, 49.377342436245485 ], [ 20.747856372996846, 49.388907825937636 ], [ 20.748269691133284, 49.400473181976032 ], [ 20.747568637424138, 49.400923892335456 ], [ 20.729622993923311, 49.412325269357837 ], [ 20.728913480828268, 49.412781139680796 ], [ 20.709847285806838, 49.413067986998563 ], [ 20.690780797310634, 49.413351922044924 ], [ 20.690016145782629, 49.412911086680566 ], [ 20.671321210946907, 49.402066016070115 ], [ 20.67055058876144, 49.401622508585895 ], [ 20.651870568036625, 49.390777870618734 ], [ 20.633935617109433, 49.402145857700297 ], [ 20.633195764113722, 49.402619687364421 ], [ 20.615260170359971, 49.41397978437935 ], [ 20.614511970409762, 49.414458558277836 ], [ 20.613717054353717, 49.414001334904462 ], [ 20.613337126049192, 49.402435177322168 ], [ 20.612956845202504, 49.39086900264374 ], [ 20.594320219314774, 49.380030459223214 ], [ 20.59351146076391, 49.37956722336174 ], [ 20.574895853134976, 49.368732705264875 ], [ 20.555845325786439, 49.368997255575827 ], [ 20.537944041202596, 49.380319946912216 ], [ 20.537155205757628, 49.380823333756815 ], [ 20.519252657513444, 49.392138557073238 ], [ 20.518456104051907, 49.392646336499197 ], [ 20.50055210578326, 49.403954209143606 ], [ 20.499748014679422, 49.404466248567424 ], [ 20.48068298741341, 49.404718426908872 ], [ 20.46161770322168, 49.404967690681964 ], [ 20.442552165016512, 49.405214034734179 ], [ 20.441659424307467, 49.404703642779246 ], [ 20.423152123850397, 49.393894184991829 ], [ 20.422238760620051, 49.393372875600264 ], [ 20.403761030915316, 49.382572528191801 ], [ 20.384703717306458, 49.382810805730834 ], [ 20.366863186592081, 49.394040906159915 ], [ 20.365966736050741, 49.394607895689774 ], [ 20.34690445730617, 49.39483992038388 ], [ 20.327841941899997, 49.395068990499482 ], [ 20.326855756524342, 49.394507028022815 ], [ 20.326531418488585, 49.382939479273055 ], [ 20.326206430166046, 49.371371915507396 ], [ 20.325880791949558, 49.359804336713808 ], [ 20.325554503453212, 49.348236742889242 ], [ 20.307245679522477, 49.337497364667705 ], [ 20.289516669094795, 49.348644454682351 ], [ 20.288506898307588, 49.349280804883918 ], [ 20.287426152523867, 49.348667760629453 ], [ 20.269164271140053, 49.33794513703063 ], [ 20.251464127004748, 49.349062757633547 ], [ 20.250416090517419, 49.349721683115831 ], [ 20.249295795839348, 49.349086216158447 ], [ 20.231081959468135, 49.33838103777493 ], [ 20.212040471712999, 49.338594496255048 ], [ 20.192998766373218, 49.338804939239843 ], [ 20.191794525847193, 49.338122189614076 ], [ 20.173682061741797, 49.327457852156343 ], [ 20.172431118450238, 49.326748971087795 ], [ 20.173647052048185, 49.325985184589229 ], [ 20.191187006293049, 49.314985853685741 ], [ 20.173133066014557, 49.304350673692554 ], [ 20.154104331313128, 49.304556643299634 ], [ 20.152775190087059, 49.303804119174394 ], [ 20.134810095025657, 49.293207995955072 ], [ 20.133425637288354, 49.29242421842396 ], [ 20.133129031277221, 49.280855786313211 ], [ 20.13283154562054, 49.269287340039767 ], [ 20.115003997543294, 49.258759218163597 ], [ 20.113492543647443, 49.257903976820494 ], [ 20.11319667430794, 49.246335431754339 ], [ 20.112899978897261, 49.234766871816952 ], [ 20.112602489177551, 49.223198296694491 ], [ 20.094970890989746, 49.212770333798183 ], [ 20.093276596767243, 49.21181138978784 ], [ 20.092980911943435, 49.200242713961764 ], [ 20.092684547075887, 49.188674021693522 ], [ 20.075225890443399, 49.178335498612853 ], [ 20.05624501596245, 49.178532632663455 ], [ 20.039272681963013, 49.189167051311486 ], [ 20.037505256292196, 49.190269252691998 ], [ 20.020517178146385, 49.200905772486401 ], [ 20.018756605779913, 49.202001957108756 ], [ 20.001751297262736, 49.21264149420702 ], [ 19.999999060745903, 49.213730783971002 ], [ 19.982975101393585, 49.224374211391051 ], [ 19.98123261768291, 49.225455782995255 ], [ 19.962233049703954, 49.225634599293265 ], [ 19.943233299795072, 49.225810252091485 ], [ 19.924233371434209, 49.225982749133586 ], [ 19.905233268152188, 49.226152101704329 ], [ 19.903255614946072, 49.225025124720425 ], [ 19.902993859236208, 49.213455819932904 ], [ 19.885820478712965, 49.203240172595287 ], [ 19.883705626893985, 49.202033641378002 ], [ 19.866627285497287, 49.191866939867801 ], [ 19.847639970182282, 49.192028803130043 ], [ 19.828652493361691, 49.192187609297712 ], [ 19.81199382810474, 49.202560079382629 ], [ 19.809853192490973, 49.203879054677749 ], [ 19.807600482923277, 49.202590883290775 ], [ 19.790677070131075, 49.192496181860413 ], [ 19.774079124372172, 49.202820415030303 ], [ 19.771868612359405, 49.204180404442916 ], [ 19.755239496048929, 49.21451645427409 ], [ 19.75535826896828, 49.226086964051575 ], [ 19.755478359513042, 49.237657442287308 ], [ 19.772549021476973, 49.24783996179319 ], [ 19.774579093002785, 49.249102194325445 ], [ 19.774707476141899, 49.260672559141007 ], [ 19.791929986309928, 49.270935492979625 ], [ 19.793827595615991, 49.272113976332378 ], [ 19.811138717298579, 49.282422015404762 ], [ 19.812960112636077, 49.28355213511901 ], [ 19.811175247999099, 49.284648961307461 ], [ 19.794102733507337, 49.295254439003571 ], [ 19.794242673552287, 49.306824619702596 ], [ 19.794384241536612, 49.318394766317105 ], [ 19.794527465377385, 49.32996487865325 ], [ 19.794672367372495, 49.341534956555691 ], [ 19.794818964582781, 49.353104999904971 ], [ 19.794967269263285, 49.364675008614554 ], [ 19.795117289332229, 49.376244982627668 ], [ 19.793635377173821, 49.3771550240591 ], [ 19.776226358262591, 49.387944344423765 ], [ 19.77637474233568, 49.399514300083347 ], [ 19.776524872214011, 49.41108422110203 ], [ 19.775121362273495, 49.411946468369955 ], [ 19.773650503423006, 49.411103489064516 ], [ 19.755871351255003, 49.400534359328745 ], [ 19.754345711017837, 49.399660124656528 ], [ 19.736630285125461, 49.389120971160779 ], [ 19.735046478414663, 49.388213494364152 ], [ 19.717398157608297, 49.377706384329848 ], [ 19.700058908009208, 49.388430644870525 ], [ 19.698502194274461, 49.389384881126688 ], [ 19.681141383109043, 49.400114559566838 ], [ 19.679597280108545, 49.401061204064192 ], [ 19.66052844620927, 49.401186169716773 ], [ 19.64145949266716, 49.401308527419317 ], [ 19.624118287992303, 49.412007298234307 ], [ 19.624230424391392, 49.423577540147747 ], [ 19.64188710211619, 49.434105695442192 ], [ 19.643403002341071, 49.435043284389209 ], [ 19.641911288748815, 49.435958991960383 ], [ 19.624460507776803, 49.446717923508707 ], [ 19.622975116341355, 49.447630296817835 ], [ 19.603888009995579, 49.447746752914284 ], [ 19.5848007942358, 49.447860748112319 ], [ 19.567379228496133, 49.458582804389174 ], [ 19.567484537969442, 49.47015302403679 ], [ 19.565979527335202, 49.471078949957189 ], [ 19.548517883137915, 49.481815229549724 ], [ 19.548622285070753, 49.493385418732615 ], [ 19.548728625495638, 49.504955575637979 ], [ 19.547269451442528, 49.505855760881893 ], [ 19.529749898663447, 49.516614668538502 ], [ 19.529855366225007, 49.528184794978522 ], [ 19.52996276715961, 49.539754889468043 ], [ 19.530072099285771, 49.551324952015257 ], [ 19.528657860932945, 49.552201095786664 ], [ 19.511078939849138, 49.562980927651871 ], [ 19.511187528060091, 49.574550959641627 ], [ 19.509770452381812, 49.575431011360585 ], [ 19.490633189134559, 49.575532408047053 ], [ 19.473075039519987, 49.586283496931578 ], [ 19.471607284225726, 49.5871965108282 ], [ 19.454064684546687, 49.597930084488276 ], [ 19.454165690682633, 49.609500114719715 ], [ 19.452679412490859, 49.61042714092374 ], [ 19.451105733562617, 49.609512079413982 ], [ 19.450992569761087, 49.597942094680398 ], [ 19.433323263557806, 49.587388648082161 ], [ 19.414181126230499, 49.587481660430704 ], [ 19.412515608739934, 49.586515172256782 ], [ 19.412407340418536, 49.574945095757442 ], [ 19.394852265162548, 49.564444086292241 ], [ 19.375719011238566, 49.564533210946735 ], [ 19.373944487015198, 49.563505281163422 ], [ 19.373840860630921, 49.55193511602986 ], [ 19.373735090690957, 49.540364934611816 ], [ 19.35633332877094, 49.529937450263446 ], [ 19.337213465399369, 49.530023117889151 ], [ 19.3180935298838, 49.530107061538686 ], [ 19.298973524277908, 49.530189341789509 ], [ 19.279853450544966, 49.530270019936722 ], [ 19.277768366337448, 49.529064560887512 ], [ 19.26067185723992, 49.518791418386826 ], [ 19.258503764348124, 49.517538654520571 ], [ 19.241499257875219, 49.507313133345733 ], [ 19.239242063054387, 49.506009516931414 ], [ 19.239156420220137, 49.494439101572837 ], [ 19.239068207841505, 49.482868668259343 ], [ 19.222231051411281, 49.472731320181346 ], [ 19.219811779225882, 49.471336225347912 ], [ 19.222218191222275, 49.469888502131909 ], [ 19.238883988146302, 49.459727747919814 ], [ 19.222126622159045, 49.44963359093579 ], [ 19.203037772546466, 49.449710416687203 ], [ 19.200468598813309, 49.448230028014436 ], [ 19.200377195420831, 49.436659482593257 ], [ 19.200282923979689, 49.425088918842881 ], [ 19.200185740737659, 49.413518336831345 ], [ 19.183776322607265, 49.403614242596895 ], [ 19.164705264782338, 49.403690881925762 ], [ 19.145634147348922, 49.403766501209056 ], [ 19.126562971312154, 49.403841155381521 ], [ 19.107491737589275, 49.403914898096396 ], [ 19.091477782031756, 49.413655432715395 ], [ 19.088441169951047, 49.415524732405395 ], [ 19.085206957467292, 49.413660223468099 ], [ 19.069349100330175, 49.40405985784043 ], [ 19.050277698211691, 49.404131176598696 ], [ 19.04677565753553, 49.402111392592261 ], [ 19.031198935041377, 49.392669403946805 ], [ 19.012131889095919, 49.39274022917246 ], [ 18.993064788610013, 49.392810463356547 ], [ 18.973997633925158, 49.392880152971863 ], [ 18.958767250500483, 49.402113502042873 ], [ 18.958689852612736, 49.413684237334316 ], [ 18.97398173902787, 49.422967502692877 ], [ 18.977579749273865, 49.425260182064612 ], [ 18.977516264398904, 49.436830885774462 ], [ 18.977456673251332, 49.448401566937541 ], [ 18.973967142156209, 49.450553433656317 ], [ 18.958421070955321, 49.45996695996304 ], [ 18.9583638110423, 49.471537585931749 ], [ 18.958310445283928, 49.483108190011201 ], [ 18.95826094825858, 49.49467877219891 ], [ 18.958215303634727, 49.506249332495187 ], [ 18.954824502873645, 49.508350027343639 ], [ 18.939172770090121, 49.517811441990972 ], [ 18.935697291024699, 49.519966708326805 ], [ 18.916580671410873, 49.520029642273059 ], [ 18.912739148625107, 49.517794525769041 ], [ 18.897488150773341, 49.50853900789118 ], [ 18.878375933151432, 49.508601592348917 ], [ 18.863216905523256, 49.517746578868916 ], [ 18.859230510460549, 49.520217641060313 ], [ 18.844175591296086, 49.529293038097734 ], [ 18.844115582309865, 49.540863470674424 ], [ 18.84406045549515, 49.552433886567584 ], [ 18.840000509577493, 49.554959772491507 ], [ 18.825023480389348, 49.563977137193767 ], [ 18.82497494355637, 49.575547509299632 ], [ 18.824931761536817, 49.587117866261394 ], [ 18.824894063983852, 49.598688208281196 ], [ 18.824862002548471, 49.610258535593772 ], [ 18.820658109649763, 49.612892865173578 ], [ 18.80584124314332, 49.621798551205941 ], [ 18.80581907492278, 49.633368845427981 ], [ 18.805803449395828, 49.644939127404449 ], [ 18.805794642371541, 49.656509397599976 ], [ 18.805792964141986, 49.668079656535795 ], [ 18.801269156179288, 49.670938609488147 ], [ 18.78680652099245, 49.679616499567125 ], [ 18.782041259067199, 49.682634297097579 ], [ 18.762860588772686, 49.682723908670525 ], [ 18.757507167788763, 49.679558856455628 ], [ 18.743740888826313, 49.671197845139595 ], [ 18.729887072969767, 49.67949772949445 ], [ 18.724498965642656, 49.682913359579246 ], [ 18.710953775592831, 49.691022250867 ], [ 18.710983541651469, 49.702592530740304 ], [ 18.705177231360306, 49.706289422328346 ], [ 18.685986919744689, 49.706405154942246 ], [ 18.666796470542756, 49.706526835625567 ], [ 18.647605871914415, 49.706655080779818 ], [ 18.635390528762468, 49.713949433888324 ], [ 18.635467799270071, 49.725519850914182 ], [ 18.62823678335829, 49.730154034469962 ], [ 18.616711530059266, 49.737029464191252 ], [ 18.616833838625418, 49.748600000473907 ], [ 18.616976550392287, 49.760170580895142 ], [ 18.617141222717628, 49.771741210512808 ], [ 18.608659158307354, 49.777230637570185 ], [ 18.598556711594117, 49.783248380782631 ], [ 18.598788823763922, 49.794819228085757 ], [ 18.589240321348388, 49.801032994164572 ], [ 18.580349162866053, 49.806323946754425 ], [ 18.580667544353435, 49.817895100841817 ], [ 18.569800835852092, 49.825006680343911 ], [ 18.562414787646677, 49.82939760973823 ], [ 18.569722449843905, 49.833843541037687 ], [ 18.581419795908296, 49.841037753698693 ], [ 18.581860671870587, 49.852609276932185 ], [ 18.588767720156987, 49.856807315991929 ], [ 18.600901785999213, 49.864246296258898 ], [ 18.588635841192264, 49.872339969846976 ], [ 18.582892468933515, 49.87575278829938 ], [ 18.583493032493266, 49.887324809660242 ], [ 18.584157398520297, 49.898897033331856 ], [ 18.584891890172386, 49.910469480803734 ], [ 18.568946388538201, 49.921097071360904 ], [ 18.56746576815565, 49.921975592787355 ], [ 18.5620652313665, 49.933525101660976 ], [ 18.568798221814536, 49.937707101042093 ], [ 18.580860385228821, 49.945164292369149 ], [ 18.587979241977262, 49.94947279997961 ], [ 18.600174812692494, 49.956802195575285 ], [ 18.607172151695664, 49.960923032903501 ], [ 18.620056319648665, 49.968438708745119 ], [ 18.626376605564332, 49.97205541376654 ], [ 18.640560755545806, 49.980073713659664 ], [ 18.645592254250378, 49.982867431527929 ], [ 18.661753296300542, 49.991707070386354 ], [ 18.664818745465769, 49.993356277025427 ], [ 18.683709930508783, 50.003338609390184 ], [ 18.684055724880356, 50.0035186160382 ], [ 18.703302447110502, 50.013413602925674 ], [ 18.706389941800467, 50.014967794317215 ], [ 18.722558839239625, 50.022999800851714 ], [ 18.729981336491868, 50.026594639137549 ], [ 18.741824597095526, 50.03226645461455 ], [ 18.754617200881277, 50.038218870038762 ], [ 18.761099373065957, 50.041207931649133 ], [ 18.780382814155271, 50.049817618279661 ], [ 18.78043393915917, 50.049840080626979 ], [ 18.79967392767513, 50.058239788339684 ], [ 18.80732408406617, 50.061457305329199 ], [ 18.818973005059313, 50.066338656399942 ], [ 18.835712823575125, 50.073070401597136 ], [ 18.838279704810848, 50.07410182145049 ], [ 18.857593196631626, 50.081674915536162 ], [ 18.865563311214238, 50.084678228345069 ], [ 18.876913488328707, 50.088967308383182 ], [ 18.896240353993839, 50.09592899162066 ], [ 18.897237391089114, 50.096279980129076 ], [ 18.915573014168054, 50.102778828027162 ], [ 18.930775401761622, 50.107874190025385 ], [ 18.934911665289192, 50.109275009162069 ], [ 18.954255684162259, 50.115627082556131 ], [ 18.966542602448826, 50.119459350546826 ], [ 18.973604976741068, 50.121695258451425 ], [ 18.992959186345796, 50.12759164982559 ], [ 19.004841941329307, 50.131033391800109 ], [ 19.012318088922871, 50.133242066715091 ], [ 19.031681450779569, 50.13873953067079 ], [ 19.046035087724373, 50.142593668444178 ], [ 19.051048971874842, 50.143973858412288 ], [ 19.0704205983448, 50.149123958191588 ], [ 19.089795777469995, 50.153948048754565 ], [ 19.090575051133776, 50.154136752262168 ], [ 19.109174883963941, 50.158783443577391 ], [ 19.128557127335398, 50.163329556151858 ], [ 19.138966861039695, 50.165658194059134 ], [ 19.147942635436895, 50.167740997370785 ], [ 19.167331349435564, 50.172047269462084 ], [ 19.186722521762945, 50.176088925949571 ], [ 19.192023090909007, 50.177151844586817 ], [ 19.206116852583175, 50.180103101008598 ], [ 19.225513668231393, 50.18395349568322 ], [ 19.244912412777808, 50.187570091064302 ], [ 19.250718700819398, 50.188609219378051 ], [ 19.264313985244478, 50.191167068067408 ], [ 19.283717681733613, 50.194629455038665 ], [ 19.303122865112673, 50.197882322008745 ], [ 19.316568997743776, 50.20001766038618 ], [ 19.322529913649181, 50.201019516514329 ], [ 19.341939427505029, 50.204144618604502 ], [ 19.361350042968418, 50.207078831258123 ], [ 19.380761607830546, 50.209832144482611 ], [ 19.392106349018167, 50.211356495252687 ], [ 19.400174807778829, 50.212512801724884 ], [ 19.419589888028941, 50.215158761980099 ], [ 19.439005577473718, 50.21763602902498 ], [ 19.458421745449847, 50.219952355185185 ], [ 19.477838267782271, 50.222114886700879 ], [ 19.482307799516111, 50.222586295065597 ], [ 19.497256614105918, 50.224282951021543 ], [ 19.516675574223655, 50.226343840964695 ], [ 19.5360945654832, 50.228257189165696 ], [ 19.55551347452624, 50.230028681230877 ], [ 19.574932192419929, 50.231663604264952 ], [ 19.59435061436259, 50.233166887904048 ], [ 19.600463247495647, 50.233605021833071 ], [ 19.613769915026833, 50.234642500355847 ], [ 19.633189263469642, 50.236030213207066 ], [ 19.652607982209936, 50.237288220345498 ], [ 19.672025972451095, 50.238420717761194 ], [ 19.691443139121375, 50.239431687395118 ], [ 19.710859390842995, 50.240324924100555 ], [ 19.730274639931984, 50.241104060337591 ], [ 19.749688802425368, 50.241772588789559 ], [ 19.769101798132663, 50.242333883083624 ], [ 19.788513550709414, 50.242791216801223 ], [ 19.807923987750986, 50.243147780959788 ], [ 19.827333040905511, 50.243406700156001 ], [ 19.846740646005372, 50.24357104754742 ], [ 19.852992062285502, 50.243595051454434 ], [ 19.866147015696502, 50.243658893280639 ], [ 19.885551805497723, 50.243656655708079 ], [ 19.904954832348494, 50.24356044187352 ], [ 19.92435604545043, 50.243373522545859 ], [ 19.943755399607127, 50.243099181837955 ], [ 19.963152855513059, 50.242740730232072 ], [ 19.963608272477799, 50.242730455959304 ], [ 19.982548903232217, 50.242326964515534 ], [ 20.001943174796221, 50.241843523768196 ], [ 20.021335640695838, 50.241292974403095 ], [ 20.040726290444379, 50.240678564196131 ], [ 20.060115120679509, 50.240003623667242 ], [ 20.079502135608404, 50.239271578453341 ], [ 20.098887347486869, 50.23848596186351 ], [ 20.118270777131091, 50.2376504275352 ], [ 20.137652454459378, 50.23676876206985 ], [ 20.157032419059757, 50.235844897479211 ], [ 20.176410720777387, 50.234882923216368 ], [ 20.195787420313668, 50.233887097517815 ], [ 20.215162589827063, 50.232861857734925 ], [ 20.234536313522462, 50.23181182925773 ], [ 20.253908688214054, 50.230741832606626 ], [ 20.273279823843758, 50.229656888211025 ], [ 20.292649843934125, 50.228562218334616 ], [ 20.305774673519121, 50.227819568369917 ], [ 20.312019625246307, 50.227490187537654 ], [ 20.331390156931228, 50.226475317433959 ], [ 20.350760073040171, 50.225466783748338 ], [ 20.370129536217377, 50.224469978883846 ], [ 20.389498721624726, 50.223490426055463 ], [ 20.408867816487753, 50.222533754931355 ], [ 20.428237019409412, 50.221605671455649 ], [ 20.447606539429241, 50.220711921653411 ], [ 20.466976594809605, 50.219858249374113 ], [ 20.486347411535778, 50.219050348099763 ], [ 20.505719221524217, 50.218293807168436 ], [ 20.525092260541154, 50.217594052978797 ], [ 20.544466765843602, 50.216956285991792 ], [ 20.563842973566206, 50.216385414614649 ], [ 20.58322111588819, 50.215885987273808 ], [ 20.602601418027572, 50.215462124244929 ], [ 20.621984095120666, 50.215117450981865 ], [ 20.64136934905666, 50.214855034862687 ], [ 20.66075736534556, 50.214677327340482 ], [ 20.680148310105483, 50.214586113521783 ], [ 20.69954232725939, 50.214582471126015 ], [ 20.71893953603189, 50.214666740617076 ], [ 20.738340028834457, 50.214838508074429 ], [ 20.757743869620064, 50.215096602027685 ], [ 20.777151092777853, 50.2154391050953 ], [ 20.796561702624398, 50.215863380810418 ], [ 20.815975673530517, 50.216366115522845 ], [ 20.835392950703785, 50.216943374777976 ], [ 20.854813451625837, 50.21759067308156 ], [ 20.874237068122738, 50.218303055512536 ], [ 20.893663669026719, 50.219075189266889 ], [ 20.904684388869061, 50.219543954926635 ], [ 20.913095129503375, 50.219952105382426 ], [ 20.932532160624515, 50.220948212779362 ], [ 20.951971921251243, 50.221990331089437 ], [ 20.97141419763204, 50.223071896896222 ], [ 20.990858772405293, 50.224186517000362 ], [ 21.01030542969286, 50.225328081485429 ], [ 21.029753960135761, 50.226490868865241 ], [ 21.049204165762543, 50.227669641281366 ], [ 21.061676913904709, 50.22843394020525 ], [ 21.068658356049859, 50.228917296253371 ], [ 21.0881184186306, 50.230275092350837 ], [ 21.107579745755434, 50.231635458292992 ], [ 21.127042207809517, 50.232995397890406 ], [ 21.146505709050864, 50.234352778376817 ], [ 21.165970189990237, 50.235706343920739 ], [ 21.185435629072192, 50.237055713110941 ], [ 21.1932124460122, 50.23759536790061 ], [ 21.204907129666505, 50.238511573841386 ], [ 21.224383067575165, 50.240036212287201 ], [ 21.243860143867998, 50.241557574922773 ], [ 21.263338496527421, 50.243078646071183 ], [ 21.282818302873718, 50.244603130599032 ], [ 21.302299776480211, 50.246135359151666 ], [ 21.311547980210083, 50.246871449091088 ], [ 21.32178856497675, 50.247791299509785 ], [ 21.341284513911635, 50.249564673700661 ], [ 21.360783021316887, 50.251359444392648 ], [ 21.38028442046993, 50.253181752980815 ], [ 21.39978905512735, 50.255037747527105 ], [ 21.413461524526038, 50.256369513602046 ], [ 21.419301158704609, 50.257010135443004 ], [ 21.438826518888117, 50.259209373143918 ], [ 21.458356265073455, 50.261457737883404 ], [ 21.477890713624955, 50.263760132719824 ], [ 21.497430144462804, 50.266120607903453 ], [ 21.497736770888345, 50.266158936458382 ], [ 21.516991389950082, 50.268856913274696 ], [ 21.536558388509491, 50.271658081993294 ], [ 21.556130983808167, 50.27451966560843 ], [ 21.567415490470832, 50.27621089971386 ], [ 21.575718025347573, 50.277604147627606 ], [ 21.595322787290051, 50.280966555186161 ], [ 21.61493288496608, 50.284374632617329 ], [ 21.626717012012922, 50.286456318027945 ], [ 21.634558128031284, 50.288004872609768 ], [ 21.654203183937064, 50.29193607205309 ], [ 21.673852119408867, 50.295877369698459 ], [ 21.678614370299684, 50.296842551086819 ], [ 21.693526878999748, 50.300216832429477 ], [ 21.713210884817645, 50.304654398728886 ], [ 21.725136686347714, 50.307331926462112 ], [ 21.732909624720538, 50.309283543053709 ], [ 21.752628858581819, 50.314199698842856 ], [ 21.767705414179808, 50.317897035096863 ], [ 21.772355737007238, 50.319175794843012 ], [ 21.792109321186889, 50.324535576284248 ], [ 21.80718741386152, 50.328521271956191 ], [ 21.811868578752446, 50.329914575229601 ], [ 21.831655032546571, 50.335674127704173 ], [ 21.844150922303463, 50.339193867919569 ], [ 21.851451789993288, 50.341524096094496 ], [ 21.871269753082331, 50.347643150074347 ], [ 21.878887937875959, 50.349909985660055 ], [ 21.891111598562748, 50.354069558637789 ], [ 21.910960829436711, 50.360527258963373 ], [ 21.911420523169934, 50.360671062745922 ], [ 21.930860675094031, 50.367716779255169 ], [ 21.941771703962527, 50.371478360848627 ], [ 21.950780892152494, 50.375135534676609 ], [ 21.969452126394476, 50.382346085845448 ], [ 21.970731580441885, 50.38294019366127 ], [ 21.990755875156918, 50.391807713331282 ], [ 21.994262119087615, 50.393281280103636 ], [ 22.010867865686539, 50.401937952007948 ], [ 22.015638753757571, 50.404300376258625 ], [ 22.031124560993071, 50.414196909608279 ], [ 22.033130922027468, 50.415417024967816 ], [ 22.046614623521265, 50.426636210812859 ], [ 22.051819706086764, 50.433104832953838 ], [ 22.055899663903993, 50.43796430726551 ], [ 22.061238773831025, 50.449395643072251 ], [ 22.062863929269749, 50.460924628415199 ], [ 22.061200645751303, 50.472540195375736 ], [ 22.056617258242763, 50.484232501430192 ], [ 22.055259246517508, 50.48647722144068 ], [ 22.049545883328541, 50.495989852760978 ], [ 22.040104010639272, 50.507808708103198 ], [ 22.037305609312295, 50.510712931130932 ], [ 22.028392694324392, 50.519685843197102 ], [ 22.018882325111754, 50.527875628808431 ], [ 22.014255567661412, 50.531624608397742 ], [ 22.000230627823509, 50.541647513841738 ], [ 21.997157542790038, 50.543637887631569 ], [ 21.981404892128761, 50.55283147173013 ], [ 21.975574015717022, 50.555763352187626 ], [ 21.962432153570795, 50.561812241434616 ], [ 21.945296883929561, 50.568105054516572 ], [ 21.943326514142008, 50.568775540959862 ], [ 21.924101052815811, 50.573894433110873 ], [ 21.904769465731945, 50.577355792159643 ], [ 21.885346827865263, 50.579373419837935 ], [ 21.865847261143948, 50.580150753371399 ], [ 21.846283796779755, 50.579878404677146 ], [ 21.826668287414297, 50.578732388103958 ], [ 21.807011366569991, 50.576873032092053 ], [ 21.787322449488439, 50.574444513707107 ], [ 21.773183254531858, 50.572333618392875 ], [ 21.76760838894495, 50.571551407567767 ], [ 21.747873130876499, 50.56825136262853 ], [ 21.728126585939126, 50.564706931538694 ], [ 21.714783560705772, 50.56213951364446 ], [ 21.708371188243401, 50.560955131829999 ], [ 21.688607614876489, 50.557003222616295 ], [ 21.668846104058847, 50.553027903177103 ], [ 21.662865392509453, 50.551768123337588 ], [ 21.649081483190809, 50.548936422681876 ], [ 21.629320999419754, 50.544856375235064 ], [ 21.612003114461309, 50.541350006096572 ], [ 21.609568802016845, 50.540863200214694 ], [ 21.589816245748867, 50.536801179439664 ], [ 21.570076938862538, 50.53291902890507 ], [ 21.559819076200721, 50.530938867462517 ], [ 21.550344754324961, 50.529107453606599 ], [ 21.530620094220918, 50.525375679944823 ], [ 21.510910907365432, 50.521875368425398 ], [ 21.503477760888213, 50.52059396952032 ], [ 21.491208420737212, 50.51844557036172 ], [ 21.471516713461209, 50.51516610235425 ], [ 21.451840911496873, 50.512139580811471 ], [ 21.439645942204294, 50.510379216626404 ], [ 21.432175596625104, 50.5092668539126 ], [ 21.412517962761271, 50.506496717646066 ], [ 21.392875744444535, 50.503984727772426 ], [ 21.373248203104069, 50.501722662991206 ], [ 21.360943871450591, 50.50043227348602 ], [ 21.353630770679409, 50.499624995370503 ], [ 21.334021056939704, 50.497647452170369 ], [ 21.314425129702393, 50.495917248142021 ], [ 21.294842255563353, 50.494425657687103 ], [ 21.275271747232502, 50.493164599352362 ], [ 21.255712962777345, 50.492126649782882 ], [ 21.236531928460568, 50.491319880277914 ], [ 21.236165205037118, 50.491302944307648 ], [ 21.216623673015675, 50.490596627669724 ], [ 21.197093208579719, 50.490115210497969 ], [ 21.177573288345979, 50.489853390630714 ], [ 21.158063437967222, 50.489806740313576 ], [ 21.138563230104676, 50.489971702250564 ], [ 21.119072282677621, 50.490345591421715 ], [ 21.099590257377585, 50.490926602779318 ], [ 21.08011685843849, 50.49171382502221 ], [ 21.060651831658273, 50.492707260761087 ], [ 21.041194963671561, 50.493907853495372 ], [ 21.022977494303063, 50.495228614459265 ], [ 21.021745820081954, 50.495311400251175 ], [ 21.002299833506157, 50.496815802506987 ], [ 20.982860799691771, 50.4985146548198 ], [ 20.96342865081003, 50.500412079598348 ], [ 20.944003354695781, 50.502513226851903 ], [ 20.924584915532474, 50.504824342436855 ], [ 20.905173374805493, 50.507352846975628 ], [ 20.893716491757768, 50.508973659569328 ], [ 20.88576526679411, 50.510018441771138 ], [ 20.866358372380603, 50.512769122464263 ], [ 20.846957880680883, 50.515740508995357 ], [ 20.827563949686514, 50.518943677643691 ], [ 20.811138607948546, 50.521857631830926 ], [ 20.808175175317707, 50.522349303204336 ], [ 20.788783814505116, 50.525759178614202 ], [ 20.769398834439983, 50.529413162336766 ], [ 20.75002050609617, 50.53332662936571 ], [ 20.744785488261954, 50.534440693429126 ], [ 20.730640312458757, 50.537275537697631 ], [ 20.711263329834697, 50.541401355642471 ], [ 20.691893093440637, 50.545808894999681 ], [ 20.687502747058662, 50.54685460527346 ], [ 20.672519974950262, 50.550235787725931 ], [ 20.65315061251826, 50.554872500703084 ], [ 20.636329552618264, 50.559154455983808 ], [ 20.633786544987263, 50.559770945935028 ], [ 20.614417927958446, 50.564652416339541 ], [ 20.595056298991853, 50.56985799146689 ], [ 20.589654975123818, 50.571370337567473 ], [ 20.575692138125316, 50.575114207438254 ], [ 20.55633125736324, 50.580599304816367 ], [ 20.546491885497357, 50.583520796579933 ], [ 20.536971012237693, 50.586240656107179 ], [ 20.517611008514777, 50.592031965274124 ], [ 20.506195539535184, 50.595618095798635 ], [ 20.498252854037901, 50.598029669901024 ], [ 20.478893938398656, 50.604158564409694 ], [ 20.468302536148823, 50.607671068038321 ], [ 20.459536408795007, 50.610493260607811 ], [ 20.440178871826287, 50.616996396214155 ], [ 20.432479725089941, 50.619686168299516 ], [ 20.420820800015804, 50.623657343396275 ], [ 20.40146501129799, 50.630577406526541 ], [ 20.398495480003447, 50.631668097471348 ], [ 20.382105487154139, 50.637562218745934 ], [ 20.366094947057046, 50.643621461888969 ], [ 20.362749487806841, 50.644865586703368 ], [ 20.343390238609381, 50.652263673199641 ], [ 20.335115459782145, 50.655549454368426 ], [ 20.324031442047609, 50.659892361756228 ], [ 20.305560841172817, 50.667453172266448 ], [ 20.304674500222113, 50.667812465578699 ], [ 20.285313221091812, 50.67581037813946 ], [ 20.277086153142392, 50.679337486386167 ], [ 20.265952825852157, 50.684083795270077 ], [ 20.249856170003163, 50.691201426605105 ], [ 20.246593204997389, 50.692641362817014 ], [ 20.227231566357446, 50.701389504183169 ], [ 20.223644464195377, 50.703048247745265 ], [ 20.207868466976961, 50.710359094366247 ], [ 20.198397279792758, 50.7148791938084 ], [ 20.188505593836766, 50.719627660174318 ], [ 20.174168713845862, 50.726694350779105 ], [ 20.16914258887584, 50.729195618534092 ], [ 20.150888992765747, 50.738495046521706 ], [ 20.149779207367185, 50.739068058089281 ], [ 20.130414302203398, 50.74921296034934 ], [ 20.12840357225128, 50.750283348695994 ], [ 20.111048872390352, 50.759686767152537 ], [ 20.106741134702208, 50.762059447781134 ], [ 20.091683552921523, 50.770534220690763 ], [ 20.085916788645431, 50.773823664856167 ], [ 20.072318479713612, 50.781781428016359 ], [ 20.06589998886783, 50.785576731030012 ], [ 20.052953921299547, 50.793462301625098 ], [ 20.046668124795467, 50.797319267787913 ], [ 20.033590289331926, 50.805619752030367 ], [ 20.02820609520408, 50.809051799147909 ], [ 20.014228152376159, 50.818307165528736 ], [ 20.010506008091589, 50.820774761504602 ], [ 19.994868253322906, 50.831590220251734 ], [ 19.993567002896743, 50.832488511406602 ], [ 19.977290880588033, 50.844194205113681 ], [ 19.975511254299889, 50.845535846246456 ], [ 19.961674696129577, 50.85589214631603 ], [ 19.95615865846429, 50.860257420518138 ], [ 19.946806553841043, 50.867581887219195 ], [ 19.936812363509997, 50.875897165599355 ], [ 19.93271079387209, 50.879263521301048 ], [ 19.919307250527591, 50.890937961800979 ], [ 19.917474668971984, 50.892629469599612 ], [ 19.906455370920177, 50.90260654038903 ], [ 19.898149304396785, 50.910717651359548 ], [ 19.894431192323445, 50.914267326420692 ], [ 19.883024867563279, 50.925922164747952 ], [ 19.878841632129625, 50.930534148684401 ], [ 19.872274488212931, 50.937570953428704 ], [ 19.862289703293484, 50.949213065627667 ], [ 19.859560343372955, 50.952664197246378 ], [ 19.852858476258479, 50.96085024792405 ], [ 19.844200164475936, 50.9724810505178 ], [ 19.840322664566866, 50.978217511773487 ], [ 19.836175695341545, 50.984106642489031 ], [ 19.828788411614326, 50.995727132083346 ], [ 19.822237209992391, 51.007341241939855 ], [ 19.821164878785147, 51.009482118299438 ], [ 19.816176316571578, 51.018951530063561 ], [ 19.810856219093168, 51.030556335927116 ], [ 19.806316588852166, 51.042155488434474 ], [ 19.802534565903187, 51.053749236975413 ], [ 19.802226446888284, 51.054923548326336 ], [ 19.799310627028724, 51.065339021046555 ], [ 19.796846023157617, 51.076923516215928 ], [ 19.79515859057771, 51.088502650590343 ], [ 19.794252772245574, 51.100076429054297 ], [ 19.794140561150755, 51.111644789740851 ], [ 19.794841779081064, 51.123207601647216 ], [ 19.796384486449835, 51.134764660543894 ], [ 19.798805534120707, 51.146315682996416 ], [ 19.802151271772058, 51.157860298240145 ], [ 19.804102105226942, 51.163135260182898 ], [ 19.806344296152194, 51.169398962200539 ], [ 19.811413520623109, 51.180931384846112 ], [ 19.817543519789801, 51.192456164432336 ], [ 19.824612838440771, 51.203652289780294 ], [ 19.824810357242647, 51.203972600165208 ], [ 19.832854448974015, 51.215483042179144 ], [ 19.842183123459392, 51.226983682194181 ], [ 19.844900182897813, 51.229985722729317 ], [ 19.852474384588039, 51.238476561319374 ], [ 19.864075936834226, 51.249958861609421 ], [ 19.865109133648946, 51.250896660927644 ], [ 19.876626473518485, 51.261432902473089 ], [ 19.88527419403686, 51.26856184930368 ], [ 19.890512452086035, 51.27289544208692 ], [ 19.905413739536908, 51.284137235468258 ], [ 19.905691153277381, 51.284346338848145 ], [ 19.921964489033829, 51.295786652983082 ], [ 19.92553493757304, 51.298117992607054 ], [ 19.939573927767075, 51.307213993892034 ], [ 19.945643710638574, 51.310895523681509 ], [ 19.958550712877262, 51.318627506649079 ], [ 19.965743166403588, 51.322693896078981 ], [ 19.978937230901792, 51.330026176075293 ], [ 19.98583540124811, 51.333671394498076 ], [ 20.000805143152764, 51.341408657821972 ], [ 20.005921803228716, 51.343941079708905 ], [ 20.02425944750955, 51.352773208590101 ], [ 20.026003219110827, 51.353582784981683 ], [ 20.046080956900642, 51.362690369472226 ], [ 20.049327184671036, 51.364118638148589 ], [ 20.066155461187584, 51.371313349480893 ], [ 20.076216425365356, 51.375442004930527 ], [ 20.086226226489369, 51.379457402856353 ], [ 20.105246226943066, 51.386739051710698 ], [ 20.106292873047725, 51.387133015215731 ], [ 20.126358304450775, 51.394483611501052 ], [ 20.136504899837764, 51.398007338059998 ], [ 20.146419806001422, 51.401417742949072 ], [ 20.166477547237385, 51.407963690243413 ], [ 20.170553700300246, 51.409239483425928 ], [ 20.18653381990557, 51.414229769843352 ], [ 20.206584416520634, 51.420070208803075 ], [ 20.207863017029016, 51.420428218666821 ], [ 20.226634831368898, 51.42571120713 ], [ 20.24667871369526, 51.430929080737151 ], [ 20.249226435297505, 51.43156198615538 ], [ 20.266722126793411, 51.435963239156379 ], [ 20.286759625186971, 51.440628519914554 ], [ 20.295890957161969, 51.442622729012861 ], [ 20.30679436529504, 51.44505256194978 ], [ 20.326825709149574, 51.449224326421117 ], [ 20.346850541916375, 51.453049280766116 ], [ 20.349812613556562, 51.453581628960208 ], [ 20.366874836724744, 51.456742704701341 ], [ 20.386893770784773, 51.460151199934707 ], [ 20.406906528984578, 51.463260481980171 ], [ 20.414721031214889, 51.464383750888302 ], [ 20.426917089486004, 51.466210719546687 ], [ 20.446924019828057, 51.46896324392911 ], [ 20.466925072610437, 51.471456105422099 ], [ 20.486920426473745, 51.473705314484356 ], [ 20.49871909979721, 51.474907586937356 ], [ 20.506912393676046, 51.475790761002415 ], [ 20.526901787778367, 51.477743248397594 ], [ 20.546885694627196, 51.479481809504172 ], [ 20.56686426178501, 51.481018953385203 ], [ 20.586837626027819, 51.482366241557472 ], [ 20.606805912602475, 51.483534326617047 ], [ 20.626769234401763, 51.484532985607082 ], [ 20.630966971979998, 51.484710178747946 ], [ 20.646730126248571, 51.485438738104705 ], [ 20.666686573572061, 51.48619967192473 ], [ 20.686638005482862, 51.486805456085555 ], [ 20.706584471206455, 51.487262847407564 ], [ 20.726525999593889, 51.487577747579323 ], [ 20.746462596829947, 51.487755192338994 ], [ 20.766394243725053, 51.487799330541556 ], [ 20.786320892520099, 51.487713392085475 ], [ 20.806242463123404, 51.487499643512265 ], [ 20.826158838687572, 51.487159329903037 ], [ 20.846069860420542, 51.486692601477877 ], [ 20.865975321509474, 51.486098423052802 ], [ 20.885874960018217, 51.485374464222225 ], [ 20.90576845059832, 51.484516967809306 ], [ 20.925655394830009, 51.483520593758101 ], [ 20.945535309982638, 51.482378235227046 ], [ 20.965407615953598, 51.481080803180106 ], [ 20.98527162011046, 51.479616975256427 ], [ 20.99104421651862, 51.4791481895533 ], [ 21.005129639051972, 51.478044472424472 ], [ 21.024979530379191, 51.476318096679329 ], [ 21.044818986508655, 51.474390697819253 ], [ 21.064646739564289, 51.472239942344359 ], [ 21.084461297750998, 51.469839418277765 ], [ 21.104260909205102, 51.467158035852336 ], [ 21.116130480890931, 51.465388541313608 ], [ 21.124047339553282, 51.464241571035579 ], [ 21.14382116868283, 51.461108815457209 ], [ 21.16357430278175, 51.457594491795668 ], [ 21.183303622987093, 51.45364344637008 ], [ 21.18860819950546, 51.452489065351671 ], [ 21.203016447048224, 51.449419193993123 ], [ 21.222703522801201, 51.444738368152564 ], [ 21.240595311434603, 51.439938021853038 ], [ 21.242358014734101, 51.439473217989018 ], [ 21.261991906994247, 51.43388115997157 ], [ 21.281391067360087, 51.427582120191751 ], [ 21.281582791388988, 51.427520693767455 ], [ 21.301149241899466, 51.420780567947318 ], [ 21.315160613396596, 51.415350885958304 ], [ 21.320669277012403, 51.413236130007014 ], [ 21.34014974513029, 51.405040910146617 ], [ 21.344162320883186, 51.403205267713872 ], [ 21.359589392303945, 51.396186023856224 ], [ 21.369729496409892, 51.39112186849848 ], [ 21.378979554746721, 51.38651994009885 ], [ 21.392715320107524, 51.379085530811089 ], [ 21.398320080586078, 51.376058493959391 ], [ 21.413715786634562, 51.367085507211222 ], [ 21.417610780317883, 51.364816170357379 ], [ 21.433157878699415, 51.355114005862731 ], [ 21.436851385160168, 51.352805374572881 ], [ 21.451351276767333, 51.343165328823893 ], [ 21.456041500654667, 51.340035645279954 ], [ 21.468522260860894, 51.331235294434528 ], [ 21.475180559370514, 51.326512883719218 ], [ 21.484836518197035, 51.319320841558785 ], [ 21.494267776805387, 51.312238672752223 ], [ 21.500414828605518, 51.307419753276022 ], [ 21.513302114827464, 51.297209759907382 ], [ 21.515344055016541, 51.295530460863922 ], [ 21.529782426510241, 51.283649795969019 ], [ 21.532290866037389, 51.281574242652518 ], [ 21.543790127185034, 51.271776634691236 ], [ 21.551232805221794, 51.265322258467918 ], [ 21.557322816565073, 51.25991210337893 ], [ 21.57011921265574, 51.248309739068524 ], [ 21.570393702939597, 51.248056079434519 ], [ 21.583283798405038, 51.236202514696132 ], [ 21.588966665581349, 51.230846851596404 ], [ 21.595773160571632, 51.224356351339402 ], [ 21.60775580594332, 51.212599694597515 ], [ 21.607838248223768, 51.212518245058838 ], [ 21.61983177937466, 51.20068042808321 ], [ 21.626502993370821, 51.193870769354504 ], [ 21.631421757572245, 51.188850394713363 ], [ 21.642724181623141, 51.177025645444665 ], [ 21.645192638204957, 51.174396689608564 ], [ 21.653886339844206, 51.165202921799008 ], [ 21.663827957314176, 51.15424701155689 ], [ 21.664615834606995, 51.153388930423311 ], [ 21.675337787700368, 51.141574063112664 ], [ 21.682409554325986, 51.133444335532445 ], [ 21.685668970506583, 51.129767129086368 ], [ 21.695870624984327, 51.1179622079624 ], [ 21.700930971741251, 51.111889526841495 ], [ 21.705829161559279, 51.106161964837661 ], [ 21.715577140198011, 51.094365706580199 ], [ 21.719391933704856, 51.089591032970567 ], [ 21.725189589427469, 51.082571736988399 ], [ 21.73455354129084, 51.070782734890557 ], [ 21.737792700014687, 51.066566007942598 ], [ 21.743850658933173, 51.058994494212229 ], [ 21.752904416860567, 51.047211192297844 ], [ 21.756135150920052, 51.042858329753912 ], [ 21.761923972548995, 51.03542794075581 ], [ 21.770746393159623, 51.023648613895404 ], [ 21.774423955795623, 51.01855740973506 ], [ 21.779535939119011, 51.011869347377512 ], [ 21.788211718317157, 51.000092080691971 ], [ 21.792667586543963, 50.993813798663567 ], [ 21.796831743729594, 50.988315449991731 ], [ 21.805452486432586, 50.976538110675911 ], [ 21.810878841667982, 50.968846194864717 ], [ 21.813980486968045, 50.964762315841739 ], [ 21.822646371292688, 50.95298250857703 ], [ 21.829074582655952, 50.943935270022408 ], [ 21.831182613982154, 50.941205148122734 ], [ 21.840005169495676, 50.929420140268014 ], [ 21.847274624007934, 50.919403835667289 ], [ 21.84868146396304, 50.917637980712747 ], [ 21.857788378757455, 50.905844572771251 ], [ 21.865500118748411, 50.895589408308958 ], [ 21.866782260218848, 50.894053174689468 ], [ 21.876325972507559, 50.882247468874141 ], [ 21.883772161768899, 50.872821140489485 ], [ 21.885885030335892, 50.870440543220766 ], [ 21.89605871434421, 50.85861751280887 ], [ 21.902111505975302, 50.851415363924254 ], [ 21.906545062286327, 50.846785739558143 ], [ 21.917613994445411, 50.834938382795059 ], [ 21.920540268649336, 50.831703088443575 ], [ 21.929591789658769, 50.823067073923824 ], [ 21.939071451651635, 50.813862507145096 ], [ 21.942315008472402, 50.811175651533439 ], [ 21.9563835499678, 50.799248652234319 ], [ 21.957718608772549, 50.798076101454612 ], [ 21.972501842311122, 50.787267615356093 ], [ 21.976480284472419, 50.784285445493992 ], [ 21.991278684325327, 50.775216050170947 ], [ 21.99536805468388, 50.772636758422635 ], [ 22.014379179976597, 50.763049589228615 ], [ 22.033481121374031, 50.754984164124856 ], [ 22.046825205203696, 50.750634413915421 ], [ 22.0526892450915, 50.748649148358496 ], [ 22.071966574084904, 50.743448550811536 ], [ 22.091315880550578, 50.739403765983333 ], [ 22.101870233792308, 50.737610509291429 ], [ 22.110707569284859, 50.736047302822868 ], [ 22.130129271872555, 50.733181170463148 ], [ 22.149578468584703, 50.73075887481663 ], [ 22.169044703277049, 50.72861749748089 ], [ 22.188519984585298, 50.726634317723992 ], [ 22.20799812173782, 50.724715903165858 ], [ 22.227474275343344, 50.722790707306672 ], [ 22.229623733898261, 50.722567004640766 ], [ 22.246937008249443, 50.720693507651362 ], [ 22.266389999220312, 50.718480204770614 ], [ 22.285831752208928, 50.716131454458392 ], [ 22.305260361965985, 50.713622546170775 ], [ 22.324674416220894, 50.710936296294854 ], [ 22.344072908076757, 50.708061600218308 ], [ 22.346318969399988, 50.707700667461808 ], [ 22.363442607446064, 50.704816938102596 ], [ 22.382793771998198, 50.701350954040052 ], [ 22.402128048363721, 50.697690071152891 ], [ 22.420810135062002, 50.693964048226128 ], [ 22.421444924149981, 50.693830474210259 ], [ 22.440725757085133, 50.689520857782618 ], [ 22.459990855366236, 50.685044348339176 ], [ 22.478047718005516, 50.680695969368493 ], [ 22.479239311170907, 50.680391361385468 ], [ 22.498449013418995, 50.675267621863895 ], [ 22.517646119417101, 50.670030179755067 ], [ 22.526027756338685, 50.667680145898039 ], [ 22.536813467708694, 50.664452637492694 ], [ 22.55595693215259, 50.658617966875553 ], [ 22.568248254595133, 50.654820938848367 ], [ 22.575078325281158, 50.652553967430542 ], [ 22.594168556901419, 50.646145127601443 ], [ 22.606245645406279, 50.642077075724558 ], [ 22.613237771124098, 50.63952878195866 ], [ 22.632276125179818, 50.632580464335632 ], [ 22.640951814419939, 50.629423581402811 ], [ 22.651285146416381, 50.625324789990565 ], [ 22.670273688711045, 50.617879876643983 ], [ 22.672924262720063, 50.616845835642202 ], [ 22.689211550543455, 50.60986280549843 ], [ 22.70236809917666, 50.604339591359327 ], [ 22.708127475521703, 50.6016470992489 ], [ 22.727003783268845, 50.593011955223261 ], [ 22.72947705777398, 50.591900581859235 ], [ 22.745814319469801, 50.583634067386129 ], [ 22.754169726489906, 50.579533089596993 ], [ 22.764570970455782, 50.57367271987242 ], [ 22.776383875672689, 50.567240697309501 ], [ 22.783249935759585, 50.562839082526423 ], [ 22.795896493631169, 50.555032128505921 ], [ 22.801806020821939, 50.550583811450082 ], [ 22.812417357026582, 50.542918284460541 ], [ 22.820143937154654, 50.535747695322485 ], [ 22.825591342664062, 50.530912153422342 ], [ 22.834958484580895, 50.519030077080586 ], [ 22.837767849351973, 50.512257701869295 ], [ 22.839945275525157, 50.507291954654001 ], [ 22.839875913356963, 50.495720713091593 ], [ 22.835769215222705, 50.487624190035064 ], [ 22.833998147919026, 50.484341199287222 ], [ 22.821511728483571, 50.473178889774516 ], [ 22.814777884203952, 50.469280764282253 ], [ 22.801959580327924, 50.462246651642829 ], [ 22.794458942571492, 50.459121941704723 ], [ 22.775598296900423, 50.451532623266253 ], [ 22.77431941520458, 50.451102911888384 ], [ 22.754291248265655, 50.444401212873011 ], [ 22.744040385750026, 50.440980262581903 ], [ 22.734294900825585, 50.438029578328816 ], [ 22.714318342905109, 50.431840085351425 ], [ 22.710086781276981, 50.430495962925278 ], [ 22.694345074200506, 50.425624073936326 ], [ 22.677043735712818, 50.419973052102264 ], [ 22.674350651888478, 50.419065615191521 ], [ 22.654314730858154, 50.411894739576184 ], [ 22.647615483237555, 50.409327436380231 ], [ 22.634195302582121, 50.403552291068806 ], [ 22.623450132761697, 50.398510454811117 ], [ 22.61391432183342, 50.392992380036347 ], [ 22.605268467050166, 50.387502996923388 ], [ 22.593185957911519, 50.376396299555573 ], [ 22.593097389233471, 50.376307004989584 ], [ 22.586547730578936, 50.364936347147378 ], [ 22.584986672980278, 50.353411470308899 ], [ 22.587731812707709, 50.34175362252639 ], [ 22.590242417707955, 50.337435990601954 ], [ 22.594150578157628, 50.329982045654305 ], [ 22.603654557994552, 50.318114364078056 ], [ 22.607926041620342, 50.314145585790875 ], [ 22.615787237342136, 50.306164012608996 ], [ 22.626114687944757, 50.297710231353108 ], [ 22.630126892522597, 50.294143332212109 ], [ 22.644467001829931, 50.283575041922404 ], [ 22.646367960246835, 50.282061084307408 ], [ 22.662920848977279, 50.270899784988941 ], [ 22.664265188054607, 50.269924196184164 ], [ 22.681440012989157, 50.25919499767555 ], [ 22.68361381502412, 50.257738385294239 ], [ 22.70000197925263, 50.248156775401867 ], [ 22.70423667931076, 50.245508566810322 ], [ 22.718592035438341, 50.237586914736021 ], [ 22.725975879994827, 50.233239119033747 ], [ 22.737200181627369, 50.227351057287891 ], [ 22.748687513122718, 50.220934052526012 ], [ 22.755819403887713, 50.21735528849112 ], [ 22.772238511186391, 50.208597112653358 ], [ 22.77444465703941, 50.207532341841294 ], [ 22.793093595313721, 50.19810225093061 ], [ 22.79661480257441, 50.196228239728178 ], [ 22.811754662834556, 50.188914588052988 ], [ 22.821686728797214, 50.183831176144587 ], [ 22.830410815501615, 50.179753131387265 ], [ 22.847273439409886, 50.171411461674211 ], [ 22.849060612128163, 50.170599541703126 ], [ 22.867732569383261, 50.161806526175212 ], [ 22.873474945576927, 50.158965409025306 ], [ 22.8864028958169, 50.153076069204282 ], [ 22.900074060186764, 50.146499898533889 ], [ 22.905061246475857, 50.144280403972076 ], [ 22.923723602979329, 50.1356154576278 ], [ 22.927044365150859, 50.134015545870561 ], [ 22.942396347411389, 50.127156998511396 ], [ 22.954385298868459, 50.121512105905694 ], [ 22.961053550281186, 50.118588466416661 ], [ 22.979705882844527, 50.11003981883681 ], [ 22.981917293177972, 50.108995479022013 ], [ 22.998372875466558, 50.101744995772947 ], [ 23.009772208657552, 50.096460964345425 ], [ 23.01702214862684, 50.093313938599962 ], [ 23.035663507692508, 50.084864957016116 ], [ 23.037700119900983, 50.083917030841235 ], [ 23.054319192387428, 50.076661526056313 ], [ 23.065888768163816, 50.071357036985503 ], [ 23.072955913914921, 50.068308014071526 ], [ 23.091585281786088, 50.059942564280803 ], [ 23.094087880859405, 50.058789630528089 ], [ 23.110226008999803, 50.051783990402008 ], [ 23.1224778212665, 50.046208385138684 ], [ 23.128847149478183, 50.043469454015025 ], [ 23.147463705159382, 50.035174737662551 ], [ 23.150862333769144, 50.033620188331348 ], [ 23.166087209178539, 50.027032641418714 ], [ 23.179364666911436, 50.021020596124323 ], [ 23.184690904007336, 50.018733694049985 ], [ 23.185033369381578, 50.009241016214879 ], [ 23.183808115799579, 50.008585328345326 ], [ 23.166976222678247, 49.998317096431379 ], [ 23.163437040054863, 49.996421635496745 ], [ 23.14868560421322, 49.987398795261647 ], [ 23.148796419310457, 49.975819958056228 ], [ 23.142039219551304, 49.972197180188147 ], [ 23.130147816486911, 49.964911660259048 ], [ 23.121725610065337, 49.960392658843752 ], [ 23.111295572845389, 49.954007660872563 ], [ 23.111088560201523, 49.94244020556598 ], [ 23.100411791862367, 49.936705371375801 ], [ 23.091956468215695, 49.931543102026879 ], [ 23.091592163004076, 49.91998119808104 ], [ 23.079142464679347, 49.913286902005112 ], [ 23.072237298954263, 49.909088818136723 ], [ 23.058906647534339, 49.901915170600276 ], [ 23.052771449348942, 49.898197159546463 ], [ 23.052221228613188, 49.886641706235075 ], [ 23.037701009053301, 49.878819534085295 ], [ 23.032610902505866, 49.875751824242606 ], [ 23.017503300480115, 49.867606799190447 ], [ 23.012930725734293, 49.864861112746134 ], [ 23.012259712778903, 49.853309723669945 ], [ 22.99635126528127, 49.844723736470172 ], [ 22.992489448664152, 49.842418767524791 ], [ 22.976186430674815, 49.833612881894965 ], [ 22.972676555223877, 49.831525967569789 ], [ 22.971929076618416, 49.81997703519766 ], [ 22.97116553030688, 49.808428640871739 ], [ 22.954130457437557, 49.799214877971096 ], [ 22.951280692602168, 49.797534789650193 ], [ 22.934001374357067, 49.788181553709911 ], [ 22.931373802662364, 49.786638339107839 ], [ 22.913882898022884, 49.777163110981398 ], [ 22.911449210753084, 49.775739130076708 ], [ 22.910633291808583, 49.764192206789716 ], [ 22.909808910102718, 49.752645555099427 ], [ 22.891913350148421, 49.742938007580932 ], [ 22.889855289339909, 49.741743746408062 ], [ 22.871826927576365, 49.731956464416875 ], [ 22.869894004244188, 49.730838818660061 ], [ 22.869051490584667, 49.719292544325064 ], [ 22.850832389648549, 49.709391149626384 ], [ 22.849081371430554, 49.708384420516623 ], [ 22.830771003895933, 49.698425606151005 ], [ 22.829108603512999, 49.697473001190097 ], [ 22.810719151842402, 49.687463318308723 ], [ 22.809134619518336, 49.686558236982918 ], [ 22.790676752916859, 49.676503428069736 ], [ 22.789160655858428, 49.675640085946078 ], [ 22.788307353494172, 49.664093701932842 ], [ 22.787451209685059, 49.652547395322109 ], [ 22.768853681571184, 49.642402878721818 ], [ 22.767479465396029, 49.641625554303467 ], [ 22.748840586501196, 49.631450515633084 ], [ 22.747510763933771, 49.630700226727676 ], [ 22.746654576990352, 49.619153673788347 ], [ 22.727953272041777, 49.608933708080997 ], [ 22.72669151320925, 49.608224660094777 ], [ 22.725835619733854, 49.596677964900366 ], [ 22.707086216308898, 49.586420838110143 ], [ 22.705879714571591, 49.585745217492281 ], [ 22.705024994099425, 49.57419835125603 ], [ 22.686239265457406, 49.563910455569413 ], [ 22.685077506456746, 49.563261832116829 ], [ 22.684224685843219, 49.551714771400405 ], [ 22.665412287177794, 49.541401358449512 ], [ 22.664286666266815, 49.540774450135174 ], [ 22.645465382232292, 49.530448117400809 ], [ 22.644355392964727, 49.529830533953529 ], [ 22.645369628196846, 49.529162190058393 ], [ 22.662585331079761, 49.517679907154715 ], [ 22.661733686973832, 49.506132641783701 ], [ 22.662724224545563, 49.505478207564948 ], [ 22.681795671423853, 49.504871849029698 ], [ 22.699014969723155, 49.493370694517495 ], [ 22.699995090190971, 49.492721772846565 ], [ 22.717214787981572, 49.481212113753784 ], [ 22.716348615494713, 49.469665570398753 ], [ 22.715482006853826, 49.458119024638293 ], [ 22.714615024412197, 49.446572474444174 ], [ 22.713747726950885, 49.435025917904312 ], [ 22.714689355163181, 49.434399141969685 ], [ 22.731918813631452, 49.42286564823128 ], [ 22.731046648916308, 49.411319320086164 ], [ 22.731978322804707, 49.410697745802366 ], [ 22.749203465214798, 49.399156643952765 ], [ 22.748326600657325, 49.387610540384223 ], [ 22.747449649597737, 49.376064423195515 ], [ 22.746572657285064, 49.364518290900669 ], [ 22.7456956662318, 49.352972142103546 ], [ 22.744818716302564, 49.341425975494872 ], [ 22.745736316883729, 49.340810645347574 ], [ 22.76294385622694, 49.329261825333205 ], [ 22.762062675106225, 49.317715869746358 ], [ 22.761181640215799, 49.306169892939423 ], [ 22.760300783160286, 49.294623893868987 ], [ 22.759420133189575, 49.283077871568977 ], [ 22.758539717289349, 49.271531825147825 ], [ 22.757659560275673, 49.259985753785202 ], [ 22.756779684893516, 49.248439656728813 ], [ 22.737949447332586, 49.238067746278212 ], [ 22.718982140038136, 49.238680904488014 ], [ 22.717966150487857, 49.23812235001845 ], [ 22.717095673891805, 49.226575702196776 ], [ 22.718025189448351, 49.225949329748879 ], [ 22.736987666908462, 49.22533675085451 ], [ 22.754141947078708, 49.213801204822936 ], [ 22.735334534133418, 49.203433285984872 ], [ 22.734309797779783, 49.202870216370215 ], [ 22.733435963926958, 49.191323733326655 ], [ 22.734373746772953, 49.190690890297603 ], [ 22.753322402346804, 49.190076096148779 ], [ 22.770451755960966, 49.178544672878523 ], [ 22.751665007604593, 49.168184710784367 ], [ 22.750629966643022, 49.167616207409154 ], [ 22.749752949124321, 49.156069884740887 ], [ 22.750700268082102, 49.155429846147371 ], [ 22.769635129748586, 49.154812884128937 ], [ 22.77067227152429, 49.155387705670755 ], [ 22.789451603152404, 49.165741186762588 ], [ 22.806558503082186, 49.15420858466446 ], [ 22.805668954129946, 49.142662980416581 ], [ 22.806616847814237, 49.142021774301298 ], [ 22.823705347506461, 49.13049120939651 ], [ 22.824655508235129, 49.129848115124972 ], [ 22.841733050155607, 49.118316811199023 ], [ 22.842685336833071, 49.117671929429243 ], [ 22.859752079901504, 49.106139789024262 ], [ 22.860706340326363, 49.105493225390518 ], [ 22.879619811508409, 49.104859261518911 ], [ 22.896672805798186, 49.093322382785402 ], [ 22.895764170772843, 49.081777886210901 ], [ 22.877013807484268, 49.071450938013328 ], [ 22.875954220528129, 49.07087060923034 ], [ 22.875050846264418, 49.059325791505614 ], [ 22.874147966749177, 49.047780940911963 ], [ 22.875119090384405, 49.047122155519922 ], [ 22.892134620047109, 49.035599569776267 ], [ 22.891228480171236, 49.024054908077616 ], [ 22.890322837913999, 49.012510213377716 ], [ 22.871626994100453, 49.002196237720092 ], [ 22.852752447955215, 49.002830447714153 ], [ 22.835748858597565, 49.014340016727736 ], [ 22.834764905461974, 49.015004340368037 ] ] ], [ [ [ 18.530473207083531, 49.913238887933467 ], [ 18.530780657299413, 49.910263167319044 ], [ 18.530503731187213, 49.910094800966554 ], [ 18.525875274238921, 49.910243216000993 ], [ 18.530473207083531, 49.913238887933467 ] ] ] ] } }
]
}
