{
"type": "FeatureCollection",
"name": "zasieg_OL_cykl_3_epsg4326",
"crs": { "type": "name", "properties": { "name": "urn:ogc:def:crs:OGC:1.3:CRS84" } },
"features": [
{ "type": "Feature", "properties": { "gatunek": "OL", "cykl": 3, "pokrycie": 0.95, "prog_kde": 2.0992764503213349e-12 }, "geometry": { "type": "MultiPolygon", "coordinates": [ [ [ [ 21.559942596179315, 49.618505990366664 ], [ 21.540891985539748, 49.620571198367067 ], [ 21.521846752237693, 49.622770821127752 ], [ 21.502806868485205, 49.625107368297513 ], [ 21.48377229551734, 49.627583208201592 ], [ 21.464742983414464, 49.630200558898316 ], [ 21.462879626593622, 49.630470330433482 ], [ 21.445719382431221, 49.632971687903627 ], [ 21.42670099051713, 49.635890087023135 ], [ 21.407687667201259, 49.638956372445008 ], [ 21.388679316040982, 49.642172077631578 ], [ 21.37955488067448, 49.643785807397876 ], [ 21.369676252261392, 49.645547259716366 ], [ 21.350678353279871, 49.64908320827125 ], [ 21.331685093346788, 49.652772817900249 ], [ 21.312696327550551, 49.656616784128445 ], [ 21.312189318923821, 49.656723205763669 ], [ 21.293712970927828, 49.660638360924409 ], [ 21.274733840095188, 49.664816581425406 ], [ 21.255758723392812, 49.669150786714809 ], [ 21.254567231591786, 49.669431755279994 ], [ 21.236788725728061, 49.673668988294054 ], [ 21.217822456350859, 49.678345291403176 ], [ 21.203517673295412, 49.681986481164031 ], [ 21.198860016775551, 49.683185996471416 ], [ 21.179902053191391, 49.688209793042482 ], [ 21.160947060787304, 49.693387521733499 ], [ 21.157227793309204, 49.694429918026295 ], [ 21.141996386682145, 49.698753862099736 ], [ 21.123048573874701, 49.704280386360978 ], [ 21.114661492469473, 49.706786734749699 ], [ 21.104104237493765, 49.709985613386628 ], [ 21.085162841241925, 49.715861840697478 ], [ 21.075033052469482, 49.719075144930748 ], [ 21.066224283037595, 49.721911318132229 ], [ 21.0472884481416, 49.728136077105773 ], [ 21.037830179799194, 49.731307199378641 ], [ 21.028355084516594, 49.734534931480169 ], [ 21.00942385835258, 49.741104673779738 ], [ 21.002658350051814, 49.743492073446554 ], [ 20.990495072142714, 49.747857523313201 ], [ 20.97156739925645, 49.754765989288153 ], [ 20.969213001669612, 49.755636808271696 ], [ 20.952642528621094, 49.761876602106874 ], [ 20.937280942077159, 49.767746475436084 ], [ 20.933718021491309, 49.769133951599983 ], [ 20.914795571194741, 49.776585324785501 ], [ 20.906657223673292, 49.779825708658436 ], [ 20.895873970524992, 49.784205550530245 ], [ 20.877178681056648, 49.791878196978189 ], [ 20.876952191735693, 49.791973115492532 ], [ 20.858032629786194, 49.799955069659056 ], [ 20.848737195139492, 49.803906546312568 ], [ 20.839112645848104, 49.808088336272363 ], [ 20.821212080337144, 49.815913423166741 ], [ 20.820191942071137, 49.81636968310994 ], [ 20.801272501134346, 49.824857149556003 ], [ 20.794508369846351, 49.827900956405266 ], [ 20.782352307610626, 49.833502422789053 ], [ 20.768555428432535, 49.839870796423668 ], [ 20.763430809702921, 49.842295408325469 ], [ 20.744508219276852, 49.851246801692575 ], [ 20.743284360088747, 49.85182448808559 ], [ 20.725585691198919, 49.860394229025736 ], [ 20.718606970258215, 49.863763788929141 ], [ 20.706661178176244, 49.869686092841341 ], [ 20.694496843222559, 49.875689467609398 ], [ 20.687734408393403, 49.879119477728345 ], [ 20.670904263249248, 49.887602597810044 ], [ 20.668805098957549, 49.88869102537857 ], [ 20.64987392425061, 49.898425300623678 ], [ 20.647754522881897, 49.899504560213906 ], [ 20.630940521460136, 49.908317230477451 ], [ 20.624999296260487, 49.911396299943711 ], [ 20.612003618798347, 49.918334261913813 ], [ 20.602619873519526, 49.923278310170765 ], [ 20.593062841556172, 49.928469559097806 ], [ 20.580573661660548, 49.935151391225951 ], [ 20.574117785107674, 49.938715056513885 ], [ 20.558818204589429, 49.947016305823674 ], [ 20.555168010364394, 49.949061244848231 ], [ 20.537310599355528, 49.958873788087651 ], [ 20.536213039129553, 49.959496938127742 ], [ 20.517253075157729, 49.970032102125856 ], [ 20.515976910985298, 49.970724943895597 ], [ 20.498287429299413, 49.980648454561901 ], [ 20.494772572655755, 49.982570444887628 ], [ 20.479314870569777, 49.991309150714358 ], [ 20.473672539318404, 49.99441068136661 ], [ 20.460334733872912, 50.0019941697389 ], [ 20.452623086882195, 50.006246384052439 ], [ 20.441346299762369, 50.012680653687404 ], [ 20.431564909721207, 50.0180783131756 ], [ 20.422348792910032, 50.023342668625936 ], [ 20.410431418121249, 50.029907274189789 ], [ 20.403341381868703, 50.033950990234629 ], [ 20.389146584508207, 50.041734136664559 ], [ 20.384323180443651, 50.044472926920321 ], [ 20.367622177181985, 50.053559857490718 ], [ 20.365293250994341, 50.054872195088208 ], [ 20.346250913279341, 50.065119696926914 ], [ 20.345732100461454, 50.065385765646603 ], [ 20.327196515532872, 50.075221944433807 ], [ 20.323238111250703, 50.077214370309605 ], [ 20.30812761924691, 50.085083425376496 ], [ 20.300070309886475, 50.089046102476949 ], [ 20.289043202800524, 50.09465589103737 ], [ 20.276020473452053, 50.100882846707727 ], [ 20.269942244917736, 50.103888234172345 ], [ 20.250823741540813, 50.112726907297869 ], [ 20.231690340018158, 50.121257334968128 ], [ 20.223618567996752, 50.124586618164969 ], [ 20.212537970416431, 50.129304363573986 ], [ 20.194233328112755, 50.136462328806928 ], [ 20.193365811314667, 50.136812313302705 ], [ 20.174177655900177, 50.143910317162678 ], [ 20.160851533454125, 50.148370552223824 ], [ 20.154969179850685, 50.150398898356528 ], [ 20.135743292776734, 50.156370510640031 ], [ 20.121405897141234, 50.160327813192715 ], [ 20.116498190748487, 50.161721465806338 ], [ 20.097236882588412, 50.166550973963687 ], [ 20.077957080541541, 50.170729757448576 ], [ 20.068989000944686, 50.172391698605161 ], [ 20.058661751034695, 50.174356868777124 ], [ 20.039351391665306, 50.177424791362611 ], [ 20.020025958755806, 50.179899948392332 ], [ 20.000686748755591, 50.181810243096137 ], [ 19.98133498780124, 50.183182265174082 ], [ 19.961971835662816, 50.184041370620392 ], [ 19.94259838942007, 50.184411755604536 ], [ 19.923215686891595, 50.184316524976687 ], [ 19.903824709838041, 50.18377775592942 ], [ 19.884426386957951, 50.182816557286927 ], [ 19.865021596692415, 50.181453124805664 ], [ 19.845611169854486, 50.179706792919163 ], [ 19.826195892096216, 50.177596083234988 ], [ 19.806776506226601, 50.175138750161075 ], [ 19.802602723760785, 50.174537840313221 ], [ 19.787354905391179, 50.172424299939387 ], [ 19.767930965405977, 50.169425451087058 ], [ 19.748504958730088, 50.166137473588847 ], [ 19.733717144671793, 50.163423978713872 ], [ 19.729077874450205, 50.162602244438624 ], [ 19.709651217319809, 50.158901087147235 ], [ 19.690224130836047, 50.154960521297227 ], [ 19.67734757002485, 50.152196980922305 ], [ 19.67079769896667, 50.150837227245994 ], [ 19.651372973413714, 50.146592317516877 ], [ 19.631949127011438, 50.142151860705788 ], [ 19.626742864180464, 50.140911679598382 ], [ 19.612527859855881, 50.137630443538789 ], [ 19.593108667494921, 50.132979408797702 ], [ 19.57941108718159, 50.129588059556291 ], [ 19.573691890954176, 50.128214209641158 ], [ 19.554278520912032, 50.123408744163335 ], [ 19.534867591869229, 50.118472128222351 ], [ 19.533962689274695, 50.118236513189743 ], [ 19.515460883506101, 50.113555440918375 ], [ 19.496057120257948, 50.108537746673534 ], [ 19.489697119399686, 50.106862202936675 ], [ 19.476657427290192, 50.103520247968738 ], [ 19.4572614345314, 50.098464314864898 ], [ 19.44593704905979, 50.095469080409664 ], [ 19.437869376682361, 50.093390809586772 ], [ 19.418481577429279, 50.088334701241919 ], [ 19.40227045606472, 50.084059141637482 ], [ 19.399097574879853, 50.083243166678002 ], [ 19.37971823462777, 50.078220628287646 ], [ 19.360342647528896, 50.073157228975283 ], [ 19.358346026925478, 50.0726335735257 ], [ 19.340971790062071, 50.068184012961552 ], [ 19.321604877930053, 50.063200340816429 ], [ 19.313814092933956, 50.061193025889168 ], [ 19.302242374072403, 50.058278220606361 ], [ 19.282884094755985, 50.053399427466992 ], [ 19.268348794269148, 50.049737550130772 ], [ 19.2635299049421, 50.048549245659281 ], [ 19.244180122636138, 50.043797580749327 ], [ 19.224834217017754, 50.039056682528667 ], [ 19.221584723772374, 50.038266744387329 ], [ 19.205492623351933, 50.034432042983397 ], [ 19.186154917401979, 50.029850701873002 ], [ 19.173084731322728, 50.026779688163806 ], [ 19.166821123274147, 50.025335230967642 ], [ 19.147491296611566, 50.02093033320984 ], [ 19.128165117816724, 50.016566606989997 ], [ 19.122353479157592, 50.015274724794473 ], [ 19.108842712890755, 50.012322543431495 ], [ 19.08952386844997, 50.008161701208181 ], [ 19.070208446068577, 50.004058875809854 ], [ 19.068717266123478, 50.003749324889277 ], [ 19.050896472917298, 50.000107354376077 ], [ 19.031587716236441, 49.996231728561135 ], [ 19.012282083037171, 49.992430502615434 ], [ 19.011073825204349, 49.992199565950855 ], [ 18.992979470095097, 49.988789508359424 ], [ 18.973679721993211, 49.985238633760822 ], [ 18.954382728738267, 49.981778509718062 ], [ 18.94768496985024, 49.980618699226426 ], [ 18.935088305773856, 49.978464502806389 ], [ 18.915796309843774, 49.975277639767164 ], [ 18.896506629576127, 49.97219827655951 ], [ 18.877219118821369, 49.96923281697336 ], [ 18.875583974173384, 49.968994156536176 ], [ 18.857933452392537, 49.966445047977103 ], [ 18.838649574970088, 49.963787570228476 ], [ 18.819367323297303, 49.961262087300923 ], [ 18.800086508769407, 49.958875787684647 ], [ 18.786422781240759, 49.957294614256277 ], [ 18.780806865912567, 49.956650282845608 ], [ 18.761528080689761, 49.954610050044643 ], [ 18.742250068711627, 49.952729236901 ], [ 18.722972591144252, 49.951016117588587 ], [ 18.703695393655494, 49.949479349702507 ], [ 18.68441820547136, 49.948128000378553 ], [ 18.665140738363963, 49.946971572946318 ], [ 18.645862685569195, 49.946020034097067 ], [ 18.62761403228356, 49.945323811285803 ], [ 18.626583714404308, 49.94528464721683 ], [ 18.607303409488406, 49.944784636104778 ], [ 18.588021512424234, 49.944517216549841 ], [ 18.568737639409068, 49.944494142715598 ], [ 18.549451382282399, 49.944727759583358 ], [ 18.538760602969194, 49.945004526744981 ], [ 18.530162248620105, 49.945237036789145 ], [ 18.51086968845512, 49.946043618377651 ], [ 18.491573266964018, 49.947154903814962 ], [ 18.472272449557806, 49.948586317850278 ], [ 18.452966668129015, 49.950354038935593 ], [ 18.433655319117129, 49.95247502878118 ], [ 18.414337761492369, 49.954967061746061 ], [ 18.407465620536058, 49.955977910324528 ], [ 18.395012729667705, 49.957895439328617 ], [ 18.375679590767145, 49.961268376832344 ], [ 18.356337864959023, 49.965081562017581 ], [ 18.346547299318143, 49.967220518696166 ], [ 18.336985976404584, 49.969410903926139 ], [ 18.317622805997051, 49.974291282638752 ], [ 18.30233287854383, 49.978532813673482 ], [ 18.298247688003592, 49.979722444225594 ], [ 18.278858192622035, 49.98582204867742 ], [ 18.26695714022846, 49.989884452018948 ], [ 18.259453729113392, 49.992575458060138 ], [ 18.240032245775229, 50.0000620736946 ], [ 18.237107702665469, 50.001261778947701 ], [ 18.220591182216886, 50.008384590592001 ], [ 18.211284789436007, 50.012658869796681 ], [ 18.201129176670502, 50.0175630980278 ], [ 18.188385665278709, 50.024070701450519 ], [ 18.18164359230488, 50.027690549109302 ], [ 18.167811785442122, 50.035494711251587 ], [ 18.16213157320562, 50.038863433832489 ], [ 18.149117991799816, 50.046928870605171 ], [ 18.142590077382938, 50.051179422425378 ], [ 18.131967458378661, 50.058371567400258 ], [ 18.123015929189958, 50.064734248899633 ], [ 18.116101547849425, 50.069821514814947 ], [ 18.103405894310502, 50.079617787823011 ], [ 18.101319108813868, 50.081277681071761 ], [ 18.087498159017514, 50.092739520079 ], [ 18.083755459290938, 50.095978564351583 ], [ 18.074484687762695, 50.104206146459703 ], [ 18.064061783652829, 50.113865829534326 ], [ 18.062149926487223, 50.115676790730973 ], [ 18.05044475763901, 50.127151266726585 ], [ 18.04432085196234, 50.133382904403753 ], [ 18.039255690751563, 50.138628825180525 ], [ 18.028527103710314, 50.150109149381386 ], [ 18.024530890570581, 50.154513465371529 ], [ 18.018197169856244, 50.161591843759872 ], [ 18.008206830641964, 50.173076509937864 ], [ 18.004690709778508, 50.17721354890444 ], [ 17.998510574909982, 50.184562842779542 ], [ 17.989060270809361, 50.196050496753394 ], [ 17.984801715032404, 50.201319534385249 ], [ 17.979813647616076, 50.207539160448334 ], [ 17.970733410477983, 50.219028551931935 ], [ 17.964868306327613, 50.226541767475986 ], [ 17.961780075366249, 50.230518357301492 ], [ 17.952919696644543, 50.242008299966734 ], [ 17.944897787582807, 50.252481343221994 ], [ 17.944121256420296, 50.253498119379771 ], [ 17.935344102825269, 50.264987457283503 ], [ 17.926569322359743, 50.276476143972403 ], [ 17.924900170913332, 50.278649753448526 ], [ 17.917751508977894, 50.2879637574177 ], [ 17.90887442610623, 50.299450135704632 ], [ 17.90488638366509, 50.304555878919338 ], [ 17.899898158531524, 50.310934887868179 ], [ 17.89079816513561, 50.322417757210374 ], [ 17.884866442903249, 50.329784485240182 ], [ 17.881545389545934, 50.333898435647455 ], [ 17.872103828966921, 50.345376538029825 ], [ 17.864848892146661, 50.354012950612052 ], [ 17.862455104866473, 50.356851839220177 ], [ 17.852553506423824, 50.368323837340043 ], [ 17.844840024400131, 50.377034863820512 ], [ 17.842386608873053, 50.379792344931133 ], [ 17.831905340599292, 50.391256800473137 ], [ 17.824843695752282, 50.398757169158323 ], [ 17.82109453186365, 50.402716966212814 ], [ 17.809911756929132, 50.414172317291253 ], [ 17.804861537345538, 50.419181786581618 ], [ 17.798327609548334, 50.425622443861982 ], [ 17.78631844345518, 50.437066980618738 ], [ 17.784893405802716, 50.438379843686874 ], [ 17.773828099032926, 50.448505205503309 ], [ 17.764940934084898, 50.456349490580124 ], [ 17.760847675971412, 50.4599368702848 ], [ 17.747331605241705, 50.471361322030631 ], [ 17.745001212995593, 50.473260546437949 ], [ 17.73323688498699, 50.482777907786009 ], [ 17.725074991696804, 50.489135891445798 ], [ 17.718542983419272, 50.494186193134574 ], [ 17.705158894276718, 50.504147780669392 ], [ 17.703212484479199, 50.505585536282673 ], [ 17.687200329222737, 50.516975179684145 ], [ 17.685253697427815, 50.518308224681789 ], [ 17.670471751632526, 50.528354447313639 ], [ 17.665358192800888, 50.531698849276715 ], [ 17.652997190146831, 50.539722690771157 ], [ 17.645470347876369, 50.544425105943624 ], [ 17.634740305634907, 50.551079150668542 ], [ 17.625589418227399, 50.556541880480026 ], [ 17.61566554670685, 50.562423039126323 ], [ 17.605714647617038, 50.568101248274559 ], [ 17.595738384395094, 50.573753540788644 ], [ 17.585845284668029, 50.579152123216858 ], [ 17.574925484885629, 50.585069813307818 ], [ 17.565980595300225, 50.589740075373783 ], [ 17.553194812149261, 50.596370987163773 ], [ 17.546119871768191, 50.59990727379973 ], [ 17.530515655276446, 50.60765616469741 ], [ 17.526262439014729, 50.609692519474976 ], [ 17.506858578701795, 50.618924418257691 ], [ 17.506407658940528, 50.619131340872222 ], [ 17.486557018634898, 50.628191181511056 ], [ 17.482185943083959, 50.630174665517934 ], [ 17.466708401436183, 50.636951962678282 ], [ 17.456479078051096, 50.641406017965117 ], [ 17.446861030376958, 50.645448800530488 ], [ 17.42971315303047, 50.652617460614536 ], [ 17.427014395172449, 50.653707021889865 ], [ 17.407170342438683, 50.661681013120486 ], [ 17.401852510350352, 50.663807779009908 ], [ 17.387327545093608, 50.669420080021439 ], [ 17.372877800256468, 50.674975922433639 ], [ 17.367484357210849, 50.676980272653346 ], [ 17.347642408900228, 50.684321639372392 ], [ 17.342759954618103, 50.686120651411947 ], [ 17.327801780970418, 50.691449739626222 ], [ 17.311472905465585, 50.697240707133524 ], [ 17.307959819139263, 50.698445863621153 ], [ 17.28811977543959, 50.705225298447907 ], [ 17.278982758605171, 50.708334652883032 ], [ 17.268279305304521, 50.711859158003634 ], [ 17.248437935376149, 50.718365084910786 ], [ 17.245266662088106, 50.719401144177489 ], [ 17.228598505106589, 50.724672084272449 ], [ 17.210284870533734, 50.730438512847158 ], [ 17.208756523807388, 50.730904526807613 ], [ 17.188917149296191, 50.736931127607505 ], [ 17.173995244632131, 50.741444965539522 ], [ 17.169075388175543, 50.742886630743513 ], [ 17.149235027398856, 50.74867727178637 ], [ 17.136362934118441, 50.752418730284695 ], [ 17.129393134363792, 50.754381871968711 ], [ 17.109551964489775, 50.75994715830803 ], [ 17.097342017867415, 50.76335776425568 ], [ 17.089709604240888, 50.765424459861372 ], [ 17.06986779951049, 50.770774063070292 ], [ 17.056883798295363, 50.774259868797195 ], [ 17.050024645665765, 50.776045661840399 ], [ 17.030182365783872, 50.781188701070846 ], [ 17.014938457351619, 50.785122707092675 ], [ 17.01033809461935, 50.7862745190425 ], [ 16.990495474183437, 50.791219872611194 ], [ 16.971457633325855, 50.795943840815141 ], [ 16.970649759985353, 50.796138415791688 ], [ 16.950806899201066, 50.800894967207029 ], [ 16.930960836796849, 50.805631254572219 ], [ 16.926376072950895, 50.806720400246803 ], [ 16.911116367949269, 50.810240343584503 ], [ 16.891270257691211, 50.814797650428524 ], [ 16.87966880614831, 50.817450083533672 ], [ 16.871423551943987, 50.819281605535693 ], [ 16.851577380569911, 50.823669623450634 ], [ 16.831728182014338, 50.828041190386088 ], [ 16.831320051299837, 50.828130652763214 ], [ 16.811881758413168, 50.832272679390542 ], [ 16.792032506599401, 50.836486583079903 ], [ 16.781285714524973, 50.83875923678707 ], [ 16.772182876313693, 50.840631917655926 ], [ 16.752333409322102, 50.844699222249972 ], [ 16.732480946112982, 50.848755682610538 ], [ 16.729634547329539, 50.849335013843977 ], [ 16.712630242557115, 50.852704363582184 ], [ 16.692777339909526, 50.856628247017063 ], [ 16.676409436437925, 50.859856699538213 ], [ 16.672922289370717, 50.860526915153031 ], [ 16.653068621055855, 50.864330709191982 ], [ 16.633211795751066, 50.86813161666268 ], [ 16.621738787946299, 50.870324766365258 ], [ 16.613353939631068, 50.871888067796924 ], [ 16.593495870591383, 50.875585277426204 ], [ 16.573634405714742, 50.879285947462144 ], [ 16.565820229364739, 50.88074131443264 ], [ 16.553772573486242, 50.8829321605064 ], [ 16.533909229816867, 50.886546881213263 ], [ 16.514042169521293, 50.89017225083041 ], [ 16.508907442184718, 50.891109974340921 ], [ 16.494175042576916, 50.893740005084268 ], [ 16.474305310626747, 50.897298393954735 ], [ 16.454431455514214, 50.900875436953825 ], [ 16.451322031712685, 50.90143632422847 ], [ 16.434557575285655, 50.904396146987217 ], [ 16.414680099189816, 50.90792623936062 ], [ 16.39479800518988, 50.911483763558778 ], [ 16.39343943693143, 50.911727762301091 ], [ 16.374915780099922, 50.914988357103397 ], [ 16.35502896241595, 50.918519851969819 ], [ 16.33566463482568, 50.921993099308885 ], [ 16.335137074787404, 50.92208595827465 ], [ 16.315244654182948, 50.925607097755638 ], [ 16.295346659585036, 50.929171116741891 ], [ 16.278404701159843, 50.932241994367416 ], [ 16.275443533748209, 50.932769458885758 ], [ 16.25553859851534, 50.936344942913443 ], [ 16.235627361166021, 50.939973755915837 ], [ 16.22203459617268, 50.942484134653725 ], [ 16.215711093040959, 50.943633436331318 ], [ 16.195791443358264, 50.94729589647519 ], [ 16.175864679313133, 50.951022596353233 ], [ 16.166868620952521, 50.952728441650407 ], [ 16.15593325847286, 50.954771899790366 ], [ 16.13599649022278, 50.958554522617902 ], [ 16.116051716974077, 50.962412622546303 ], [ 16.113144424628228, 50.962982501849517 ], [ 16.096103048047731, 50.966278727697038 ], [ 16.076146578826229, 50.970214780323595 ], [ 16.061038347701672, 50.973252746081982 ], [ 16.056182432350855, 50.974217353015277 ], [ 16.036213082063867, 50.978246221908897 ], [ 16.016234189442798, 50.982368442387269 ], [ 16.010633013796571, 50.983543455971891 ], [ 15.996249266741856, 50.98652770481165 ], [ 15.976255716684561, 50.990763162325571 ], [ 15.961954858054842, 50.993857520586253 ], [ 15.956253174381981, 50.995078818188247 ], [ 15.936243785634099, 50.99944047837311 ], [ 15.916223232694833, 51.00391225660654 ], [ 15.914971666452288, 51.004196246572903 ], [ 15.896196507410288, 51.008417209166048 ], [ 15.876158396952791, 51.013032165186559 ], [ 15.869643160926362, 51.014560597372586 ], [ 15.856112087649477, 51.017707857599987 ], [ 15.836055363135229, 51.022475593709736 ], [ 15.825856681744746, 51.024949434088484 ], [ 15.815988877043166, 51.027324017641611 ], [ 15.795912582334909, 51.032252214015713 ], [ 15.783509659222036, 51.035361662764167 ], [ 15.775825429312013, 51.037273720574994 ], [ 15.75572873960393, 51.042367810536085 ], [ 15.742487726601428, 51.045795655779479 ], [ 15.735620565376141, 51.047560744230132 ], [ 15.71550282034892, 51.052823583823077 ], [ 15.702670314903761, 51.056249402089342 ], [ 15.695373441725016, 51.058183917076384 ], [ 15.675234179825496, 51.063615465066874 ], [ 15.663934946485503, 51.066720632141298 ], [ 15.655083620180104, 51.069136457155984 ], [ 15.634922612565052, 51.074733484892938 ], [ 15.626160322469222, 51.077206915890528 ], [ 15.614751135459045, 51.080405392615219 ], [ 15.59456841780988, 51.086161245734225 ], [ 15.589228357800287, 51.087705734866937 ], [ 15.574376556281404, 51.091971114980893 ], [ 15.554172456443025, 51.097875550086883 ], [ 15.553025339532589, 51.098214530731944 ], [ 15.533961035323211, 51.103807117002155 ], [ 15.517446345611916, 51.108730851648183 ], [ 15.513737524205345, 51.109828584853197 ], [ 15.493506343242585, 51.115879962797145 ], [ 15.482378618091012, 51.119251871252786 ], [ 15.47326508676151, 51.121992222476415 ], [ 15.453014882368098, 51.128149528400428 ], [ 15.447718677126991, 51.129774902751898 ], [ 15.432757446255989, 51.134328788343794 ], [ 15.413368040894916, 51.140297285509476 ], [ 15.412490003548953, 51.140565321663786 ], [ 15.392217906638043, 51.146789509289178 ], [ 15.379222148693378, 51.150816052174498 ], [ 15.371937106696635, 51.153053080925488 ], [ 15.351650322995608, 51.15932087246744 ], [ 15.345187228334133, 51.161328449796294 ], [ 15.331358345281497, 51.16558281991324 ], [ 15.311169118878112, 51.171831603929064 ], [ 15.31105906756952, 51.171865333664648 ], [ 15.290758220113071, 51.178096701280488 ], [ 15.277049481292906, 51.182321760581161 ], [ 15.270451251006666, 51.184334071005679 ], [ 15.250141547346077, 51.190535618113124 ], [ 15.242744487421573, 51.192796137930912 ], [ 15.229829357493594, 51.196698860539733 ], [ 15.209513337208257, 51.202840748625256 ], [ 15.208152652991862, 51.203251282698176 ], [ 15.189198405362426, 51.208902080484364 ], [ 15.173141504329447, 51.213682605630396 ], [ 15.168880248558773, 51.214936045725821 ], [ 15.148563412489302, 51.220888659988049 ], [ 15.137607419159554, 51.224086309534471 ], [ 15.128245983563582, 51.226783987382227 ], [ 15.107929274045286, 51.2326073899101 ], [ 15.101432983040224, 51.234458005690506 ], [ 15.087614790260401, 51.238342262957147 ], [ 15.067300651893815, 51.244012010402095 ], [ 15.06448138543287, 51.244792498394737 ], [ 15.046991143620932, 51.249567743252292 ], [ 15.046375151721387, 51.255754449537996 ], [ 15.045226142948286, 51.267288617483146 ], [ 15.044077107809402, 51.278822768175786 ], [ 15.042928186616447, 51.290356906387395 ], [ 15.022721472132513, 51.3008755341748 ], [ 15.022058735418714, 51.301221769771402 ], [ 15.020904114514138, 51.312755548230129 ], [ 15.000925870202323, 51.323141795061403 ], [ 15.000017084513543, 51.323616037626095 ], [ 14.998857186914156, 51.335149469515137 ], [ 14.979108774097908, 51.345403044948242 ], [ 14.977952823307994, 51.34600558536458 ], [ 14.97678808921251, 51.357538684699229 ], [ 14.977976931373169, 51.358311014867674 ], [ 14.995382457404453, 51.369749838690218 ], [ 14.97609478320719, 51.37975446346379 ], [ 14.974461703261882, 51.380604941581858 ], [ 14.973300296060058, 51.392138107638928 ], [ 14.972140235468503, 51.403671304210128 ], [ 14.970981633115256, 51.415204535189545 ], [ 14.969824596159265, 51.426737804320389 ], [ 14.971847187996771, 51.42805014941473 ], [ 14.988466163469047, 51.438951282628572 ], [ 14.970046012954638, 51.448489066820784 ], [ 14.967515624344808, 51.449804471239688 ], [ 14.966363880960072, 51.461337875740739 ], [ 14.948149570441808, 51.47075810363755 ], [ 14.94539820982251, 51.472186750914886 ], [ 14.927254227486248, 51.481562262993528 ], [ 14.924422099700401, 51.483031616600698 ], [ 14.906349078340403, 51.492362210073125 ], [ 14.886467828111282, 51.49169541916438 ], [ 14.866587378046612, 51.491024979491556 ], [ 14.863780649663397, 51.49247837364188 ], [ 14.845664242532004, 51.501811265870856 ], [ 14.842771824711788, 51.503307775144719 ], [ 14.824731284170131, 51.512593485715591 ], [ 14.82175293562179, 51.514133160652882 ], [ 14.803788490372458, 51.523371724341537 ], [ 14.78389662908322, 51.522683303053135 ], [ 14.764005598738587, 51.521991171122863 ], [ 14.761033643381454, 51.523524601600002 ], [ 14.7430448260573, 51.53275599935084 ], [ 14.739982964714168, 51.534334489407968 ], [ 14.738779983552901, 51.545864486140147 ], [ 14.72099689960525, 51.554980828299257 ], [ 14.717716418760194, 51.55667008537003 ], [ 14.716513020701674, 51.568199902300762 ], [ 14.719566606198544, 51.570189184893572 ], [ 14.735188329392814, 51.580455019368301 ], [ 14.738386375460209, 51.582536815734457 ], [ 14.753879102011835, 51.592707564530208 ], [ 14.757216642965213, 51.594878500574026 ], [ 14.772585313408724, 51.604957529988212 ], [ 14.771412262906038, 51.616488792482613 ], [ 14.754381924464635, 51.625221494072107 ], [ 14.750341901812844, 51.627300305279519 ], [ 14.75396713768966, 51.629656915511525 ], [ 14.769075397279243, 51.639551608354921 ], [ 14.75223325417304, 51.648185413735007 ], [ 14.747999406172765, 51.650362629300091 ], [ 14.751798225386963, 51.652831057948987 ], [ 14.766751058963663, 51.662614820346832 ], [ 14.750080869647295, 51.671158349535396 ], [ 14.745669707625083, 51.673425362017881 ], [ 14.744509716588887, 51.684956884008777 ], [ 14.727960418930437, 51.693431369752197 ], [ 14.72341784689166, 51.69576323001148 ], [ 14.706907485024351, 51.704211775983765 ], [ 14.702318206552476, 51.706565618397725 ], [ 14.685844461807472, 51.714989538297914 ], [ 14.681210956340584, 51.717364052139821 ], [ 14.680047290150453, 51.728895003837806 ], [ 14.663668992098552, 51.737263746783285 ], [ 14.65893048448817, 51.739689268209489 ], [ 14.657768192502353, 51.751220117903721 ], [ 14.656609381607472, 51.762751083519575 ], [ 14.655454050659165, 51.774282165105426 ], [ 14.654302195758515, 51.785813362607186 ], [ 14.653153810224884, 51.797344675867151 ], [ 14.637023411557879, 51.805579147936214 ], [ 14.617013150637064, 51.804846300915436 ], [ 14.612032315689586, 51.807388405968496 ], [ 14.595879438041726, 51.815624435804196 ], [ 14.5908875051968, 51.818170037939446 ], [ 14.589733941724898, 51.829700751439105 ], [ 14.594218853881673, 51.832616864281526 ], [ 14.608587096935459, 51.841981494222559 ], [ 14.607445680344107, 51.85351276058536 ], [ 14.611989939555379, 51.856464563290523 ], [ 14.632020519649721, 51.857223914684383 ], [ 14.646335611515021, 51.866534963792716 ], [ 14.650937138316294, 51.869519957189155 ], [ 14.665230716532875, 51.878807668757531 ], [ 14.669864277800562, 51.881811112773441 ], [ 14.684139541657357, 51.891077672444858 ], [ 14.688801935613943, 51.894097461305144 ], [ 14.703061946323068, 51.903344963670072 ], [ 14.701961838969419, 51.914878286047923 ], [ 14.700864767945003, 51.926411707197047 ], [ 14.705546329721686, 51.929440289550463 ], [ 14.719816268728772, 51.938677049438851 ], [ 14.718729855587606, 51.950210948358318 ], [ 14.717646256012578, 51.96174493753356 ], [ 14.716565400475313, 51.973279014501259 ], [ 14.715487213147199, 51.984813176566618 ], [ 14.720118348109969, 51.987804295030216 ], [ 14.73448104087969, 51.997077229418323 ], [ 14.733412439299265, 52.008611825607531 ], [ 14.732346185936965, 52.020146494916403 ], [ 14.736922703219289, 52.023098789805381 ], [ 14.751365613150915, 52.032408430948244 ], [ 14.750308093632013, 52.043943500094905 ], [ 14.749252532939149, 52.055478627958507 ], [ 14.753753324028423, 52.058378580727222 ], [ 14.76829586323638, 52.067738370783502 ], [ 14.752074721089651, 52.076040786607365 ], [ 14.747146760994777, 52.078549041001729 ], [ 14.746096263785995, 52.090084315945369 ], [ 14.729729409910082, 52.098455122117507 ], [ 14.709585198800422, 52.097742603529973 ], [ 14.70483016967264, 52.100158692131473 ], [ 14.688324711179295, 52.108590855106911 ], [ 14.683662660378761, 52.110957668289394 ], [ 14.682603790679504, 52.122492287360487 ], [ 14.681545914322649, 52.134026931420095 ], [ 14.680488830936961, 52.145561593154753 ], [ 14.684498000382085, 52.148144847071308 ], [ 14.699559555596814, 52.157833123776072 ], [ 14.70355129219365, 52.160403128709369 ], [ 14.718639039188218, 52.170101712423204 ], [ 14.701784442105472, 52.178707888355397 ], [ 14.697455021549544, 52.18090295143665 ], [ 14.696402655313957, 52.192437844490122 ], [ 14.695349896392209, 52.203972711787699 ], [ 14.699108770721125, 52.206390742792323 ], [ 14.71444329395635, 52.216242176155994 ], [ 14.713392656345553, 52.227777201432019 ], [ 14.712340815325977, 52.239312171442307 ], [ 14.71128749829523, 52.250847076269999 ], [ 14.693945248378558, 52.259686314441325 ], [ 14.673727925875852, 52.258977076069954 ], [ 14.669910440130771, 52.260907310231921 ], [ 14.652378058845496, 52.269832057017261 ], [ 14.632157123288692, 52.269116449502654 ], [ 14.628520242253925, 52.270952764870664 ], [ 14.610792320366684, 52.279965342663928 ], [ 14.590567788683718, 52.279243320882806 ], [ 14.587116589673494, 52.280983417709251 ], [ 14.586033086562736, 52.292516534789918 ], [ 14.584946664675043, 52.304049531830884 ], [ 14.583857009401376, 52.315582397025651 ], [ 14.565715988583687, 52.324782100271385 ], [ 14.562585845535862, 52.326357474820554 ], [ 14.561485218373434, 52.337889799167101 ], [ 14.56038041215858, 52.349421955542951 ], [ 14.559271128973617, 52.360953932688339 ], [ 14.558157081508046, 52.372485719736225 ], [ 14.557037995107404, 52.38401730628965 ], [ 14.538479697630395, 52.393397828092027 ], [ 14.535714556520976, 52.394786111445136 ], [ 14.538179133502787, 52.396372223088655 ], [ 14.554783682151063, 52.407079839128528 ], [ 14.553647987278607, 52.418610767640075 ], [ 14.552506320396091, 52.430141460244187 ], [ 14.554969391151596, 52.431724680527992 ], [ 14.575254992198188, 52.432531246030294 ], [ 14.591790550046854, 52.443188798954502 ], [ 14.594390118833628, 52.444857470694579 ], [ 14.61086621837927, 52.455473083580181 ], [ 14.609718156841264, 52.467003848069751 ], [ 14.612387107304977, 52.468715337018118 ], [ 14.628794966349034, 52.479285016286774 ], [ 14.631546897558055, 52.481048320099298 ], [ 14.647875285614171, 52.491563051323375 ], [ 14.646717001090408, 52.503093636268943 ], [ 14.628442393534055, 52.512302162029329 ], [ 14.625306652210861, 52.513875919596543 ], [ 14.624131119696164, 52.525405724734199 ], [ 14.622949228392343, 52.536935282550388 ], [ 14.621761027279005, 52.548464594772014 ], [ 14.624658399401241, 52.550318719694573 ], [ 14.640831502419227, 52.560742914983287 ], [ 14.639635928655965, 52.572272053507319 ], [ 14.621563803031703, 52.581345726492586 ], [ 14.61815939386358, 52.583051087711993 ], [ 14.61694688781577, 52.59457945131723 ], [ 14.615728640129781, 52.606107589963621 ], [ 14.597737164710813, 52.615119699684371 ], [ 14.59421533503483, 52.616881221829921 ], [ 14.576196958703065, 52.62589653815732 ], [ 14.555812534619379, 52.625181987102401 ], [ 14.552394784954972, 52.626889002054376 ], [ 14.534257609946403, 52.635948417534216 ], [ 14.530847384577669, 52.637650182618344 ], [ 14.512692417128292, 52.646708105310495 ], [ 14.509284926136242, 52.648407015595239 ], [ 14.491116954600589, 52.657461054301166 ], [ 14.470720106155806, 52.65673176453685 ], [ 14.467403261090155, 52.658383107118979 ], [ 14.466114881610013, 52.669907613682668 ], [ 14.447935208251304, 52.678946808019283 ], [ 14.444507368524095, 52.680651368173599 ], [ 14.443203974262502, 52.692175138362984 ], [ 14.425127674278617, 52.701147703373842 ], [ 14.421571451794842, 52.702913984856842 ], [ 14.403505182360034, 52.711871481629089 ], [ 14.399924267269563, 52.713648462655343 ], [ 14.398596998349923, 52.725170996918109 ], [ 14.380658641834939, 52.734050404390004 ], [ 14.376925742774356, 52.735900580648007 ], [ 14.359009557916675, 52.744759219300917 ], [ 14.355240246774924, 52.746625796473097 ], [ 14.337350127281301, 52.755461838246504 ], [ 14.333540647526322, 52.757346643513443 ], [ 14.315680339161062, 52.766158342702319 ], [ 14.311827090103478, 52.768063121300159 ], [ 14.29400018223936, 52.776848817626714 ], [ 14.273553370840864, 52.776081198901394 ], [ 14.269740098126382, 52.777963495345752 ], [ 14.268358711188908, 52.789482968961977 ], [ 14.250608714487418, 52.798212030941414 ], [ 14.246604205445225, 52.800186339458008 ], [ 14.228897379037505, 52.80888494898791 ], [ 14.224836370111937, 52.810885341832716 ], [ 14.207175625710258, 52.819552195250687 ], [ 14.186711491716235, 52.81876714535651 ], [ 14.182674769845793, 52.820752698807375 ], [ 14.164974991676637, 52.829424394505104 ], [ 14.144507526279581, 52.828631278196184 ], [ 14.140490281018442, 52.830604391900714 ], [ 14.139063221763751, 52.842121069100955 ], [ 14.137634954680468, 52.853637686399821 ], [ 14.141436605291533, 52.856087507002044 ], [ 14.156609270177173, 52.86599013763324 ], [ 14.155185351969383, 52.877507063484508 ], [ 14.159319342423474, 52.880168363574299 ], [ 14.174177607027641, 52.889857141072348 ], [ 14.157316952145921, 52.898097648947697 ], [ 14.152335771026788, 52.900540812777542 ], [ 14.150910415906575, 52.912057648847906 ], [ 14.149484869856627, 52.923574466826594 ], [ 14.148059257916794, 52.935091271861609 ], [ 14.146633694386873, 52.946608068664965 ], [ 14.145208283302654, 52.958124861531886 ], [ 14.15023496528503, 52.961356098113647 ], [ 14.16424369342122, 52.970477679352015 ], [ 14.169460376768569, 52.97382836376002 ], [ 14.189987932521863, 52.974701271728961 ], [ 14.203761812110024, 52.983657197064908 ], [ 14.209231164915098, 52.987165275138793 ], [ 14.229766330766356, 52.988030947833323 ], [ 14.243309739289167, 52.996824276417335 ], [ 14.249027405962424, 53.000486509829052 ], [ 14.262402095448854, 53.009162766139589 ], [ 14.268299777858873, 53.012937265634186 ], [ 14.288849118379289, 53.013791800485002 ], [ 14.302002221503091, 53.022311578197638 ], [ 14.308139369446781, 53.026233850473673 ], [ 14.321131102413705, 53.03464153693033 ], [ 14.327440946565824, 53.038670933435618 ], [ 14.340274665777265, 53.046968784502972 ], [ 14.346753861721714, 53.051102993896187 ], [ 14.359433004367245, 53.059293318136866 ], [ 14.358082299194868, 53.070814601251421 ], [ 14.364831543589551, 53.075116730889249 ], [ 14.377262695657109, 53.083136827284825 ], [ 14.375920004776304, 53.09465854077645 ], [ 14.374578147849373, 53.106180275886594 ], [ 14.373237140393396, 53.117702033268046 ], [ 14.380442069263932, 53.122287973410707 ], [ 14.392454309974179, 53.1300227664399 ], [ 14.391121459733418, 53.141544956870575 ], [ 14.377663782416542, 53.148125801449929 ], [ 14.369219318031671, 53.152267443547956 ], [ 14.367881796314409, 53.163789293926186 ], [ 14.366545153593906, 53.175311167970989 ], [ 14.374210549148531, 53.18018496486097 ], [ 14.385798853246309, 53.187633952435057 ], [ 14.384470396977859, 53.19915625990361 ], [ 14.39235711290817, 53.204165633511252 ], [ 14.403746509234995, 53.211476710683755 ], [ 14.402426224235397, 53.222999448347515 ], [ 14.410524029370741, 53.22813761644391 ], [ 14.421724751191178, 53.235317554144203 ], [ 14.429946892484756, 53.240530376565587 ], [ 14.441038399653756, 53.247632901669277 ], [ 14.449381219065209, 53.252917933397541 ], [ 14.460367173720321, 53.259945484460985 ], [ 14.447989988780192, 53.265995620830672 ], [ 14.438429484413161, 53.270680053095099 ], [ 14.426080477927536, 53.276711091745867 ], [ 14.416481126450773, 53.281410337614432 ], [ 14.415172237674684, 53.292933584901391 ], [ 14.413864126207892, 53.304456851705851 ], [ 14.412556775905635, 53.315980137451199 ], [ 14.411250170004303, 53.327503441536514 ], [ 14.409944291193256, 53.339026763339284 ], [ 14.408639121679279, 53.350550102217916 ], [ 14.396732393736327, 53.356350246208073 ], [ 14.386645771782362, 53.361273922991899 ], [ 14.395589170880365, 53.366933923174201 ], [ 14.406030837294368, 53.373596828554092 ], [ 14.394248934508687, 53.379332932336027 ], [ 14.384025914856217, 53.384319921288437 ], [ 14.382716948227483, 53.395842942674264 ], [ 14.381408597256101, 53.407365977951478 ], [ 14.380100842496265, 53.418889026408692 ], [ 14.378793664318339, 53.430412087326864 ], [ 14.377487042933495, 53.441935159980225 ], [ 14.376180958414878, 53.453458243637208 ], [ 14.364754366254122, 53.459006826200124 ], [ 14.354129825731194, 53.46417481481302 ], [ 14.352818312362086, 53.475697539020722 ], [ 14.351507277825405, 53.487220272291715 ], [ 14.35019670206967, 53.498743013884329 ], [ 14.338933690237896, 53.504202411580756 ], [ 14.328116541105267, 53.509454135994929 ], [ 14.326800387342578, 53.520976511950302 ], [ 14.325484635244587, 53.532498894295728 ], [ 14.314327483183657, 53.537898832961595 ], [ 14.303381220146202, 53.543204921059335 ], [ 14.302059783285141, 53.554726932889153 ], [ 14.311783854211065, 53.560869397875813 ], [ 14.321539588854073, 53.567066072217862 ], [ 14.320225243194379, 53.578588472661167 ], [ 14.318911198976078, 53.590110875756388 ], [ 14.317597436108962, 53.601633280752601 ], [ 14.316283934502156, 53.613155686898374 ], [ 14.30539614708791, 53.61841429488053 ], [ 14.294137727185683, 53.623859071946555 ], [ 14.292818293350132, 53.635381099514774 ], [ 14.291499066224389, 53.646903126347532 ], [ 14.290180025972147, 53.658425151698289 ], [ 14.279401712693153, 53.663621327042371 ], [ 14.268003887775107, 53.669123024631894 ], [ 14.27807373584035, 53.67547390513834 ], [ 14.287542426867635, 53.68146919497029 ], [ 14.276822463238029, 53.686634100500015 ], [ 14.265353820710722, 53.692166303477329 ], [ 14.264028968481526, 53.703687937165107 ], [ 14.262704211109092, 53.715209566044386 ], [ 14.26137952914563, 53.726731189378057 ], [ 14.271596046730405, 53.733167533776182 ], [ 14.280950317095376, 53.739079225112711 ], [ 14.27035758091686, 53.744175022065669 ], [ 14.258730313951151, 53.749774416469762 ], [ 14.268999090160992, 53.756240851844147 ], [ 14.278313817155794, 53.762123190428142 ], [ 14.276995563268597, 53.773645160135501 ], [ 14.27567728115425, 53.785167120240061 ], [ 14.27435895172731, 53.796689070019347 ], [ 14.263868780806696, 53.801727719446347 ], [ 14.252107247280883, 53.807382335982268 ], [ 14.250782476988746, 53.818903888698969 ], [ 14.249457610578334, 53.830425429354712 ], [ 14.239010705926729, 53.835435442894067 ], [ 14.227181637682328, 53.841113517641617 ], [ 14.225850253384781, 53.852634657105305 ], [ 14.224518725656676, 53.864155782813654 ], [ 14.223187036425378, 53.875676894075582 ], [ 14.221855167762218, 53.887197990205387 ], [ 14.220523101888197, 53.898719070522873 ], [ 14.210154916750797, 53.903678838897605 ], [ 14.198203462212581, 53.909400794542748 ], [ 14.20873903011973, 53.916022984014575 ], [ 14.217858308173934, 53.921761181029439 ], [ 14.228413821868225, 53.928390379932999 ], [ 14.249413018240318, 53.929225181317889 ], [ 14.270413277527762, 53.930056281178388 ], [ 14.291414595406678, 53.93088367628296 ], [ 14.303378287284866, 53.925143594271013 ], [ 14.313711426623971, 53.920178034760006 ], [ 14.325657741936638, 53.914441015642424 ], [ 14.335996894347581, 53.909468107393224 ], [ 14.356989811102466, 53.910284186551088 ], [ 14.377983768602849, 53.911096542339685 ], [ 14.387130613948134, 53.916823197361474 ], [ 14.397708263143185, 53.923435248765465 ], [ 14.418710064228771, 53.924240239100641 ], [ 14.439712893559436, 53.925041495814753 ], [ 14.448862525798361, 53.930756527467558 ], [ 14.459462731267644, 53.937369035012352 ], [ 14.468611187835876, 53.943077691671199 ], [ 14.479224305873789, 53.94969272011096 ], [ 14.488372905354803, 53.955395868742556 ], [ 14.498997621365563, 53.962012586842945 ], [ 14.520021868250501, 53.962799230272907 ], [ 14.529176653412357, 53.968496898190757 ], [ 14.539813725194291, 53.975111707244579 ], [ 14.560845772396469, 53.975890993395424 ], [ 14.570008925514772, 53.981584603747031 ], [ 14.580656169557031, 53.988196133639931 ], [ 14.601696004201843, 53.988968063166887 ], [ 14.622736830141321, 53.989736230873753 ], [ 14.63191646789325, 53.995427133794429 ], [ 14.642572549693416, 54.002030493528018 ], [ 14.663621142041533, 54.002791297415229 ], [ 14.684670713265234, 54.003548326259548 ], [ 14.693870041516757, 54.009238580335804 ], [ 14.704531741132831, 54.015831777210373 ], [ 14.725589057868879, 54.016581433090629 ], [ 14.734803660739768, 54.022272099073291 ], [ 14.745468614043773, 54.028857721555596 ], [ 14.766533663693746, 54.029600002068264 ], [ 14.775765224771508, 54.035292167319355 ], [ 14.786431747801959, 54.041869179354613 ], [ 14.807504517896842, 54.042604080765273 ], [ 14.828578238317974, 54.043335173306254 ], [ 14.849652904897958, 54.044062449841853 ], [ 14.858920499480639, 54.049760485352465 ], [ 14.869583028663365, 54.056317410389831 ], [ 14.89066538732464, 54.057037280497845 ], [ 14.91174867997287, 54.057753315735091 ], [ 14.932832902455068, 54.058465508232949 ], [ 14.94214131304283, 54.064172355193413 ], [ 14.95279503463281, 54.070706294139768 ], [ 14.973886921234426, 54.071411045888013 ], [ 14.9832190893747, 54.077123660959941 ], [ 14.993867566975016, 54.083644864697064 ], [ 15.014967105938661, 54.084342162360883 ], [ 15.036067554730902, 54.085035581886395 ], [ 15.045436391255151, 54.090758158796518 ], [ 15.056073447091524, 54.09725887373358 ], [ 15.077181528833446, 54.097944807946313 ], [ 15.098290508392607, 54.098626839562243 ], [ 15.107699045366946, 54.104361193992617 ], [ 15.118321639467732, 54.110839616121154 ], [ 15.139438232849933, 54.111514125842078 ], [ 15.16055571205786, 54.112184706671286 ], [ 15.170007128910639, 54.117932716569008 ], [ 15.18061207526679, 54.124386964442209 ], [ 15.201737149427446, 54.125049981299462 ], [ 15.211219798214012, 54.130808248201106 ], [ 15.22181202923827, 54.137245335955441 ], [ 15.242944687506895, 54.137900760382784 ], [ 15.2640782117894, 54.13855220879924 ], [ 15.273609374244185, 54.144327404583592 ], [ 15.284178320964941, 54.150737010047777 ], [ 15.305319410869284, 54.151380814316973 ], [ 15.326461354731432, 54.152020611864991 ], [ 15.347604148290598, 54.152656391931473 ], [ 15.368747787266173, 54.153288143727451 ], [ 15.38989226735686, 54.1539158564442 ], [ 15.399531342561882, 54.159732273896488 ], [ 15.410037684723719, 54.166078972267698 ], [ 15.431189688280654, 54.166698920230729 ], [ 15.452342520633238, 54.167314796807133 ], [ 15.473496177396498, 54.167926591097306 ], [ 15.49465065416087, 54.168534292224457 ], [ 15.515805946491685, 54.169137889341719 ], [ 15.525573535801412, 54.175007232257265 ], [ 15.535996600087781, 54.181278972835052 ], [ 15.557159372850451, 54.181874675664098 ], [ 15.57832294848423, 54.182466241642786 ], [ 15.588163399666659, 54.188366296706562 ], [ 15.598538788417686, 54.194596368793889 ], [ 15.619709825332999, 54.19517997306076 ], [ 15.640881652212403, 54.195759407565703 ], [ 15.662054264437108, 54.196334661726389 ], [ 15.6720017939043, 54.202281630839032 ], [ 15.682301946636873, 54.208449869364607 ], [ 15.703481992147518, 54.209017070578319 ], [ 15.724662809771649, 54.209580058980109 ], [ 15.745844394774767, 54.210138824297772 ], [ 15.755911420032096, 54.216139644717074 ], [ 15.766123901489653, 54.22223890357143 ], [ 15.787312890968412, 54.22278952467483 ], [ 15.797443380007357, 54.228818644581501 ], [ 15.807610929530775, 54.234882144702183 ], [ 15.828807311692639, 54.235424573932562 ], [ 15.850004438698125, 54.235962727369618 ], [ 15.860237744807918, 54.24203919551929 ], [ 15.870327653454266, 54.248043855295258 ], [ 15.891532152015946, 54.248573748857851 ], [ 15.912737381354557, 54.249099336603166 ], [ 15.933943336462729, 54.249620609237326 ], [ 15.955150012305753, 54.250137557573304 ], [ 15.976357403821938, 54.250650172529902 ], [ 15.99756550592298, 54.251158445130443 ], [ 16.018774313494312, 54.251662366501755 ], [ 16.029330930694972, 54.257894881474314 ], [ 16.039155778634239, 54.263711715008142 ], [ 16.060371888573695, 54.264207216341234 ], [ 16.08158868917144, 54.264698339683747 ], [ 16.092281513829708, 54.270996696903843 ], [ 16.101995283609224, 54.276735767164105 ], [ 16.123219363060777, 54.277218413511164 ], [ 16.134006771981934, 54.283562176309843 ], [ 16.143644490903686, 54.289247919581022 ], [ 16.154478197246767, 54.295612969034458 ], [ 16.164081568438672, 54.301273568945362 ], [ 16.185319501812984, 54.301743581614296 ], [ 16.196254264957471, 54.308157536708322 ], [ 16.205775128014828, 54.313761220073744 ], [ 16.216759349624866, 54.320198143370533 ], [ 16.22624272291598, 54.32577494617972 ], [ 16.237277479658356, 54.332235406089659 ], [ 16.246722295666142, 54.337784740173348 ], [ 16.257808688512394, 54.344269320215183 ], [ 16.267213855228778, 54.3497905846422 ], [ 16.278353004859213, 54.356299880967519 ], [ 16.287717410369169, 54.361792464782717 ], [ 16.298910452125284, 54.368327083431822 ], [ 16.308232969644227, 54.373790368648073 ], [ 16.319481048056293, 54.380350922552793 ], [ 16.318719082464749, 54.391898998949237 ], [ 16.328009491100243, 54.397337393484335 ], [ 16.33930829782161, 54.403919641851402 ], [ 16.348554525603348, 54.409327484067795 ], [ 16.359910690053987, 54.4159369095551 ], [ 16.359159345480695, 54.427485304842826 ], [ 16.368370924173835, 54.432866858798938 ], [ 16.379780400574717, 54.439499361665057 ], [ 16.388945503491104, 54.444849116152433 ], [ 16.400414617678852, 54.451510030477017 ], [ 16.399673979638901, 54.463058740234302 ], [ 16.408801896682021, 54.468380819971983 ], [ 16.420326835152022, 54.475066182020527 ], [ 16.429406086774435, 54.480355284248255 ], [ 16.440992790863586, 54.487070222029566 ], [ 16.440262884898605, 54.498619240492111 ], [ 16.449302586557216, 54.503879390994427 ], [ 16.46094738223416, 54.510620035876833 ], [ 16.469936449791177, 54.515846166688604 ], [ 16.491291173811963, 54.516255112118166 ], [ 16.503068789821025, 54.52306186756924 ], [ 16.511943729079565, 54.528213960398602 ], [ 16.523786637214815, 54.535052236005868 ], [ 16.532608390652438, 54.540168985794644 ], [ 16.553976862285101, 54.540565465890765 ], [ 16.565957722310895, 54.547472668922232 ], [ 16.574660215965448, 54.552512719652839 ], [ 16.596035825582245, 54.552900832433288 ], [ 16.617411986980695, 54.553284570068868 ], [ 16.629608799755914, 54.560301025672779 ], [ 16.638120594385668, 54.56522023192511 ], [ 16.659503861617971, 54.565595678076946 ], [ 16.680887662458478, 54.565966770771347 ], [ 16.70227199080928, 54.566333514290136 ], [ 16.723656840558856, 54.566695913315087 ], [ 16.745042205582177, 54.56705397294543 ], [ 16.766428079740809, 54.567407698715833 ], [ 16.779168452863104, 54.574703176149654 ], [ 16.78718806013784, 54.57931671362892 ], [ 16.808580958661512, 54.579662336024626 ], [ 16.8299743478801, 54.580003657827085 ], [ 16.84295317628689, 54.587420584166466 ], [ 16.850759468821675, 54.591901919061002 ], [ 16.872159849467526, 54.592235258785443 ], [ 16.893560702313003, 54.592564337009442 ], [ 16.914962021156818, 54.592889163139041 ], [ 16.928269728792152, 54.600474511591223 ], [ 16.935778746874238, 54.604773419169859 ], [ 16.949157340575653, 54.61239323877701 ], [ 16.956607580175074, 54.616654748638361 ], [ 16.970055943266892, 54.624308420994133 ], [ 16.977448526363116, 54.628533234375801 ], [ 16.990965380998286, 54.636220051384683 ], [ 16.998301590880995, 54.640408959924571 ], [ 17.011885497251225, 54.64812812319208 ], [ 17.019166779335354, 54.652282009069793 ], [ 17.032816135753322, 54.660032629776325 ], [ 17.040044097521417, 54.664152465355073 ], [ 17.061484765518639, 54.664452386371444 ], [ 17.075282944102334, 54.672277519555116 ], [ 17.082380694899264, 54.676317066235804 ], [ 17.096239914632125, 54.684171190563447 ], [ 17.103288764848113, 54.68817936797592 ], [ 17.124742788637946, 54.688468800036851 ], [ 17.138744832360466, 54.696394031881219 ], [ 17.145669472971786, 54.700325665547389 ], [ 17.16713035862367, 54.700607998317579 ], [ 17.181271238820301, 54.708602062435553 ], [ 17.188075656758425, 54.712459630254024 ], [ 17.209543386350571, 54.712734986542522 ], [ 17.223818493501245, 54.720795257225994 ], [ 17.23050729884698, 54.724581579364013 ], [ 17.251981855056552, 54.724850080318049 ], [ 17.266385978024683, 54.732973592469676 ], [ 17.272964383691875, 54.736691817773959 ], [ 17.294445749830704, 54.736953581749582 ], [ 17.315927471182128, 54.737211538128825 ], [ 17.337409541946599, 54.737465705522347 ], [ 17.352096484537682, 54.745730798790056 ], [ 17.358423562198645, 54.749297156046907 ], [ 17.379912405443047, 54.749544793848038 ], [ 17.401401581699005, 54.749788709400065 ], [ 17.422891085255898, 54.750028923441235 ], [ 17.444380910415795, 54.750265457522083 ], [ 17.465871051493536, 54.750498334058648 ], [ 17.480981463400383, 54.758975470523922 ], [ 17.486929356525071, 54.76231474531545 ], [ 17.508426213986283, 54.762541394150567 ], [ 17.529923371561097, 54.762764459270414 ], [ 17.551420823656255, 54.762983966043258 ], [ 17.57291856469239, 54.763199940968242 ], [ 17.588348041024322, 54.771834074783094 ], [ 17.594014671969955, 54.775004740075097 ], [ 17.615519086446611, 54.775214742938012 ], [ 17.637023774574512, 54.77542129563551 ], [ 17.658528730869588, 54.775624428595428 ], [ 17.674178059362458, 54.784363764710434 ], [ 17.679656217271614, 54.787420553855711 ], [ 17.701167815864647, 54.787617919775712 ], [ 17.7226796677616, 54.787811955392911 ], [ 17.738459172841527, 54.796610290132563 ], [ 17.743832147467998, 54.799602004496137 ], [ 17.765350621212999, 54.79979042179324 ], [ 17.786869333736252, 54.79997560444226 ], [ 17.808388279747351, 54.800157591611665 ], [ 17.824339255123157, 54.8090336837774 ], [ 17.829572127901347, 54.811939379848845 ], [ 17.851097667297079, 54.812115961205386 ], [ 17.872623426094133, 54.812289454669262 ], [ 17.888662061467105, 54.821200566009111 ], [ 17.893832277324268, 54.82406535265001 ], [ 17.915364610999898, 54.824233595443559 ], [ 17.936897150355758, 54.824398867243431 ], [ 17.958429890365718, 54.824561218758987 ], [ 17.979962826052532, 54.824720703039219 ], [ 18.001495952493215, 54.824877375508251 ], [ 18.023029264824803, 54.825031293987934 ], [ 18.044562758250553, 54.825182518706072 ], [ 18.066096428046531, 54.825331112288254 ], [ 18.087630269568599, 54.825477139731248 ], [ 18.109164278259758, 54.825620668356002 ], [ 18.130698449657835, 54.825761767738122 ], [ 18.152232779403462, 54.825900509613518 ], [ 18.173767263248294, 54.826036967757297 ], [ 18.195301897063427, 54.82617121783376 ], [ 18.216836676847933, 54.82630333721535 ], [ 18.238371598737427, 54.826433404768963 ], [ 18.259906659012604, 54.826561500607184 ], [ 18.281441854107594, 54.826687705804055 ], [ 18.302977180618083, 54.826812102073092 ], [ 18.324512635309009, 54.826934771407863 ], [ 18.346048215121755, 54.827055795683421 ], [ 18.350801128993815, 54.824551731534761 ], [ 18.367765356546279, 54.815561528437456 ], [ 18.37242362082613, 54.813105099053473 ], [ 18.389470127847332, 54.804066253281171 ], [ 18.394039345883883, 54.801654591174078 ], [ 18.411162537083754, 54.792570290684921 ], [ 18.415648894650158, 54.790200212656202 ], [ 18.415716179949293, 54.778640167198631 ], [ 18.415783758865793, 54.767080101270807 ], [ 18.411566138557504, 54.764774542401348 ], [ 18.394331151545746, 54.755414465410865 ], [ 18.394404936807639, 54.743854383470236 ], [ 18.394479185653996, 54.732294281972521 ], [ 18.412172920482586, 54.722895843797133 ], [ 18.416058299755417, 54.720839639000381 ], [ 18.433815303404277, 54.711403440560638 ], [ 18.437633155646751, 54.709381143113553 ], [ 18.455445390640673, 54.69991169139292 ], [ 18.459204331712801, 54.697918797494232 ], [ 18.459265510036364, 54.686358554327121 ], [ 18.459327565167317, 54.674798293120645 ], [ 18.459390567110482, 54.663238014184152 ], [ 18.459454586176218, 54.65167771782842 ], [ 18.45951969284139, 54.640117404364922 ], [ 18.477808009377469, 54.630383542215334 ], [ 18.499239873174009, 54.630505151930876 ], [ 18.502557115383016, 54.628741200969841 ], [ 18.502614912501031, 54.617180816623751 ], [ 18.502674034610358, 54.605620415712174 ], [ 18.521080739907966, 54.595816137211081 ], [ 18.524216278919496, 54.594146334020614 ], [ 18.524273549674202, 54.582585883541661 ], [ 18.542754394571617, 54.572738143928781 ], [ 18.545811942996, 54.571107935024735 ], [ 18.545867698883214, 54.559547436278173 ], [ 18.545925105207623, 54.547986921667899 ], [ 18.54598421995146, 54.536426391408568 ], [ 18.546045099413444, 54.524865845708391 ], [ 18.5461077980436, 54.51330528476862 ], [ 18.546172368279031, 54.50174470878283 ], [ 18.565019975292536, 54.491691922297214 ], [ 18.567693442561904, 54.490262735657254 ], [ 18.565050519980353, 54.48881448069266 ], [ 18.546307322276913, 54.478623512405697 ], [ 18.546377799398972, 54.467062892357831 ], [ 18.546450334535194, 54.455502257949703 ], [ 18.565511450111458, 54.445331027743237 ], [ 18.567960770677661, 54.44402015305419 ], [ 18.586963219105616, 54.433877768973552 ], [ 18.589471346753438, 54.432534218553208 ], [ 18.589540718591262, 54.420973502701287 ], [ 18.60851335090614, 54.41084335760543 ], [ 18.629830702724416, 54.410979018155203 ], [ 18.632492026290059, 54.409550851292302 ], [ 18.651246455723289, 54.399533184398067 ], [ 18.672558048806007, 54.399669222781739 ], [ 18.675453711079157, 54.398112967831899 ], [ 18.693955959528942, 54.388225665554415 ], [ 18.696963419238685, 54.386607881552415 ], [ 18.715341929788419, 54.376783677914901 ], [ 18.718471040975842, 54.375098951524102 ], [ 18.736715977677033, 54.365342933688538 ], [ 18.75801010202461, 54.365478069810393 ], [ 18.779304361025705, 54.365612169657098 ], [ 18.800598754917999, 54.365745046948831 ], [ 18.804372546305562, 54.363707706116308 ], [ 18.821943342819914, 54.354302383410548 ], [ 18.843232019906917, 54.354432464261407 ], [ 18.847344975253343, 54.352208692714953 ], [ 18.86455888892915, 54.342987768799738 ], [ 18.885841851247942, 54.343114098729934 ], [ 18.907124944170953, 54.343238157319597 ], [ 18.928408165466429, 54.343359744094961 ], [ 18.944604959014541, 54.352292512756868 ], [ 18.949677376215636, 54.355051257940517 ], [ 18.95475653023842, 54.352296744727006 ], [ 18.970974982170247, 54.343594709003618 ], [ 18.992258571050503, 54.343707697646558 ], [ 19.013542275262253, 54.343817437195753 ], [ 19.0348260905544, 54.343923743726656 ], [ 19.056110012303339, 54.344026438934542 ], [ 19.077394035528624, 54.344125350736611 ], [ 19.098678154910282, 54.344220313797528 ], [ 19.119962364807545, 54.344311169977757 ], [ 19.141246659278689, 54.344397768705193 ], [ 19.162531032101771, 54.344479967272072 ], [ 19.183815476795921, 54.34455763105931 ], [ 19.197636523583309, 54.352143423169714 ], [ 19.20515762661606, 54.356204411547075 ], [ 19.226448177616824, 54.356272823578649 ], [ 19.247738779990442, 54.356336352765638 ], [ 19.269029426432546, 54.356394896218234 ], [ 19.290320109484576, 54.356448359370965 ], [ 19.303176850231107, 54.363485514602601 ], [ 19.311698441948515, 54.368071541344889 ], [ 19.332995163744556, 54.368114777330852 ], [ 19.354291899272834, 54.368152697924351 ], [ 19.375588640641531, 54.368185239083296 ], [ 19.387712117414626, 54.374804664726845 ], [ 19.396997034816302, 54.37978800974053 ], [ 19.418299757277133, 54.379809791514468 ], [ 19.430060897417324, 54.386222294356294 ], [ 19.439726191338703, 54.391402043258324 ], [ 19.461034867445427, 54.391412866058275 ], [ 19.472445154980516, 54.397624951846645 ], [ 19.482479330789833, 54.402994350471758 ], [ 19.50379393276317, 54.402994061123223 ], [ 19.514865502838031, 54.409012603286683 ], [ 19.525256414357283, 54.414564577684366 ], [ 19.546576914278958, 54.414553065908812 ], [ 19.557322392825256, 54.420385214625668 ], [ 19.56805740286029, 54.426112458747404 ], [ 19.578630999329359, 54.431846072709853 ], [ 19.58954995480962, 54.437666245120532 ], [ 19.59995477270698, 54.443303103221105 ], [ 19.61105457452582, 54.449214379167138 ], [ 19.621293787343951, 54.454756299359317 ], [ 19.632571266407329, 54.46075682134083 ], [ 19.643661879642206, 54.454639232675348 ], [ 19.653730938115061, 54.449140510417124 ], [ 19.675068965352263, 54.449095040125393 ], [ 19.696406879254582, 54.449043894790307 ], [ 19.717744672197107, 54.448987089926952 ], [ 19.73908233663624, 54.448924643769708 ], [ 19.760419865111615, 54.448856576995389 ], [ 19.781757250247473, 54.448782912461098 ], [ 19.803094484753483, 54.448703674956732 ], [ 19.815107028609997, 54.44204325475625 ], [ 19.824199064686503, 54.437042077446129 ], [ 19.84552995932998, 54.43695178389698 ], [ 19.866860682198595, 54.436856007269881 ], [ 19.888191226355598, 54.436754777856365 ], [ 19.909521584947171, 54.436648126845256 ], [ 19.930851751201153, 54.436536086163898 ], [ 19.952181718425596, 54.436418688332111 ], [ 19.964820429299809, 54.429379131677472 ], [ 19.973237059522361, 54.424719170305679 ], [ 19.994560597686892, 54.424591205375449 ], [ 20.015883917497639, 54.424457988835492 ], [ 20.037207012574552, 54.424319554208964 ], [ 20.058529876608098, 54.424175935049711 ], [ 20.079852503357255, 54.424027164861712 ], [ 20.101174886647446, 54.423873277026843 ], [ 20.122497020368456, 54.423714304740685 ], [ 20.13568279137607, 54.416332055438133 ], [ 20.143496620261644, 54.41197383033446 ], [ 20.164812232168288, 54.411804875887526 ], [ 20.186127576889167, 54.411630939628928 ], [ 20.207442648557322, 54.41145205336916 ], [ 20.228757441359885, 54.411268248514581 ], [ 20.250071949536149, 54.411079556039169 ], [ 20.27138616737572, 54.410886006460451 ], [ 20.292700089216687, 54.410687629819265 ], [ 20.306279674529687, 54.403045580020041 ], [ 20.313643661024162, 54.398908635341272 ], [ 20.334950976567114, 54.398700814560648 ], [ 20.356257979797853, 54.398488257746067 ], [ 20.377564665237198, 54.398270992811781 ], [ 20.398871027446113, 54.398049047146188 ], [ 20.420177061024184, 54.397822447606863 ], [ 20.433961063659314, 54.390034779903445 ], [ 20.441077014212251, 54.386015984122103 ], [ 20.462376383597181, 54.385780299416759 ], [ 20.4836754088055, 54.385540041830097 ], [ 20.504974084583544, 54.385295236040328 ], [ 20.52627240570936, 54.385045906197092 ], [ 20.547570366991348, 54.384792075922718 ], [ 20.568867963266985, 54.384533768313865 ], [ 20.590165189401535, 54.384271005943532 ], [ 20.604146445227308, 54.376331059012749 ], [ 20.61100869326145, 54.372429621892074 ], [ 20.632299180795879, 54.372158188577522 ], [ 20.653589283439718, 54.37188236869946 ], [ 20.674878996165312, 54.371602182774296 ], [ 20.696168313966769, 54.371317650811768 ], [ 20.717457231858745, 54.371028792316892 ], [ 20.738745744875228, 54.370735626291754 ], [ 20.760033848068264, 54.37043817123714 ], [ 20.781321536506791, 54.370136445154024 ], [ 20.802608805275327, 54.369830465544922 ], [ 20.816737159865681, 54.36175563134497 ], [ 20.823382850790171, 54.357947753418095 ], [ 20.844663292099387, 54.357633528423982 ], [ 20.865943299672644, 54.357315103437678 ], [ 20.887222868655442, 54.356992494032362 ], [ 20.908501994202933, 54.356665715289964 ], [ 20.92978067147866, 54.356334781801856 ], [ 20.951058895653336, 54.355999707669554 ], [ 20.972336661903618, 54.355660506505423 ], [ 20.993613965410876, 54.355317191433855 ], [ 21.014890801360028, 54.354969775092371 ], [ 21.036167164938323, 54.354618269633285 ], [ 21.057443051334197, 54.354262686725576 ], [ 21.078718455736166, 54.353903037557188 ], [ 21.099993373331692, 54.35353933283799 ], [ 21.114201449504893, 54.345346912193911 ], [ 21.120671844418396, 54.341602244228213 ], [ 21.141939814171756, 54.34123073287077 ], [ 21.16320728343268, 54.340855200133475 ], [ 21.184474247386852, 54.340475654906811 ], [ 21.205740701214069, 54.340092105623995 ], [ 21.227006640087385, 54.339704560267357 ], [ 21.241196261891247, 54.331490548025009 ], [ 21.247640795408483, 54.327745233646354 ], [ 21.26889973910577, 54.327350024542866 ], [ 21.275725987593667, 54.330843977901701 ], [ 21.290801318597993, 54.338518020970987 ], [ 21.312065149226285, 54.338114562392846 ], [ 21.333328440640521, 54.337707141168572 ], [ 21.354591187959652, 54.337295762754039 ], [ 21.375853386292004, 54.3368804322212 ], [ 21.390040099357517, 54.328632791635329 ], [ 21.396442129876466, 54.324895615456796 ], [ 21.417697270939662, 54.324472737715567 ], [ 21.438951849205342, 54.324045926289777 ], [ 21.460205859748978, 54.32361518486308 ], [ 21.48145929763481, 54.323180516801798 ], [ 21.502712157915987, 54.322741925170966 ], [ 21.52396443563477, 54.322299412750567 ], [ 21.545216125822876, 54.321852982052434 ], [ 21.566467223501817, 54.321402635337357 ], [ 21.573291604555425, 54.324861668259842 ], [ 21.588444091324405, 54.33251062925811 ], [ 21.609699924827108, 54.332052064441228 ], [ 21.63095514980488, 54.331589583691866 ], [ 21.652209761234488, 54.331123188464701 ], [ 21.673463754085702, 54.330652880055958 ], [ 21.694717123322047, 54.330178659621083 ], [ 21.715969863901609, 54.329700528192518 ], [ 21.737221970777874, 54.329218486697059 ], [ 21.758473438900609, 54.328732535973081 ], [ 21.779724263216774, 54.328242676787355 ], [ 21.786569786478264, 54.331686665710087 ], [ 21.801760666182044, 54.339306893135564 ], [ 21.823016117202727, 54.338808777365799 ], [ 21.844270908147486, 54.338306750154821 ], [ 21.865525033954921, 54.33780081219146 ], [ 21.886778489565909, 54.337290964172141 ], [ 21.90803126992456, 54.336777206814475 ], [ 21.929283369979196, 54.336259540870088 ], [ 21.950534784683324, 54.335737967136751 ], [ 21.97178550899655, 54.335212486469693 ], [ 21.993035537885529, 54.334683099792379 ], [ 22.014284866324854, 54.334149808106304 ], [ 22.03553348929794, 54.333612612500147 ], [ 22.05678140179786, 54.333071514158014 ], [ 22.063720328506548, 54.336528783924898 ], [ 22.078892427007553, 54.344078295847616 ], [ 22.100144822583005, 54.343528895828626 ], [ 22.121396491559707, 54.342975593009328 ], [ 22.142647428973291, 54.34241838908882 ], [ 22.163897629872931, 54.341857285892189 ], [ 22.185147089321916, 54.341292285374017 ], [ 22.206395802398241, 54.340723389621274 ], [ 22.22764376419509, 54.340150600855445 ], [ 22.248890969821296, 54.33957392143396 ], [ 22.270137414401795, 54.338993353851073 ], [ 22.291383093077943, 54.338408900737868 ], [ 22.312628001007869, 54.3378205648619 ], [ 22.31971207509903, 54.341318436398907 ], [ 22.334807568681178, 54.348773803494332 ], [ 22.356056829689898, 54.348177166088483 ], [ 22.377305304322604, 54.347576651538951 ], [ 22.398552987804713, 54.346972263210226 ], [ 22.419799875379404, 54.346364004592566 ], [ 22.441045962307648, 54.345751879298525 ], [ 22.448222109519321, 54.349278628265203 ], [ 22.463262798578899, 54.356677977126559 ], [ 22.484513176102716, 54.356057566805902 ], [ 22.505762737648766, 54.3554332981995 ], [ 22.527011478547255, 54.354805175430407 ], [ 22.548259394145802, 54.354173202720482 ], [ 22.569506479809174, 54.353537384384687 ], [ 22.590752730919071, 54.352897724825269 ], [ 22.611998142873759, 54.352254228525723 ], [ 22.633242711087778, 54.351606900044544 ], [ 22.640584819631158, 54.355190916089867 ], [ 22.655511818316924, 54.362492621202684 ], [ 22.676760584613081, 54.361837054751007 ], [ 22.698008492272759, 54.361177667556639 ], [ 22.719255536771236, 54.360514464476211 ], [ 22.740501713598029, 54.359847450408438 ], [ 22.761747018256376, 54.359176630287358 ], [ 22.769216651041202, 54.36280625501653 ], [ 22.78405295906326, 54.370035295730268 ], [ 22.805302402019038, 54.369356277088833 ], [ 22.812822803993466, 54.373004063247372 ], [ 22.813899163304807, 54.384539215829847 ], [ 22.814976256096688, 54.396074332503346 ], [ 22.829775418299771, 54.403269565757427 ], [ 22.837344287127593, 54.406933888352242 ], [ 22.852123038887239, 54.414112540607171 ], [ 22.873393419720834, 54.413419734955653 ], [ 22.886715281843792, 54.405352849109121 ], [ 22.893568828500378, 54.401192964980538 ], [ 22.914831487840374, 54.400493197996461 ], [ 22.936093234465524, 54.399789656345348 ], [ 22.957354063978702, 54.399082345212669 ], [ 22.970581689675264, 54.391050721584755 ], [ 22.977497075422875, 54.386843526216666 ], [ 22.998750160090289, 54.38612930987248 ], [ 23.01193533970773, 54.37811163610219 ], [ 23.010819827261553, 54.366578673399168 ], [ 23.009705140576244, 54.355045671661038 ], [ 23.016621024482404, 54.350831731601183 ], [ 23.037854586954339, 54.350111885725411 ], [ 23.059087215419186, 54.349388302888187 ], [ 23.072225287586846, 54.341378785258726 ], [ 23.057599134481872, 54.334306043885647 ], [ 23.049891222424698, 54.330561264114564 ], [ 23.048768375940906, 54.319028701075503 ], [ 23.055677831250978, 54.314812253453802 ], [ 23.068840828267437, 54.306781934962643 ], [ 23.075751181104579, 54.302562040650066 ], [ 23.096958453975443, 54.301833507382177 ], [ 23.104708469375247, 54.305564807763844 ], [ 23.119317233225111, 54.312624778630422 ], [ 23.140528477358714, 54.311888184731586 ], [ 23.153609447675187, 54.303888111066442 ], [ 23.160574601354039, 54.299625615559755 ], [ 23.173646279576026, 54.291624419724158 ], [ 23.180608875441816, 54.28736056414828 ], [ 23.201805540436958, 54.286614111680571 ], [ 23.214849816980504, 54.278617946400388 ], [ 23.221821163703328, 54.274343508419939 ], [ 23.234859036329617, 54.266344475797197 ], [ 23.241824958168326, 54.262070421184973 ], [ 23.263007034140834, 54.261314146506955 ], [ 23.284188136318285, 54.260554186625924 ], [ 23.305368260327491, 54.259790544949588 ], [ 23.32654740179283, 54.259023224791953 ], [ 23.339508258163345, 54.251044958589688 ], [ 23.346512115057767, 54.246735430552427 ], [ 23.359471177676102, 54.238751503174818 ], [ 23.366465024134556, 54.234445141917654 ], [ 23.379423351999051, 54.22645490086397 ], [ 23.386406137617431, 54.222152347125174 ], [ 23.399364759771696, 54.214155156727855 ], [ 23.398158995384378, 54.202627183727408 ], [ 23.40510795719657, 54.198341756499666 ], [ 23.418085043919721, 54.190324569479024 ], [ 23.416875449895944, 54.178796826500161 ], [ 23.423788938790061, 54.174529529156942 ], [ 23.444921372790027, 54.173744504760471 ], [ 23.46605280070666, 54.1729558188947 ], [ 23.479022203854896, 54.16492486747125 ], [ 23.485935058407893, 54.160650265620099 ], [ 23.498909366022197, 54.152609494358799 ], [ 23.497680551480837, 54.141082875443878 ], [ 23.496452415799485, 54.129556222198083 ], [ 23.495224947698382, 54.118029535025691 ], [ 23.502051476606162, 54.113802934353984 ], [ 23.515087079643038, 54.105711887308921 ], [ 23.51385554194222, 54.094185445928034 ], [ 23.512624634012319, 54.082658971997553 ], [ 23.519387222157118, 54.078467244478048 ], [ 23.532466185088367, 54.070338792281625 ], [ 23.531231112853032, 54.058812569098166 ], [ 23.529996634164561, 54.047286314692769 ], [ 23.528762739479959, 54.035760029406291 ], [ 23.527529419637638, 54.024233713564996 ], [ 23.512720498703771, 54.017108011212045 ], [ 23.50525185035545, 54.01349946490825 ], [ 23.504025077481295, 54.001972772870552 ], [ 23.489179606278963, 53.994820522027283 ], [ 23.481763893237531, 53.991233842674148 ], [ 23.480543655780025, 53.97970677612841 ], [ 23.487112252134146, 53.975630029217463 ], [ 23.500348065665722, 53.967392518187552 ], [ 23.506897360139629, 53.963324550363403 ], [ 23.520141111274942, 53.955075193154606 ], [ 23.518911594099837, 53.943548671221414 ], [ 23.517682594002366, 53.932022120752812 ], [ 23.516454105884982, 53.920495541920729 ], [ 23.515226125151077, 53.908968934878082 ], [ 23.513998647709929, 53.897442299758708 ], [ 23.52043335615431, 53.893437751723638 ], [ 23.533755442252261, 53.885123371459649 ], [ 23.532523467073805, 53.873597001018659 ], [ 23.531291980698278, 53.862070603023369 ], [ 23.537672001651703, 53.858094937793354 ], [ 23.551027190671647, 53.849749221469423 ], [ 23.549791163100643, 53.838223091339145 ], [ 23.548555615870686, 53.826696933951673 ], [ 23.547320548981318, 53.815170749286082 ], [ 23.546085962954162, 53.803644537301679 ], [ 23.544851858820355, 53.792118297938444 ], [ 23.543618238105747, 53.780592031117621 ], [ 23.54238510281397, 53.769065736742384 ], [ 23.548634983493553, 53.765161168652504 ], [ 23.562073345272157, 53.756743407062906 ], [ 23.568305629601976, 53.752846512961831 ], [ 23.581749885061392, 53.744418063581811 ], [ 23.580507126371835, 53.732892339249965 ], [ 23.586708031279407, 53.729010764895932 ], [ 23.600166892247113, 53.720564288607569 ], [ 23.598919575031655, 53.709038837463261 ], [ 23.597672763790058, 53.697513357960908 ], [ 23.5964264646923, 53.685987849842512 ], [ 23.595180684211559, 53.674462312838486 ], [ 23.60131318752358, 53.670616358929657 ], [ 23.614808563558576, 53.662132469256278 ], [ 23.613558288774673, 53.650607204494989 ], [ 23.612308556234861, 53.639081909905642 ], [ 23.611059373769169, 53.627556585165756 ], [ 23.617141627339919, 53.623735993775774 ], [ 23.630660560290242, 53.615224656331876 ], [ 23.62940696256333, 53.603699602284564 ], [ 23.628153943983857, 53.592174516925319 ], [ 23.634200212762902, 53.588371408475226 ], [ 23.64773358385138, 53.579840207522906 ], [ 23.646476225822848, 53.568315391404802 ], [ 23.645219479119334, 53.556790542684141 ], [ 23.65123176656666, 53.553003776905641 ], [ 23.664777734828775, 53.544453857290833 ], [ 23.663516735479845, 53.5329292758911 ], [ 23.662256381224445, 53.521404660526869 ], [ 23.668236394814524, 53.517633298308695 ], [ 23.681793446718167, 53.50906560235159 ], [ 23.68052893427323, 53.497541252043362 ], [ 23.679265100547507, 53.486016866404739 ], [ 23.6852142061413, 53.482260196128834 ], [ 23.698781195219564, 53.473675437496198 ], [ 23.697513301500958, 53.462151314453521 ], [ 23.696246118096042, 53.450627154785224 ], [ 23.702165310642322, 53.446884707705841 ], [ 23.715741479494678, 53.438283356299507 ], [ 23.714470333698504, 53.426759456741685 ], [ 23.720368204396422, 53.423026723707267 ], [ 23.73394983725046, 53.414412992864271 ], [ 23.73267480130669, 53.402889351931037 ], [ 23.731400523477344, 53.391365672383486 ], [ 23.737269148331631, 53.387647029392674 ], [ 23.750859723625283, 53.379016841118478 ], [ 23.74958164296681, 53.367493418032879 ], [ 23.755428780927666, 53.363784809469529 ], [ 23.76902530013037, 53.355141925074442 ], [ 23.767743479050317, 53.343618757289235 ], [ 23.766462445186402, 53.332095549622586 ], [ 23.772279910093474, 53.328401586748264 ], [ 23.785886217648216, 53.319741691318377 ], [ 23.784601507390143, 53.308218737651366 ], [ 23.783317586026435, 53.296695743972471 ], [ 23.789104823213297, 53.293016928379409 ], [ 23.802721689063073, 53.284339521555118 ], [ 23.801434135810887, 53.27281678133518 ], [ 23.807198190101328, 53.269149391468126 ], [ 23.820823137530279, 53.260457903825817 ], [ 23.819531981532485, 53.248935417173939 ], [ 23.825272081699055, 53.24528001943554 ], [ 23.838905979346318, 53.236573887713263 ], [ 23.844629429865666, 53.232926499039259 ], [ 23.858269395868643, 53.224209415768371 ], [ 23.856970317601643, 53.212687477351963 ], [ 23.862668198847238, 53.209053228598236 ], [ 23.876318869990488, 53.20032036050128 ], [ 23.875016229751701, 53.188798677869478 ], [ 23.880687609466371, 53.185178222290425 ], [ 23.901318260970005, 53.184334348389022 ], [ 23.914984524938451, 53.175577321711245 ], [ 23.913673278610442, 53.164056231130857 ], [ 23.912362760824514, 53.152535102751429 ], [ 23.911052948418064, 53.141013937511815 ], [ 23.90974381715673, 53.129492736394631 ], [ 23.894198807447385, 53.121923747155421 ], [ 23.887825803743503, 53.118821433058933 ], [ 23.886522914185932, 53.107299831879217 ], [ 23.885220612593397, 53.095778198586423 ], [ 23.883918871180388, 53.084256534302583 ], [ 23.882617661345186, 53.072734840182683 ], [ 23.888200837113303, 53.069162754851412 ], [ 23.901901854401487, 53.060364836262849 ], [ 23.900596733327824, 53.048843414741668 ], [ 23.906152300304392, 53.04528588021315 ], [ 23.919866088737212, 53.036470796654832 ], [ 23.918556984311056, 53.024949652110926 ], [ 23.924084578825106, 53.021406902904687 ], [ 23.937811466997371, 53.012574428408207 ], [ 23.936498298411728, 53.001053565617674 ], [ 23.935185479572489, 52.989532680504816 ], [ 23.933872976411877, 52.97801177446128 ], [ 23.939362719881185, 52.974488691292507 ], [ 23.953103510279043, 52.965634573723882 ], [ 23.951786739771034, 52.954113959399827 ], [ 23.93616427590046, 52.946482802888717 ], [ 23.929937014271133, 52.943448944902173 ], [ 23.928625425299003, 52.931927969361908 ], [ 23.927313976049909, 52.92040698007002 ], [ 23.926002630415791, 52.908885978497857 ], [ 23.924691352045329, 52.897364966125913 ], [ 23.92338010436924, 52.885843944442883 ], [ 23.922068850625621, 52.87432291494455 ], [ 23.920757553885558, 52.862801879132682 ], [ 23.91944617708009, 52.851280838513937 ], [ 23.924931066649126, 52.847751610500708 ], [ 23.938625306534689, 52.838907122799576 ], [ 23.937308983323813, 52.827386402790118 ], [ 23.935992478727812, 52.815865682237991 ], [ 23.934675755350035, 52.804344962666164 ], [ 23.94015689500019, 52.800812494264854 ], [ 23.95382953694612, 52.791969361154116 ], [ 23.952507624424513, 52.780448974245218 ], [ 23.951185391304431, 52.768928592632093 ], [ 23.949862800488166, 52.757408217827795 ], [ 23.948539815110085, 52.7458878513347 ], [ 23.947216398609157, 52.73436749464144 ], [ 23.945892514811696, 52.722847149219525 ], [ 23.9445681280251, 52.711326816519353 ], [ 23.929162844720143, 52.703754428579984 ], [ 23.922809285228432, 52.700658779114725 ], [ 23.907468874954962, 52.693111613307011 ], [ 23.90105771668809, 52.689986607422952 ], [ 23.885785601223521, 52.682466403226989 ], [ 23.879313353384344, 52.679310306831823 ], [ 23.864113020145922, 52.671818840563517 ], [ 23.85757613076062, 52.668629882497754 ], [ 23.842451127985591, 52.661168965048148 ], [ 23.835845989561296, 52.657945339315567 ], [ 23.82079992060374, 52.650516813443588 ], [ 23.814122876743397, 52.647256681886155 ], [ 23.799159393410655, 52.639862419024553 ], [ 23.792406746460742, 52.636563914482174 ], [ 23.791108695734767, 52.625041490395795 ], [ 23.77627423216822, 52.617702167853587 ], [ 23.769403187142245, 52.614344325341385 ], [ 23.754661352678895, 52.607044413244907 ], [ 23.734301839201123, 52.607886047246367 ], [ 23.713941340598062, 52.608724334217058 ], [ 23.693579860366814, 52.609559269814312 ], [ 23.673217401994517, 52.610390849523192 ], [ 23.652853968958691, 52.611219068655956 ], [ 23.645669167345257, 52.607697738059102 ], [ 23.63127358809653, 52.600543076197425 ], [ 23.610913564202605, 52.601364703922648 ], [ 23.603586502335588, 52.597769969791003 ], [ 23.589348212298905, 52.590683313937085 ], [ 23.568991608287096, 52.591498328529688 ], [ 23.561516383511577, 52.587826999003951 ], [ 23.547441278366154, 52.580811503807716 ], [ 23.53986183296205, 52.577086806517023 ], [ 23.525901575581937, 52.57012245596637 ], [ 23.518214431747325, 52.56634252507699 ], [ 23.504372487936998, 52.559431148383183 ], [ 23.48402808376666, 52.56023295788215 ], [ 23.476178431430345, 52.55636856567132 ], [ 23.474941453573535, 52.544841691060711 ], [ 23.461346105021139, 52.538041553357843 ], [ 23.45331611533971, 52.53408513461256 ], [ 23.439848780608234, 52.527343136760976 ], [ 23.431698405602585, 52.523324481439602 ], [ 23.418362013010665, 52.51664220111406 ], [ 23.410088497866575, 52.512559727822747 ], [ 23.396885784967377, 52.505938650928194 ], [ 23.388486588158266, 52.501790869332723 ], [ 23.387265511650391, 52.490262821602045 ], [ 23.374277723356716, 52.483741786105888 ], [ 23.365676301325127, 52.479489545872788 ], [ 23.364459539652373, 52.467961184703341 ], [ 23.351693227347301, 52.461543739884164 ], [ 23.34288373212252, 52.457183470655991 ], [ 23.341671821343535, 52.445654776914239 ], [ 23.329132180884926, 52.439343801622805 ], [ 23.320110230988011, 52.434872600034247 ], [ 23.318903793012783, 52.423343551758173 ], [ 23.317697840441866, 52.411814472985583 ], [ 23.305473555555675, 52.405652989491344 ], [ 23.29615707003709, 52.401027457321874 ], [ 23.284079927358967, 52.394934849567207 ], [ 23.274626745226112, 52.390236270094896 ], [ 23.273433417916731, 52.378706437469546 ], [ 23.261588447566687, 52.372723893458414 ], [ 23.251920288549673, 52.367910699104527 ], [ 23.25073471184859, 52.35638043343738 ], [ 23.239119876148202, 52.350507199699209 ], [ 23.229239873928755, 52.345580112573543 ], [ 23.228062885567706, 52.334049385767116 ], [ 23.216674069206029, 52.328283653429423 ], [ 23.206587434771297, 52.323244452018876 ], [ 23.205419871265757, 52.311713236500623 ], [ 23.194250885396936, 52.306052138406621 ], [ 23.18396486563088, 52.300903661779145 ], [ 23.182807533464661, 52.28937193152148 ], [ 23.192108809137604, 52.283409449554156 ], [ 23.201931629795308, 52.277118994878883 ], [ 23.200774257713942, 52.265587362800858 ], [ 23.199619841413519, 52.254055612102938 ], [ 23.198468532549494, 52.242523737411133 ], [ 23.197320474855964, 52.230991733637318 ], [ 23.20685436113428, 52.224876819220107 ], [ 23.227058330556297, 52.224184011311337 ], [ 23.247261508446286, 52.223488138437922 ], [ 23.256928634378127, 52.217280111874743 ], [ 23.266353737791274, 52.211225429455467 ], [ 23.276762687444329, 52.21656175505418 ], [ 23.287665467415014, 52.222087114135 ], [ 23.297429461476291, 52.215809667662924 ], [ 23.306745621481831, 52.209818466510676 ], [ 23.326940346631542, 52.209110279621797 ], [ 23.347134253142592, 52.208398928520246 ], [ 23.367327335367118, 52.207684393054031 ], [ 23.377236540565789, 52.201297574121732 ], [ 23.386378982615639, 52.195405401621045 ], [ 23.396287001089814, 52.189014333510656 ], [ 23.405420285718364, 52.183125143384657 ], [ 23.415329753428953, 52.17672812482531 ], [ 23.424451258349425, 52.170843660222779 ], [ 23.434555655926218, 52.176005626375485 ], [ 23.445779705402227, 52.181674116900908 ], [ 23.455790978337067, 52.175203946386461 ], [ 23.464798551387506, 52.169386407137473 ], [ 23.474784619496486, 52.174483631970936 ], [ 23.486135720867612, 52.180209990893587 ], [ 23.506312437950729, 52.179472970809854 ], [ 23.516478161288084, 52.172891641288984 ], [ 23.505063600946837, 52.167137160025923 ], [ 23.49503754831904, 52.162138062150724 ], [ 23.493829269476951, 52.150610082675541 ], [ 23.502805299471927, 52.144807317439366 ], [ 23.512836973706417, 52.138308713858464 ], [ 23.521793225934449, 52.132515989865681 ], [ 23.541947373453745, 52.13177288173511 ], [ 23.552042063184082, 52.125224582133406 ], [ 23.560918942319773, 52.119477159192002 ], [ 23.581066133282576, 52.118727444212844 ], [ 23.601212436601926, 52.11797433803585 ], [ 23.611423164473507, 52.111337974991201 ], [ 23.610198512870834, 52.099811356088658 ], [ 23.618966297763482, 52.094125902711738 ], [ 23.629163225826545, 52.08749196410497 ], [ 23.637900991592286, 52.081823327827173 ], [ 23.648120311132566, 52.075169635401075 ], [ 23.64689768788347, 52.063643162297957 ], [ 23.65562286355561, 52.057980788324755 ], [ 23.6658459786942, 52.051318064230244 ], [ 23.664626607240592, 52.03979156955981 ], [ 23.663411596817269, 52.028264891319679 ], [ 23.662200894135399, 52.016738031678052 ], [ 23.670918873045895, 52.011079793499782 ], [ 23.681137798089839, 52.004410503941074 ], [ 23.679929973849134, 51.992883635689694 ], [ 23.678726203284423, 51.981356595668124 ], [ 23.677526363790811, 51.969829388805103 ], [ 23.666015242274415, 51.964023944300202 ], [ 23.656208841473504, 51.959101139355482 ], [ 23.644751886932799, 51.953318051726932 ], [ 23.634904673016912, 51.948368635592402 ], [ 23.64365246760044, 51.942697378268321 ], [ 23.653838338273523, 51.936045266397592 ], [ 23.642364843654583, 51.930250210913577 ], [ 23.63255165252081, 51.925311804778062 ], [ 23.621122846313721, 51.919534371622717 ], [ 23.611277565621847, 51.914574129409566 ], [ 23.620029383209097, 51.908904040943327 ], [ 23.630210929645973, 51.9022544471377 ], [ 23.629044700796463, 51.890725589713519 ], [ 23.627880961611861, 51.879196623711216 ], [ 23.61637973107802, 51.87337532937552 ], [ 23.606638259490662, 51.868457188378031 ], [ 23.615299483651089, 51.862845162979291 ], [ 23.625560139735281, 51.856138398060018 ], [ 23.614012357483833, 51.850289903919929 ], [ 23.604331779892831, 51.845398137693437 ], [ 23.603181122456245, 51.833868495239081 ], [ 23.611761071216659, 51.828307618676163 ], [ 23.622092489070837, 51.821550446148386 ], [ 23.630593403772341, 51.816036940486377 ], [ 23.640993511306352, 51.809229584594583 ], [ 23.639836400850534, 51.797700404649959 ], [ 23.638680197017589, 51.786171178473779 ], [ 23.626916553909705, 51.780205482909736 ], [ 23.617485934372112, 51.775432361710855 ], [ 23.605750053396552, 51.769475670687854 ], [ 23.59630090843083, 51.764689487981933 ], [ 23.58459357997403, 51.758742225836208 ], [ 23.564613408025842, 51.759551030829584 ], [ 23.555091842147675, 51.754722228610738 ], [ 23.543471141129391, 51.748810744648722 ], [ 23.533928016836956, 51.74396758728475 ], [ 23.532798584275699, 51.732436665268821 ], [ 23.541274000428523, 51.726942929606608 ], [ 23.551688560329431, 51.720130397728184 ], [ 23.550553677893753, 51.708599783223001 ], [ 23.549418326697531, 51.697069175921712 ], [ 23.548282371458907, 51.68553858103914 ], [ 23.547145683071481, 51.67400800354725 ], [ 23.546008138474757, 51.662477448180397 ], [ 23.544869620493341, 51.650946919441743 ], [ 23.543730017650773, 51.639416421610605 ], [ 23.542589223963358, 51.627885958750575 ], [ 23.541447138719167, 51.616355534718288 ], [ 23.540303666246931, 51.604825153172477 ], [ 23.548513766069895, 51.599478981456947 ], [ 23.55912308686915, 51.59251951073928 ], [ 23.557971745713793, 51.580989534377039 ], [ 23.556818767500449, 51.569459610405985 ], [ 23.564956228527635, 51.56415030830113 ], [ 23.575612225521557, 51.557152016138545 ], [ 23.574450927195269, 51.545622517836101 ], [ 23.573287778954725, 51.534093080450219 ], [ 23.581373420165676, 51.528806636577443 ], [ 23.601257984259622, 51.528057057936756 ], [ 23.61198470724938, 51.521000102675401 ], [ 23.610808035680041, 51.509471425227865 ], [ 23.618802597961785, 51.504232675122879 ], [ 23.629547941456991, 51.497156639274955 ], [ 23.637501775910909, 51.491938553482981 ], [ 23.65736861796697, 51.491178505233712 ], [ 23.668184319656145, 51.484046699817654 ], [ 23.676051613152207, 51.47887606209644 ], [ 23.68689028635853, 51.471723659626704 ], [ 23.674680623209294, 51.465493324370605 ], [ 23.665787409978261, 51.46099176527629 ], [ 23.653657296112627, 51.454796797631218 ], [ 23.644690101058519, 51.450255971473069 ], [ 23.652660506747882, 51.445012297001924 ], [ 23.672506536632753, 51.444249970275528 ], [ 23.683270519015764, 51.437142575667387 ], [ 23.682059410836313, 51.425615706252856 ], [ 23.689981334082102, 51.420391335197756 ], [ 23.700723260590507, 51.413291684854393 ], [ 23.699502636918087, 51.401765308006304 ], [ 23.687440396309015, 51.395602123794845 ], [ 23.678411925667966, 51.39103559684672 ], [ 23.677191247840444, 51.379509064908405 ], [ 23.675968086115326, 51.36798262080692 ], [ 23.664105170961598, 51.361912449450379 ], [ 23.654887062068191, 51.357248552501098 ], [ 23.653663588626856, 51.345721961844433 ], [ 23.652437534071364, 51.334195462131227 ], [ 23.640807441049219, 51.328235766191256 ], [ 23.631365698324668, 51.323457056359587 ], [ 23.639762094248823, 51.317899061668193 ], [ 23.649977587370579, 51.311142738960292 ], [ 23.648743655468124, 51.299616516919635 ], [ 23.647507063388435, 51.288090388638899 ], [ 23.656033318971325, 51.282433362469305 ], [ 23.665531221475938, 51.287372061934775 ], [ 23.676987007120218, 51.293244100432041 ], [ 23.687158887991593, 51.286506430987998 ], [ 23.695584127356106, 51.280908818824905 ], [ 23.705728248192283, 51.274184455107054 ], [ 23.714171027412267, 51.268568315994074 ], [ 23.724283385425945, 51.261859940929384 ], [ 23.723019876712232, 51.250335419350158 ], [ 23.731556865686823, 51.244646637355451 ], [ 23.741553353989573, 51.23800880591606 ], [ 23.740279762825484, 51.226484812532775 ], [ 23.739003513753282, 51.214960915065689 ], [ 23.747730390068014, 51.209132546909267 ], [ 23.75750791092176, 51.202632649170987 ], [ 23.766273664246238, 51.196771310569808 ], [ 23.775998041157152, 51.190301872852295 ], [ 23.784806746763088, 51.18440480298402 ], [ 23.804536615505693, 51.18361975667618 ], [ 23.814241313773977, 51.177154961464041 ], [ 23.812935498023947, 51.165632814512321 ], [ 23.821842354262198, 51.159655970075214 ], [ 23.83183333425303, 51.164851968308767 ], [ 23.842776660364187, 51.170451691479492 ], [ 23.852454427868164, 51.16399640488973 ], [ 23.86127761950442, 51.15806739456405 ], [ 23.870887943600962, 51.151652278737657 ], [ 23.869562591605568, 51.140131370828577 ], [ 23.858810264991273, 51.134629557746258 ], [ 23.848492915000957, 51.129432619906844 ], [ 23.847167490400619, 51.117911538945911 ], [ 23.85639930846747, 51.111696853624188 ], [ 23.865571839994939, 51.105569189396178 ], [ 23.86423689042093, 51.094048634402114 ], [ 23.873650610932025, 51.08770185259305 ], [ 23.882619980527025, 51.081704252124581 ], [ 23.892109825497229, 51.075299141114108 ], [ 23.911789756546728, 51.074493242622076 ], [ 23.920700139028643, 51.068527324105972 ], [ 23.919344019567923, 51.057008088719158 ], [ 23.91798592155671, 51.045488924845479 ], [ 23.916625961546984, 51.033969827489592 ], [ 23.915264268070604, 51.022450791154569 ], [ 23.913900982052549, 51.010931809824974 ], [ 23.924064028935224, 51.004048829706669 ], [ 23.943712666727066, 51.003236501373898 ], [ 23.951892377632223, 50.997747370484319 ], [ 23.950516244609492, 50.986229228774022 ], [ 23.960877920696671, 50.979197942606149 ], [ 23.968803672238124, 50.973874245517628 ], [ 23.967420297310774, 50.962356549457354 ], [ 23.966036132410345, 50.950838874942171 ], [ 23.976781901624808, 50.943536800358153 ], [ 23.98429849065306, 50.938482234703883 ], [ 23.99515544242124, 50.931097929448249 ], [ 24.002547921441717, 50.926123126958409 ], [ 24.013518986216052, 50.91865458467587 ], [ 24.020784560179553, 50.913761551581409 ], [ 24.03187254719456, 50.906206848456137 ], [ 24.039008550402002, 50.901397508009836 ], [ 24.050216140181334, 50.893754808057125 ], [ 24.069813862521492, 50.892915783420712 ], [ 24.076835529009319, 50.888177382783333 ], [ 24.088141615315696, 50.880455599842463 ], [ 24.107732433214064, 50.879608724226507 ], [ 24.114633215175548, 50.874945883173488 ], [ 24.126044354259609, 50.867140469073533 ], [ 24.132805243022389, 50.862568771191114 ], [ 24.131374212307225, 50.851054525539752 ], [ 24.123853894229722, 50.847208479212902 ], [ 24.110356842459048, 50.840401904344603 ], [ 24.10302953097991, 50.836651450791216 ], [ 24.08345880292493, 50.837517587650638 ], [ 24.06388718358734, 50.838381095055666 ], [ 24.044314676476098, 50.839241979374627 ], [ 24.024741285090627, 50.840100246984534 ], [ 24.005167012919895, 50.84095590426211 ], [ 23.991399231047911, 50.833986936425838 ], [ 23.984370951121679, 50.83037711970443 ], [ 23.970421197774311, 50.823307847378551 ], [ 23.969042035039763, 50.811789975097447 ], [ 23.967665693162793, 50.800271970085099 ], [ 23.966292502711227, 50.788753818270436 ], [ 23.96492279405371, 50.77723550560178 ], [ 23.977774945652623, 50.768486594337354 ], [ 23.997322067098473, 50.767657709440229 ], [ 24.016868192912423, 50.766824909241272 ], [ 24.022236369550058, 50.763198712212841 ], [ 24.020856869596678, 50.751681282384766 ], [ 24.019481687866552, 50.740163654241947 ], [ 24.018111139529566, 50.728645814260538 ], [ 24.031423299315644, 50.719566812934893 ], [ 24.050947952539495, 50.718724757769294 ], [ 24.070471601210201, 50.717878822804202 ], [ 24.075335297753519, 50.714585501056185 ], [ 24.073956774750155, 50.703068469580138 ], [ 24.072583664573123, 50.691551190392175 ], [ 24.067334021585733, 50.688852056480542 ], [ 24.051706534649291, 50.680883006083498 ], [ 24.065460202920516, 50.671493758835879 ], [ 24.084963406275737, 50.670642171719571 ], [ 24.089356381622384, 50.667663705272595 ], [ 24.087994944850365, 50.656146042476223 ], [ 24.083122791609281, 50.653640007877158 ], [ 24.067150592084619, 50.645479370098329 ], [ 24.081202449567591, 50.635883769582506 ], [ 24.085291436247566, 50.633109835805541 ], [ 24.083949746570401, 50.621591275461604 ], [ 24.082614981878539, 50.610072401203688 ], [ 24.096925419504007, 50.600297813962236 ], [ 24.100749901607404, 50.597700431670518 ], [ 24.096401767849944, 50.595461685304066 ], [ 24.079966721670502, 50.587033689870609 ], [ 24.078653407369963, 50.575513845145963 ], [ 24.077347379531332, 50.563993671247893 ], [ 24.076048661144892, 50.552473167310225 ], [ 24.074757248142866, 50.540952333648747 ], [ 24.073473109763178, 50.529431171744285 ], [ 24.07219618913815, 50.517909684215944 ], [ 24.07092640409558, 50.506387874785219 ], [ 24.067040826084543, 50.504381384190992 ], [ 24.050253890551186, 50.495711596797214 ], [ 24.049003922444992, 50.484188758921803 ], [ 24.047760645067285, 50.472665619987296 ], [ 24.046523882688412, 50.461142187750248 ], [ 24.042688268427327, 50.459158076512729 ], [ 24.02590497782133, 50.450459563903692 ], [ 24.022046073705987, 50.448461771849537 ], [ 24.00530155558296, 50.439772721502315 ], [ 24.00409423106948, 50.428247706660066 ], [ 24.002892402877738, 50.416722444870786 ], [ 23.998977761176597, 50.414692918291202 ], [ 23.97957566250642, 50.415511720231216 ], [ 23.960172723798902, 50.416327875138116 ], [ 23.940768947546434, 50.417141379944574 ], [ 23.92136433621971, 50.417952231324392 ], [ 23.901958892267544, 50.418760425685363 ], [ 23.885446676186223, 50.410148766429835 ], [ 23.881363688628941, 50.408024766872209 ], [ 23.861961222946423, 50.408826870306072 ], [ 23.842557932976273, 50.409626306129219 ], [ 23.823153821051026, 50.410423069376641 ], [ 23.803748889480904, 50.411217154781014 ], [ 23.787388616726936, 50.402658237425094 ], [ 23.78317796235314, 50.400461514735667 ], [ 23.76377604236599, 50.401249514876099 ], [ 23.747497955895085, 50.392720416767986 ], [ 23.743218001461106, 50.39048457050577 ], [ 23.723819108118903, 50.391266508882708 ], [ 23.707624499741382, 50.382768355379042 ], [ 23.703273997387843, 50.380492634454178 ], [ 23.687145878912606, 50.372021098832548 ], [ 23.686051469222125, 50.360489217325934 ], [ 23.68495936088954, 50.34895723165782 ], [ 23.683869281373923, 50.337425152849292 ], [ 23.679321460232455, 50.335042163660724 ], [ 23.663422335589608, 50.326672707652151 ], [ 23.658810592197341, 50.324254264509015 ], [ 23.6394364337011, 50.325022276312211 ], [ 23.623627459282901, 50.316689428047411 ], [ 23.622555825913551, 50.305156211321773 ], [ 23.617816554721717, 50.302666862475427 ], [ 23.602135414432496, 50.294392201460695 ], [ 23.601069640348165, 50.282858608544061 ], [ 23.596217453022177, 50.280307133863168 ], [ 23.580661984041363, 50.272090464951148 ], [ 23.575749027598292, 50.26950494636138 ], [ 23.560261652817697, 50.261318538066213 ], [ 23.555289914220793, 50.258699969970358 ], [ 23.539868312553239, 50.250542843856692 ], [ 23.534840126082937, 50.247892406249655 ], [ 23.519481651365762, 50.239763397192448 ], [ 23.514399674769699, 50.23708244367166 ], [ 23.499101379530575, 50.228980211868475 ], [ 23.493968570292733, 50.226270257656786 ], [ 23.474630110964565, 50.227013882751848 ], [ 23.459398067655393, 50.218938225883704 ], [ 23.458358954001767, 50.207402675232437 ], [ 23.453134434308176, 50.204639852724846 ], [ 23.437996328387662, 50.196608346434211 ], [ 23.432731415406703, 50.193821921199429 ], [ 23.417639147008, 50.18581032408958 ], [ 23.412337768681347, 50.183002341753976 ], [ 23.397287223879054, 50.175008617172409 ], [ 23.391953497106506, 50.172181228535109 ], [ 23.376940391514502, 50.164203233830897 ], [ 23.371578602454704, 50.16135868473738 ], [ 23.356598499986848, 50.153394181438898 ], [ 23.355568689064665, 50.141857609795558 ], [ 23.350163563550346, 50.138986930673127 ], [ 23.335233224271214, 50.131044702770971 ], [ 23.329812922795327, 50.128163653179975 ], [ 23.314902299016417, 50.120228144981901 ], [ 23.309471657696829, 50.117339284077126 ], [ 23.294575819790065, 50.109407941353368 ], [ 23.289139765351528, 50.106513882708953 ], [ 23.27425370578236, 50.098584096278948 ], [ 23.273226540515186, 50.087046883513118 ], [ 23.267790573411361, 50.084149713456362 ], [ 23.252909677325512, 50.07621923250877 ], [ 23.251880282125555, 50.064681954148639 ], [ 23.246462604751521, 50.061791384504353 ], [ 23.231568275908138, 50.053850511913041 ], [ 23.226169794691728, 50.050967880971349 ], [ 23.211260252064065, 50.043015445769527 ], [ 23.210228716616196, 50.03147796148604 ], [ 23.204877883784448, 50.02861766450453 ], [ 23.189925072594274, 50.02063912234491 ], [ 23.188890265960602, 50.009101605811793 ], [ 23.183607166960766, 50.006274446459734 ], [ 23.168590695706936, 49.998259004383847 ], [ 23.16335334898028, 49.995454092922976 ], [ 23.148294867147488, 49.987412790422823 ], [ 23.147256444751548, 49.97587511363853 ], [ 23.142118610310153, 49.973120511344192 ], [ 23.126964315672943, 49.965025150853251 ], [ 23.121888895621002, 49.962301844146303 ], [ 23.106675838552647, 49.954171580358278 ], [ 23.10563296588818, 49.942633767746351 ], [ 23.100690070906449, 49.939978697012172 ], [ 23.085347845460944, 49.931776460231795 ], [ 23.084300171679789, 49.920238660588062 ], [ 23.079512355812557, 49.917664107755627 ], [ 23.064018150878525, 49.909377624005202 ], [ 23.059321427205404, 49.906850047583831 ], [ 23.043739634365394, 49.898512986711992 ], [ 23.042686101859307, 49.886975090709015 ], [ 23.038179519100503, 49.884547220418291 ], [ 23.022410353517596, 49.876106734897668 ], [ 23.01801255322987, 49.873735590349042 ], [ 23.002138039254284, 49.865234781998375 ], [ 23.001077785513449, 49.853696812727627 ], [ 22.996906380829881, 49.85144530787025 ], [ 22.980807898877497, 49.842821151673348 ], [ 22.976763321689102, 49.840636372381894 ], [ 22.960541369680875, 49.831941897197751 ], [ 22.959473498610809, 49.820403877994096 ], [ 22.958399973782626, 49.808866035220625 ], [ 22.954757062148538, 49.806895547050992 ], [ 22.938134105138776, 49.7979829808178 ], [ 22.934643284514671, 49.79609326730683 ], [ 22.917871424314317, 49.787096338666835 ], [ 22.914538693892744, 49.785290779745146 ], [ 22.897611922954805, 49.776206109864624 ], [ 22.89652775199184, 49.764668156205346 ], [ 22.895437259297516, 49.753130397727013 ], [ 22.892607091353788, 49.75159502884857 ], [ 22.875177217971377, 49.742236399312169 ], [ 22.872531680172635, 49.74080006045839 ], [ 22.854920159847442, 49.731338820207519 ], [ 22.853818988195965, 49.719801089307232 ], [ 22.85155954710666, 49.718573059284438 ], [ 22.833562661757643, 49.708899847103979 ], [ 22.831507836129735, 49.707782148162522 ], [ 22.813309191207733, 49.697995028611942 ], [ 22.811465255149226, 49.696991251164768 ], [ 22.793058551858032, 49.6870866352996 ], [ 22.791431796438673, 49.686200387119122 ], [ 22.772810715882279, 49.676174668722673 ], [ 22.771692591005376, 49.664636838111051 ], [ 22.77056679272706, 49.653099238591416 ], [ 22.769641722726838, 49.652594584751405 ], [ 22.750316115874821, 49.642183555637843 ], [ 22.749637253907636, 49.64181292496378 ], [ 22.730067999908815, 49.631264305660324 ], [ 22.728928185203301, 49.619726809836919 ], [ 22.728771209998232, 49.619641016482412 ], [ 22.709132861794423, 49.613373180546461 ], [ 22.689983400164316, 49.61350487653803 ], [ 22.670829752497266, 49.613581404126137 ], [ 22.651672118258805, 49.613604564132451 ], [ 22.632510700750021, 49.613576246580223 ], [ 22.613345706840207, 49.613498429516767 ], [ 22.594177346692149, 49.613373177698286 ], [ 22.575005833478507, 49.61320264110946 ], [ 22.570528393842842, 49.613153234255115 ], [ 22.555831644333789, 49.612992639720275 ], [ 22.536654827358532, 49.612743198094549 ], [ 22.517475521819435, 49.612455606408965 ], [ 22.49829394886774, 49.612132325793745 ], [ 22.479110331166389, 49.611775892985442 ], [ 22.459924892591001, 49.611388918256175 ], [ 22.440737857931175, 49.610974083274314 ], [ 22.42154945259357, 49.610534138914097 ], [ 22.402359902311325, 49.610071903077902 ], [ 22.383169432856498, 49.609590258481937 ], [ 22.363978269757144, 49.609092150428239 ], [ 22.344786638020935, 49.608580584590314 ], [ 22.340314774918582, 49.608459478641826 ], [ 22.325595034304659, 49.608062625184139 ], [ 22.30640348963998, 49.607538624431236 ], [ 22.287212141686361, 49.607010526888331 ], [ 22.268021209686847, 49.606481542203113 ], [ 22.24883091106722, 49.605954928957296 ], [ 22.229641461198646, 49.605433992517611 ], [ 22.210453073166601, 49.604922082899833 ], [ 22.191265957544442, 49.604422592618484 ], [ 22.172080322173169, 49.603938954548305 ], [ 22.152896371944269, 49.603474639747411 ], [ 22.13371430858761, 49.603033155272854 ], [ 22.12623408675746, 49.602871958363046 ], [ 22.114534475347337, 49.602620314301682 ], [ 22.095357003949321, 49.602238736468287 ], [ 22.076181991561366, 49.601890557962982 ], [ 22.057009624427856, 49.601579391951446 ], [ 22.037840084620701, 49.601308875727717 ], [ 22.018673549837271, 49.601082668124157 ], [ 21.999510193196581, 49.60090444678886 ], [ 21.98035018303402, 49.600777905327874 ], [ 21.961193682693409, 49.600706750288786 ], [ 21.942040850315998, 49.600694697969828 ], [ 21.922891838625624, 49.600745471036227 ], [ 21.903746794709868, 49.600862794931601 ], [ 21.884605859797205, 49.601050394075138 ], [ 21.865469169029389, 49.601311987823301 ], [ 21.846336851228813, 49.601651286179866 ], [ 21.827209028661379, 49.602071985254263 ], [ 21.808085816794637, 49.602577762450345 ], [ 21.788967324051924, 49.603172271388608 ], [ 21.769853651561267, 49.603859136526673 ], [ 21.750744892901455, 49.604641947508313 ], [ 21.731641133846058, 49.605524253241008 ], [ 21.712542452103222, 49.60650955565243 ], [ 21.693448917055399, 49.607601303185326 ], [ 21.674360589498257, 49.608802884006266 ], [ 21.655277521380604, 49.610117618947008 ], [ 21.636199755545245, 49.611548754167266 ], [ 21.617127325474197, 49.613099453587928 ], [ 21.598060255038209, 49.614772791084228 ], [ 21.581819200952967, 49.61630517942352 ], [ 21.578998601160905, 49.616572555023609 ], [ 21.559942596179315, 49.618505990366664 ] ] ], [ [ [ 18.794626647391425, 54.618028165885761 ], [ 18.777891446089384, 54.627049067544498 ], [ 18.773224259206096, 54.62955048295332 ], [ 18.773097288192876, 54.64111072969137 ], [ 18.756322057237899, 54.650135202376461 ], [ 18.751663271693264, 54.652629150322305 ], [ 18.734803318720672, 54.661685136669639 ], [ 18.730206463824466, 54.664143718210106 ], [ 18.730060019052043, 54.675703822685428 ], [ 18.734695565609776, 54.678220397134147 ], [ 18.739363794167161, 54.675724190694304 ], [ 18.756222684024369, 54.666738262650306 ], [ 18.7609498260035, 54.664208274578982 ], [ 18.777737630598761, 54.655258015527757 ], [ 18.782534304743745, 54.65268849988459 ], [ 18.799240422866202, 54.643779537486758 ], [ 18.80411700083285, 54.64116486541662 ], [ 18.804111775040798, 54.629604380118039 ], [ 18.820782040432622, 54.620711057327078 ], [ 18.825689199645431, 54.61807686359154 ], [ 18.825681944069355, 54.606516336609523 ], [ 18.820855891690353, 54.603898502359264 ], [ 18.816006915173244, 54.606502020570588 ], [ 18.79937975161738, 54.615478413165718 ], [ 18.794626647391425, 54.618028165885761 ] ] ], [ [ [ 18.717776359442169, 54.687236249406119 ], [ 18.713191218183059, 54.684746392874189 ], [ 18.708571122331684, 54.687214464075979 ], [ 18.713156257839668, 54.689704494372045 ], [ 18.717776359442169, 54.687236249406119 ] ] ], [ [ [ 18.674611490047223, 54.69868845264201 ], [ 18.670174109458447, 54.696276551646541 ], [ 18.665697798976442, 54.69866419672227 ], [ 18.670135173363104, 54.7010762606252 ], [ 18.674611490047223, 54.69868845264201 ] ] ], [ [ [ 18.653023392361355, 54.710188970793759 ], [ 18.648606713572093, 54.707787523913993 ], [ 18.644148734930237, 54.710163245576709 ], [ 18.648565407168824, 54.712564853916938 ], [ 18.653023392361355, 54.710188970793759 ] ] ], [ [ [ 18.588278634662668, 54.733107150186733 ], [ 18.583949542089663, 54.730750306569249 ], [ 18.579572464848216, 54.733077278131177 ], [ 18.583901549955193, 54.735434277090519 ], [ 18.588278634662668, 54.733107150186733 ] ] ], [ [ [ 18.458794876032851, 54.778839969124874 ], [ 18.454417830285049, 54.776450882046426 ], [ 18.449977016567264, 54.778800316374941 ], [ 18.454354052267139, 54.781189562710466 ], [ 18.458794876032851, 54.778839969124874 ] ] ] ] } }
]
}
